"Longitude (x)","Latitude (y)","Station Name","Climate ID","Date/Time (LST)","Year","Month","Day","Time (LST)","Flag","Temp (°C)","Temp Flag","Dew Point Temp (°C)","Dew Point Temp Flag","Rel Hum (%)","Rel Hum Flag","Wind Dir (10s deg)","Wind Dir Flag","Wind Spd (km/h)","Wind Spd Flag","Visibility (km)","Visibility Flag","Stn Press (kPa)","Stn Press Flag","Hmdx","Hmdx Flag","Wind Chill","Wind Chill Flag","Weather"
"-79.40","43.63","TORONTO ISLAND A","6158665","1992-11-01 00:00","1992","11","01","00:00"
"-79.40","43.63","TORONTO ISLAND A","6158665","1992-11-01 01:00","1992","11","01","01:00"
"-79.40","43.63","TORONTO ISLAND A","6158665","1992-11-01 02:00","1992","11","01","02:00"
"-79.40","43.63","TORONTO ISLAND A","6158665","1992-11-01 03:00","1992","11","01","03:00"
"-79.40","43.63","TORONTO ISLAND A","6158665","1992-11-01 04:00","1992","11","01","04:00"
"-79.40","43.63","TORONTO ISLAND A","6158665","1992-11-01 05:00","1992","11","01","05:00"
"-79.40","43.63","TORONTO ISLAND A","6158665","1992-11-01 06:00","1992","11","01","06:00"
"-79.40","43.63","TORONTO ISLAND A","6158665","1992-11-01 07:00","1992","11","01","07:00","","0.4","","-6.5","","60","","5","","19","","25.0","","101.93","","","","","","Mainly Clear"
"-79.40","43.63","TORONTO ISLAND A","6158665","1992-11-01 08:00","1992","11","01","08:00","","0.4","","-6.5","","60","","5","","26","","25.0","","101.96","","","","","","Mainly Clear"
"-79.40","43.63","TORONTO ISLAND A","6158665","1992-11-01 09:00","1992","11","01","09:00","","1.5","","-5.8","","58","","5","","22","","25.0","","102.06","","","","","","Mainly Clear"
"-79.40","43.63","TORONTO ISLAND A","6158665","1992-11-01 10:00","1992","11","01","10:00","","2.2","","-4.9","","59","","6","","30","","25.0","","102.00","","","","","","Mainly Clear"
"-79.40","43.63","TORONTO ISLAND A","6158665","1992-11-01 11:00","1992","11","01","11:00","","2.6","","-4.4","","60","","8","","31","","25.0","","101.96","","","","","","Mainly Clear"
"-79.40","43.63","TORONTO ISLAND A","6158665","1992-11-01 12:00","1992","11","01","12:00","","2.7","","-3.6","","63","","8","","24","","25.0","","101.93","","","","","","Mainly Clear"
"-79.40","43.63","TORONTO ISLAND A","6158665","1992-11-01 13:00","1992","11","01","13:00","","3.1","","-3.2","","63","","8","","26","","25.0","","101.79","","","","","","Mostly Cloudy"
"-79.40","43.63","TORONTO ISLAND A","6158665","1992-11-01 14:00","1992","11","01","14:00","","3.2","","-3.3","","62","","9","","30","","25.0","","101.76","","","","","","Cloudy"
"-79.40","43.63","TORONTO ISLAND A","6158665","1992-11-01 15:00","1992","11","01","15:00","","3.3","","-3.1","","63","","10","","30","","25.0","","101.73","","","","","","Cloudy"
"-79.40","43.63","TORONTO ISLAND A","6158665","1992-11-01 16:00","1992","11","01","16:00","","3.3","","-2.3","","67","","9","","33","","25.0","","101.69","","","","","","Cloudy"
"-79.40","43.63","TORONTO ISLAND A","6158665","1992-11-01 17:00","1992","11","01","17:00","","4.3","","-2.3","","62","","8","","30","","25.0","","101.69","","","","","","Cloudy"
"-79.40","43.63","TORONTO ISLAND A","6158665","1992-11-01 18:00","1992","11","01","18:00","","4.0","","-2.4","","63","","10","","37","","25.0","","101.69","","","","","","Cloudy"
"-79.40","43.63","TORONTO ISLAND A","6158665","1992-11-01 19:00","1992","11","01","19:00","","4.6","","-1.8","","63","","8","","41","","25.0","","101.66","","","","","","Cloudy"
"-79.40","43.63","TORONTO ISLAND A","6158665","1992-11-01 20:00","1992","11","01","20:00","","4.6","","-1.1","","66","","8","","30","","25.0","","101.59","","","","","","Cloudy"
"-79.40","43.63","TORONTO ISLAND A","6158665","1992-11-01 21:00","1992","11","01","21:00","","4.4","","-0.8","","69","","8","","41","","25.0","","101.56","","","","","","Cloudy"
"-79.40","43.63","TORONTO ISLAND A","6158665","1992-11-01 22:00","1992","11","01","22:00","","4.1","","-0.3","","73","","7","","28","","25.0","","101.49","","","","","","Cloudy"
"-79.40","43.63","TORONTO ISLAND A","6158665","1992-11-01 23:00","1992","11","01","23:00","","","","","","","","7","","46","","","","","","","","","","NA"
"-79.40","43.63","TORONTO ISLAND A","6158665","1992-11-02 00:00","1992","11","02","00:00","","","","","","","","8","","43","","","","","","","","","","NA"
"-79.40","43.63","TORONTO ISLAND A","6158665","1992-11-02 01:00","1992","11","02","01:00","","","","","","","","7","","46","","","","","","","","","","NA"
"-79.40","43.63","TORONTO ISLAND A","6158665","1992-11-02 02:00","1992","11","02","02:00","","","","","","","","8","","41","","","","","","","","","","NA"
"-79.40","43.63","TORONTO ISLAND A","6158665","1992-11-02 03:00","1992","11","02","03:00","","","","","","","","11","","37","","","","","","","","","","NA"
"-79.40","43.63","TORONTO ISLAND A","6158665","1992-11-02 04:00","1992","11","02","04:00","","","","","","","","10","","37","","","","","","","","","","NA"
"-79.40","43.63","TORONTO ISLAND A","6158665","1992-11-02 05:00","1992","11","02","05:00","","","","","","","","9","","46","","","","","","","","","","NA"
"-79.40","43.63","TORONTO ISLAND A","6158665","1992-11-02 06:00","1992","11","02","06:00","","","","","","","","9","","48","","","","","","","","","","NA"
"-79.40","43.63","TORONTO ISLAND A","6158665","1992-11-02 07:00","1992","11","02","07:00","","4.3","","3.5","","95","","9","","37","","14.5","","100.85","","","","","","Rain"
"-79.40","43.63","TORONTO ISLAND A","6158665","1992-11-02 08:00","1992","11","02","08:00","","4.0","","3.4","","96","","10","","46","","6.4","","100.75","","","","","","Rain,Fog"
"-79.40","43.63","TORONTO ISLAND A","6158665","1992-11-02 09:00","1992","11","02","09:00","","3.7","","3.7","","100","","10","","46","","4.0","","100.72","","","","","","Rain,Fog"
"-79.40","43.63","TORONTO ISLAND A","6158665","1992-11-02 10:00","1992","11","02","10:00","","3.9","","3.9","","100","","9","","43","","4.8","","100.65","","","","","","Rain,Fog"
"-79.40","43.63","TORONTO ISLAND A","6158665","1992-11-02 11:00","1992","11","02","11:00","","4.1","","4.1","","100","","9","","44","","6.4","","100.58","","","","","","Rain,Fog"
"-79.40","43.63","TORONTO ISLAND A","6158665","1992-11-02 12:00","1992","11","02","12:00","","4.3","","4.3","","100","","9","","44","","6.4","","100.42","","","","","","Rain,Fog"
"-79.40","43.63","TORONTO ISLAND A","6158665","1992-11-02 13:00","1992","11","02","13:00","","4.7","","4.7","","100","","9","","43","","9.7","","100.28","","","","","","Rain,Fog"
"-79.40","43.63","TORONTO ISLAND A","6158665","1992-11-02 14:00","1992","11","02","14:00","","5.2","","5.2","","100","","9","","44","","4.0","","100.18","","","","","","Rain,Fog"
"-79.40","43.63","TORONTO ISLAND A","6158665","1992-11-02 15:00","1992","11","02","15:00","","5.6","","5.6","","100","","9","","48","","24.1","","100.08","","","","","","Rain Showers"
"-79.40","43.63","TORONTO ISLAND A","6158665","1992-11-02 16:00","1992","11","02","16:00","","6.3","","6.2","","100","","9","","52","","19.3","","100.01","","","","","","Cloudy"
"-79.40","43.63","TORONTO ISLAND A","6158665","1992-11-02 17:00","1992","11","02","17:00","","6.6","","6.2","","97","","9","","52","","12.9","","99.94","","","","","","Drizzle"
"-79.40","43.63","TORONTO ISLAND A","6158665","1992-11-02 18:00","1992","11","02","18:00","","6.6","","6.6","","100","","9","","44","","19.3","","99.94","","","","","","Rain Showers"
"-79.40","43.63","TORONTO ISLAND A","6158665","1992-11-02 19:00","1992","11","02","19:00","","6.8","","6.8","","100","","9","","44","","24.1","","99.88","","","","","","Rain Showers"
"-79.40","43.63","TORONTO ISLAND A","6158665","1992-11-02 20:00","1992","11","02","20:00","","6.9","","6.9","","100","","8","","41","","4.8","","99.74","","","","","","Moderate Rain Showers,Fog"
"-79.40","43.63","TORONTO ISLAND A","6158665","1992-11-02 21:00","1992","11","02","21:00","","7.0","","7.0","","100","","8","","26","","4.0","","99.88","","","","","","Moderate Rain Showers,Fog"
"-79.40","43.63","TORONTO ISLAND A","6158665","1992-11-02 22:00","1992","11","02","22:00","","7.4","","7.4","","100","","8","","26","","8.0","","99.84","","","","","","Rain Showers,Fog"
"-79.40","43.63","TORONTO ISLAND A","6158665","1992-11-02 23:00","1992","11","02","23:00","","","","","","","","8","","17","","","","","","","","","","NA"
"-79.40","43.63","TORONTO ISLAND A","6158665","1992-11-03 00:00","1992","11","03","00:00","","","","","","","","8","","17","","","","","","","","","","NA"
"-79.40","43.63","TORONTO ISLAND A","6158665","1992-11-03 01:00","1992","11","03","01:00","","","","","","","","8","","15","","","","","","","","","","NA"
"-79.40","43.63","TORONTO ISLAND A","6158665","1992-11-03 02:00","1992","11","03","02:00","","","","","","","","8","","17","","","","","","","","","","NA"
"-79.40","43.63","TORONTO ISLAND A","6158665","1992-11-03 03:00","1992","11","03","03:00","","","","","","","","19","","7","","","","","","","","","","NA"
"-79.40","43.63","TORONTO ISLAND A","6158665","1992-11-03 04:00","1992","11","03","04:00","","","","","","","","19","","9","","","","","","","","","","NA"
"-79.40","43.63","TORONTO ISLAND A","6158665","1992-11-03 05:00","1992","11","03","05:00","","","","","","","","26","","11","","","","","","","","","","NA"
"-79.40","43.63","TORONTO ISLAND A","6158665","1992-11-03 06:00","1992","11","03","06:00","","","","","","","","25","","30","","","","","","","","","","NA"
"-79.40","43.63","TORONTO ISLAND A","6158665","1992-11-03 07:00","1992","11","03","07:00","","8.7","","7.9","","95","","20","","15","","24.1","","100.15","","","","","","Mostly Cloudy"
"-79.40","43.63","TORONTO ISLAND A","6158665","1992-11-03 08:00","1992","11","03","08:00","","9.0","","8.3","","95","","21","","11","","24.1","","100.25","","","","","","Mostly Cloudy"
"-79.40","43.63","TORONTO ISLAND A","6158665","1992-11-03 09:00","1992","11","03","09:00","","9.6","","8.0","","90","","22","","22","","24.1","","100.31","","","","","","Cloudy"
"-79.40","43.63","TORONTO ISLAND A","6158665","1992-11-03 10:00","1992","11","03","10:00","","10.0","","7.8","","86","","25","","19","","19.3","","100.38","","","","","","Mostly Cloudy"
"-79.40","43.63","TORONTO ISLAND A","6158665","1992-11-03 11:00","1992","11","03","11:00","","10.6","","7.4","","80","","24","","22","","24.1","","100.38","","","","","","Mostly Cloudy"
"-79.40","43.63","TORONTO ISLAND A","6158665","1992-11-03 12:00","1992","11","03","12:00","","11.4","","7.9","","79","","23","","17","","24.1","","100.35","","","","","","Mainly Clear"
"-79.40","43.63","TORONTO ISLAND A","6158665","1992-11-03 13:00","1992","11","03","13:00","","10.9","","7.3","","78","","23","","24","","24.1","","100.31","","","","","","Mostly Cloudy"
"-79.40","43.63","TORONTO ISLAND A","6158665","1992-11-03 14:00","1992","11","03","14:00","","10.7","","7.2","","79","","23","","24","","24.1","","100.35","","","","","","Mostly Cloudy"
"-79.40","43.63","TORONTO ISLAND A","6158665","1992-11-03 15:00","1992","11","03","15:00","","10.8","","7.9","","82","","21","","11","","24.1","","100.38","","","","","","Mostly Cloudy"
"-79.40","43.63","TORONTO ISLAND A","6158665","1992-11-03 16:00","1992","11","03","16:00","","10.6","","7.3","","80","","22","","11","","24.1","","100.38","","","","","","Mainly Clear"
"-79.40","43.63","TORONTO ISLAND A","6158665","1992-11-03 17:00","1992","11","03","17:00","","10.9","","6.4","","74","","29","","7","","24.1","","100.38","","","","","","Mostly Cloudy"
"-79.40","43.63","TORONTO ISLAND A","6158665","1992-11-03 18:00","1992","11","03","18:00","","11.3","","6.1","","71","","28","","6","","24.1","","100.38","","","","","","Mostly Cloudy"
"-79.40","43.63","TORONTO ISLAND A","6158665","1992-11-03 19:00","1992","11","03","19:00","","9.2","","6.5","","83","","12","","7","","24.1","","100.42","","","","","","Mostly Cloudy"
"-79.40","43.63","TORONTO ISLAND A","6158665","1992-11-03 20:00","1992","11","03","20:00","","9.2","","7.4","","88","","8","","7","","24.1","","100.35","","","","","","Mostly Cloudy"
"-79.40","43.63","TORONTO ISLAND A","6158665","1992-11-03 21:00","1992","11","03","21:00","","8.6","","7.1","","90","","9","","11","","24.1","","100.28","","","","","","Mostly Cloudy"
"-79.40","43.63","TORONTO ISLAND A","6158665","1992-11-03 22:00","1992","11","03","22:00","","8.5","","6.4","","87","","9","","11","","24.1","","100.25","","","","","","Mainly Clear"
"-79.40","43.63","TORONTO ISLAND A","6158665","1992-11-03 23:00","1992","11","03","23:00","","","","","","","","8","","17","","","","","","","","","","NA"
"-79.40","43.63","TORONTO ISLAND A","6158665","1992-11-04 00:00","1992","11","04","00:00","","","","","","","","8","","11","","","","","","","","","","NA"
"-79.40","43.63","TORONTO ISLAND A","6158665","1992-11-04 01:00","1992","11","04","01:00","","","","","","","","9","","15","","","","","","","","","","NA"
"-79.40","43.63","TORONTO ISLAND A","6158665","1992-11-04 02:00","1992","11","04","02:00","","","","","","","","9","","15","","","","","","","","","","NA"
"-79.40","43.63","TORONTO ISLAND A","6158665","1992-11-04 03:00","1992","11","04","03:00","","","","","","","","9","","17","","","","","","","","","","NA"
"-79.40","43.63","TORONTO ISLAND A","6158665","1992-11-04 04:00","1992","11","04","04:00","","","","","","","","10","","17","","","","","","","","","","NA"
"-79.40","43.63","TORONTO ISLAND A","6158665","1992-11-04 05:00","1992","11","04","05:00","","","","","","","","10","","13","","","","","","","","","","NA"
"-79.40","43.63","TORONTO ISLAND A","6158665","1992-11-04 06:00","1992","11","04","06:00","","","","","","","","14","","7","","","","","","","","","","NA"
"-79.40","43.63","TORONTO ISLAND A","6158665","1992-11-04 07:00","1992","11","04","07:00","","10.9","","7.8","","81","","22","","4","","24.1","","99.57","","","","","","Rain"
"-79.40","43.63","TORONTO ISLAND A","6158665","1992-11-04 08:00","1992","11","04","08:00","","10.8","","8.8","","87","","21","","15","","11.3","","99.57","","","","","","Rain"
"-79.40","43.63","TORONTO ISLAND A","6158665","1992-11-04 09:00","1992","11","04","09:00","","9.5","","9.4","","99","","24","","13","","6.4","","99.57","","","","","","Rain,Fog"
"-79.40","43.63","TORONTO ISLAND A","6158665","1992-11-04 10:00","1992","11","04","10:00","","9.8","","9.8","","100","","24","","17","","6.4","","99.54","","","","","","Rain,Fog"
"-79.40","43.63","TORONTO ISLAND A","6158665","1992-11-04 11:00","1992","11","04","11:00","","9.8","","9.8","","100","","21","","17","","8.0","","99.47","","","","","","Rain,Fog"
"-79.40","43.63","TORONTO ISLAND A","6158665","1992-11-04 12:00","1992","11","04","12:00","","9.9","","9.9","","100","","21","","19","","12.9","","99.37","","","","","","Cloudy"
"-79.40","43.63","TORONTO ISLAND A","6158665","1992-11-04 13:00","1992","11","04","13:00","","9.9","","9.9","","100","","22","","22","","16.1","","99.37","","","","","","Cloudy"
"-79.40","43.63","TORONTO ISLAND A","6158665","1992-11-04 14:00","1992","11","04","14:00","","10.3","","9.3","","94","","27","","19","","12.9","","99.37","","","","","","Cloudy"
"-79.40","43.63","TORONTO ISLAND A","6158665","1992-11-04 15:00","1992","11","04","15:00","","9.5","","7.0","","84","","28","","19","","24.1","","99.54","","","","","","Cloudy"
"-79.40","43.63","TORONTO ISLAND A","6158665","1992-11-04 16:00","1992","11","04","16:00","","8.4","","5.9","","84","","28","","19","","24.1","","99.74","","","","","","Cloudy"
"-79.40","43.63","TORONTO ISLAND A","6158665","1992-11-04 17:00","1992","11","04","17:00","","7.2","","4.1","","81","","28","","19","","24.1","","99.74","","","","","","Mostly Cloudy"
"-79.40","43.63","TORONTO ISLAND A","6158665","1992-11-04 18:00","1992","11","04","18:00","","7.0","","3.9","","81","","28","","19","","24.1","","99.88","","","","","","Rain Showers"
"-79.40","43.63","TORONTO ISLAND A","6158665","1992-11-04 19:00","1992","11","04","19:00","","6.6","","3.0","","78","","28","","22","","24.1","","99.94","","","","","","Cloudy"
"-79.40","43.63","TORONTO ISLAND A","6158665","1992-11-04 20:00","1992","11","04","20:00","","6.2","","1.8","","73","","28","","19","","24.1","","100.01","","","","","","Cloudy"
"-79.40","43.63","TORONTO ISLAND A","6158665","1992-11-04 21:00","1992","11","04","21:00","","6.2","","1.6","","72","","27","","22","","24.1","","100.11","","","","","","Cloudy"
"-79.40","43.63","TORONTO ISLAND A","6158665","1992-11-04 22:00","1992","11","04","22:00","","6.1","","1.1","","70","","27","","22","","24.1","","100.11","","","","","","Cloudy"
"-79.40","43.63","TORONTO ISLAND A","6158665","1992-11-04 23:00","1992","11","04","23:00","","","","","","","","28","","20","","","","","","","","","","NA"
"-79.40","43.63","TORONTO ISLAND A","6158665","1992-11-05 00:00","1992","11","05","00:00","","","","","","","","29","","26","","","","","","","","","","NA"
"-79.40","43.63","TORONTO ISLAND A","6158665","1992-11-05 01:00","1992","11","05","01:00","","","","","","","","28","","19","","","","","","","","","","NA"
"-79.40","43.63","TORONTO ISLAND A","6158665","1992-11-05 02:00","1992","11","05","02:00","","","","","","","","23","","24","","","","","","","","","","NA"
"-79.40","43.63","TORONTO ISLAND A","6158665","1992-11-05 03:00","1992","11","05","03:00","","","","","","","","24","","31","","","","","","","","","","NA"
"-79.40","43.63","TORONTO ISLAND A","6158665","1992-11-05 04:00","1992","11","05","04:00","","","","","","","","23","","33","","","","","","","","","","NA"
"-79.40","43.63","TORONTO ISLAND A","6158665","1992-11-05 05:00","1992","11","05","05:00","","","","","","","","25","","28","","","","","","","","","","NA"
"-79.40","43.63","TORONTO ISLAND A","6158665","1992-11-05 06:00","1992","11","05","06:00","","","","","","","","26","","19","","","","","","","","","","NA"
"-79.40","43.63","TORONTO ISLAND A","6158665","1992-11-05 07:00","1992","11","05","07:00","","4.2","","1.4","","82","","28","","11","","16.1","","100.21","","","","","","Mostly Cloudy"
"-79.40","43.63","TORONTO ISLAND A","6158665","1992-11-05 08:00","1992","11","05","08:00","","4.5","","1.6","","81","","28","","11","","12.9","","100.18","","","","","","Cloudy"
"-79.40","43.63","TORONTO ISLAND A","6158665","1992-11-05 09:00","1992","11","05","09:00","","4.8","","2.2","","83","","24","","17","","12.9","","100.25","","","","","","Cloudy"
"-79.40","43.63","TORONTO ISLAND A","6158665","1992-11-05 10:00","1992","11","05","10:00","","5.0","","2.4","","83","","25","","11","","12.9","","100.18","","","","","","Cloudy"
"-79.40","43.63","TORONTO ISLAND A","6158665","1992-11-05 11:00","1992","11","05","11:00","","5.3","","2.4","","82","","28","","11","","11.3","","100.11","","","","","","Cloudy"
"-79.40","43.63","TORONTO ISLAND A","6158665","1992-11-05 12:00","1992","11","05","12:00","","5.3","","2.4","","82","","29","","9","","11.3","","100.11","","","","","","Cloudy"
"-79.40","43.63","TORONTO ISLAND A","6158665","1992-11-05 13:00","1992","11","05","13:00","","5.9","","2.7","","80","","27","","11","","12.9","","100.05","","","","","","Cloudy"
"-79.40","43.63","TORONTO ISLAND A","6158665","1992-11-05 14:00","1992","11","05","14:00","","5.9","","2.5","","79","","30","","13","","16.1","","99.88","","","","","","Rain Showers"
"-79.40","43.63","TORONTO ISLAND A","6158665","1992-11-05 15:00","1992","11","05","15:00","","5.6","","3.0","","83","","28","","11","","12.9","","99.84","","","","","","Rain Showers"
"-79.40","43.63","TORONTO ISLAND A","6158665","1992-11-05 16:00","1992","11","05","16:00","","4.8","","2.9","","88","","27","","19","","9.7","","99.91","","","","","","Rain Showers,Fog"
"-79.40","43.63","TORONTO ISLAND A","6158665","1992-11-05 17:00","1992","11","05","17:00","","4.2","","3.2","","93","","26","","15","","9.7","","99.91","","","","","","Rain,Fog"
"-79.40","43.63","TORONTO ISLAND A","6158665","1992-11-05 18:00","1992","11","05","18:00","","4.3","","3.5","","95","","26","","19","","9.7","","99.94","","","","","","Rain,Snow,Fog"
"-79.40","43.63","TORONTO ISLAND A","6158665","1992-11-05 19:00","1992","11","05","19:00","","4.3","","3.6","","95","","25","","19","","9.7","","100.01","","","","","","Rain,Snow,Fog"
"-79.40","43.63","TORONTO ISLAND A","6158665","1992-11-05 20:00","1992","11","05","20:00","","4.0","","2.9","","92","","30","","15","","16.1","","100.05","","","","","","Rain,Snow"
"-79.40","43.63","TORONTO ISLAND A","6158665","1992-11-05 21:00","1992","11","05","21:00","","3.8","","2.8","","93","","28","","7","","24.1","","100.08","","","","","","Mostly Cloudy"
"-79.40","43.63","TORONTO ISLAND A","6158665","1992-11-05 22:00","1992","11","05","22:00","","3.6","","1.8","","88","","27","","22","","24.1","","100.08","","","","","","Mostly Cloudy"
"-79.40","43.63","TORONTO ISLAND A","6158665","1992-11-05 23:00","1992","11","05","23:00","","","","","","","","28","","20","","","","","","","","","","NA"
"-79.40","43.63","TORONTO ISLAND A","6158665","1992-11-06 00:00","1992","11","06","00:00","","","","","","","","28","","19","","","","","","","","","","NA"
"-79.40","43.63","TORONTO ISLAND A","6158665","1992-11-06 01:00","1992","11","06","01:00","","","","","","","","27","","15","","","","","","","","","","NA"
"-79.40","43.63","TORONTO ISLAND A","6158665","1992-11-06 02:00","1992","11","06","02:00","","","","","","","","29","","13","","","","","","","","","","NA"
"-79.40","43.63","TORONTO ISLAND A","6158665","1992-11-06 03:00","1992","11","06","03:00","","","","","","","","28","","19","","","","","","","","","","NA"
"-79.40","43.63","TORONTO ISLAND A","6158665","1992-11-06 04:00","1992","11","06","04:00","","","","","","","","30","","20","","","","","","","","","","NA"
"-79.40","43.63","TORONTO ISLAND A","6158665","1992-11-06 05:00","1992","11","06","05:00","","","","","","","","30","","11","","","","","","","","","","NA"
"-79.40","43.63","TORONTO ISLAND A","6158665","1992-11-06 06:00","1992","11","06","06:00","","","","","","","","32","","11","","","","","","","","","","NA"
"-79.40","43.63","TORONTO ISLAND A","6158665","1992-11-06 07:00","1992","11","06","07:00","","2.7","","0.4","","85","","33","","9","","24.1","","100.58","","","","","","Mainly Clear"
"-79.40","43.63","TORONTO ISLAND A","6158665","1992-11-06 08:00","1992","11","06","08:00","","2.7","","0.3","","84","","34","","19","","25.0","","100.68","","","","","","Mainly Clear"
"-79.40","43.63","TORONTO ISLAND A","6158665","1992-11-06 09:00","1992","11","06","09:00","","2.9","","-0.7","","77","","34","","15","","25.0","","100.82","","","","","","Mainly Clear"
"-79.40","43.63","TORONTO ISLAND A","6158665","1992-11-06 10:00","1992","11","06","10:00","","3.4","","-1.2","","72","","35","","20","","25.0","","100.92","","","","","","Mainly Clear"
"-79.40","43.63","TORONTO ISLAND A","6158665","1992-11-06 11:00","1992","11","06","11:00","","3.2","","-1.8","","70","","32","","19","","24.1","","101.02","","","","","","Cloudy"
"-79.40","43.63","TORONTO ISLAND A","6158665","1992-11-06 12:00","1992","11","06","12:00","","1.9","","-1.0","","81","","33","","15","","24.1","","100.99","","","","","","Cloudy"
"-79.40","43.63","TORONTO ISLAND A","6158665","1992-11-06 13:00","1992","11","06","13:00","","1.8","","-1.5","","79","","34","","19","","24.1","","101.05","","","","","","Cloudy"
"-79.40","43.63","TORONTO ISLAND A","6158665","1992-11-06 14:00","1992","11","06","14:00","","2.0","","-1.8","","76","","34","","19","","25.0","","101.12","","","","","","Ice Pellet Showers"
"-79.40","43.63","TORONTO ISLAND A","6158665","1992-11-06 15:00","1992","11","06","15:00","","2.1","","-3.1","","68","","36","","13","","25.0","","101.15","","","","","","Mostly Cloudy"
"-79.40","43.63","TORONTO ISLAND A","6158665","1992-11-06 16:00","1992","11","06","16:00","","1.9","","-4.7","","61","","34","","19","","25.0","","101.22","","","","","","Mostly Cloudy"
"-79.40","43.63","TORONTO ISLAND A","6158665","1992-11-06 17:00","1992","11","06","17:00","","1.4","","-5.0","","62","","32","","19","","25.0","","101.32","","","","","","Mostly Cloudy"
"-79.40","43.63","TORONTO ISLAND A","6158665","1992-11-06 18:00","1992","11","06","18:00","","0.9","","-5.5","","62","","34","","22","","25.0","","101.32","","","","","","Mostly Cloudy"
"-79.40","43.63","TORONTO ISLAND A","6158665","1992-11-06 19:00","1992","11","06","19:00","","0.5","","-5.6","","63","","30","","22","","24.1","","101.42","","","","","","Snow Showers"
"-79.40","43.63","TORONTO ISLAND A","6158665","1992-11-06 20:00","1992","11","06","20:00","","0.5","","-5.7","","63","","30","","22","","25.0","","101.46","","","","","","Cloudy"
"-79.40","43.63","TORONTO ISLAND A","6158665","1992-11-06 21:00","1992","11","06","21:00","","0.4","","-7.0","","57","","30","","22","","25.0","","101.49","","","","","","Cloudy"
"-79.40","43.63","TORONTO ISLAND A","6158665","1992-11-06 22:00","1992","11","06","22:00","","0.1","","-7.4","","57","","31","","15","","25.0","","101.52","","","","","","Mostly Cloudy"
"-79.40","43.63","TORONTO ISLAND A","6158665","1992-11-06 23:00","1992","11","06","23:00","","","","","","","","1","","11","","","","","","","","","","NA"
"-79.40","43.63","TORONTO ISLAND A","6158665","1992-11-07 00:00","1992","11","07","00:00","","","","","","","","2","","17","","","","","","","","","","NA"
"-79.40","43.63","TORONTO ISLAND A","6158665","1992-11-07 01:00","1992","11","07","01:00","","","","","","","","3","","13","","","","","","","","","","NA"
"-79.40","43.63","TORONTO ISLAND A","6158665","1992-11-07 02:00","1992","11","07","02:00","","","","","","","","1","","17","","","","","","","","","","NA"
"-79.40","43.63","TORONTO ISLAND A","6158665","1992-11-07 03:00","1992","11","07","03:00","","","","","","","","1","","15","","","","","","","","","","NA"
"-79.40","43.63","TORONTO ISLAND A","6158665","1992-11-07 04:00","1992","11","07","04:00","","","","","","","","1","","11","","","","","","","","","","NA"
"-79.40","43.63","TORONTO ISLAND A","6158665","1992-11-07 05:00","1992","11","07","05:00","","","","","","","","2","","13","","","","","","","","","","NA"
"-79.40","43.63","TORONTO ISLAND A","6158665","1992-11-07 06:00","1992","11","07","06:00","","","","","","","","2","","13","","","","","","","","","","NA"
"-79.40","43.63","TORONTO ISLAND A","6158665","1992-11-07 07:00","1992","11","07","07:00","","-4.1","","-9.4","","67","","3","","13","","25.0","","101.96","","","","-9","","Mostly Cloudy"
"-79.40","43.63","TORONTO ISLAND A","6158665","1992-11-07 08:00","1992","11","07","08:00","","-3.8","","-9.3","","65","","3","","13","","25.0","","102.00","","","","-9","","Mostly Cloudy"
"-79.40","43.63","TORONTO ISLAND A","6158665","1992-11-07 09:00","1992","11","07","09:00","","-3.3","","-9.6","","61","","2","","11","","25.0","","102.03","","","","-8","","Clear"
"-79.40","43.63","TORONTO ISLAND A","6158665","1992-11-07 10:00","1992","11","07","10:00","","-2.4","","-9.4","","58","","2","","13","","25.0","","102.03","","","","-7","","Mainly Clear"
"-79.40","43.63","TORONTO ISLAND A","6158665","1992-11-07 11:00","1992","11","07","11:00","","-1.0","","-9.8","","51","","5","","7","","25.0","","102.00","","","","-4","","Mainly Clear"
"-79.40","43.63","TORONTO ISLAND A","6158665","1992-11-07 12:00","1992","11","07","12:00","","-0.8","","-11.1","","45","","1","","4","","25.0","","101.96","","","","-2","","Mainly Clear"
"-79.40","43.63","TORONTO ISLAND A","6158665","1992-11-07 13:00","1992","11","07","13:00","","-0.2","","-9.0","","51","","14","","7","","25.0","","101.89","","","","-3","","Mainly Clear"
"-79.40","43.63","TORONTO ISLAND A","6158665","1992-11-07 14:00","1992","11","07","14:00","","-0.2","","-8.1","","55","","11","","11","","25.0","","101.89","","","","-4","","Mainly Clear"
"-79.40","43.63","TORONTO ISLAND A","6158665","1992-11-07 15:00","1992","11","07","15:00","","-0.2","","-9.5","","49","","10","","15","","25.0","","101.89","","","","-5","","Mainly Clear"
"-79.40","43.63","TORONTO ISLAND A","6158665","1992-11-07 16:00","1992","11","07","16:00","","-0.7","","-9.2","","52","","10","","15","","25.0","","101.86","","","","-5","","Mainly Clear"
"-79.40","43.63","TORONTO ISLAND A","6158665","1992-11-07 17:00","1992","11","07","17:00","","-0.8","","-8.5","","56","","8","","9","","25.0","","101.86","","","","-4","","Clear"
"-79.40","43.63","TORONTO ISLAND A","6158665","1992-11-07 18:00","1992","11","07","18:00","","-0.6","","-8.7","","54","","7","","9","","25.0","","101.89","","","","-4","","Mainly Clear"
"-79.40","43.63","TORONTO ISLAND A","6158665","1992-11-07 19:00","1992","11","07","19:00","","-0.3","","-8.2","","55","","","","0","","25.0","","101.96","","","","","","Mostly Cloudy"
"-79.40","43.63","TORONTO ISLAND A","6158665","1992-11-07 20:00","1992","11","07","20:00","","-0.1","","-7.5","","57","","1","","7","","25.0","","101.96","","","","-3","","Mostly Cloudy"
"-79.40","43.63","TORONTO ISLAND A","6158665","1992-11-07 21:00","1992","11","07","21:00","","-0.3","","-6.8","","61","","6","","9","","25.0","","101.93","","","","-3","","Cloudy"
"-79.40","43.63","TORONTO ISLAND A","6158665","1992-11-07 22:00","1992","11","07","22:00","","-0.5","","-7.3","","60","","6","","9","","24.1","","101.96","","","","-4","","Snow Showers"
"-79.40","43.63","TORONTO ISLAND A","6158665","1992-11-07 23:00","1992","11","07","23:00"
"-79.40","43.63","TORONTO ISLAND A","6158665","1992-11-08 00:00","1992","11","08","00:00"
"-79.40","43.63","TORONTO ISLAND A","6158665","1992-11-08 01:00","1992","11","08","01:00"
"-79.40","43.63","TORONTO ISLAND A","6158665","1992-11-08 02:00","1992","11","08","02:00"
"-79.40","43.63","TORONTO ISLAND A","6158665","1992-11-08 03:00","1992","11","08","03:00"
"-79.40","43.63","TORONTO ISLAND A","6158665","1992-11-08 04:00","1992","11","08","04:00"
"-79.40","43.63","TORONTO ISLAND A","6158665","1992-11-08 05:00","1992","11","08","05:00"
"-79.40","43.63","TORONTO ISLAND A","6158665","1992-11-08 06:00","1992","11","08","06:00"
"-79.40","43.63","TORONTO ISLAND A","6158665","1992-11-08 07:00","1992","11","08","07:00","","-2.1","","-3.8","","88","","33","","7","","3.2","","102.13","","","","-5","","Snow Showers"
"-79.40","43.63","TORONTO ISLAND A","6158665","1992-11-08 08:00","1992","11","08","08:00","","-2.0","","-4.8","","81","","2","","11","","3.6","","102.20","","","","-6","","Snow Showers"
"-79.40","43.63","TORONTO ISLAND A","6158665","1992-11-08 09:00","1992","11","08","09:00","","-2.1","","-4.1","","86","","3","","9","","11.3","","102.26","","","","-6","","Snow Showers"
"-79.40","43.63","TORONTO ISLAND A","6158665","1992-11-08 10:00","1992","11","08","10:00","","-1.2","","-3.5","","84","","2","","9","","25.0","","102.26","","","","-4","","Mainly Clear"
"-79.40","43.63","TORONTO ISLAND A","6158665","1992-11-08 11:00","1992","11","08","11:00","","0.2","","-1.5","","88","","7","","7","","25.0","","102.26","","","","","","Mainly Clear"
"-79.40","43.63","TORONTO ISLAND A","6158665","1992-11-08 12:00","1992","11","08","12:00","","1.2","","-3.1","","73","","7","","4","","25.0","","102.20","","","","","","Mainly Clear"
"-79.40","43.63","TORONTO ISLAND A","6158665","1992-11-08 13:00","1992","11","08","13:00","","1.8","","-2.6","","73","","17","","7","","25.0","","102.16","","","","","","Mainly Clear"
"-79.40","43.63","TORONTO ISLAND A","6158665","1992-11-08 14:00","1992","11","08","14:00","","2.2","","-3.8","","64","","20","","7","","25.0","","102.16","","","","","","Mostly Cloudy"
"-79.40","43.63","TORONTO ISLAND A","6158665","1992-11-08 15:00","1992","11","08","15:00","","2.0","","-3.9","","65","","19","","7","","25.0","","102.16","","","","","","Mostly Cloudy"
"-79.40","43.63","TORONTO ISLAND A","6158665","1992-11-08 16:00","1992","11","08","16:00","","1.6","","-4.9","","62","","18","","6","","25.0","","102.16","","","","","","Mainly Clear"
"-79.40","43.63","TORONTO ISLAND A","6158665","1992-11-08 17:00","1992","11","08","17:00","","0.9","","-5.7","","61","","12","","4","","25.0","","102.16","","","","","","Mainly Clear"
"-79.40","43.63","TORONTO ISLAND A","6158665","1992-11-08 18:00","1992","11","08","18:00","","0.8","","-5.4","","63","","10","","7","","25.0","","102.16","","","","","","Clear"
"-79.40","43.63","TORONTO ISLAND A","6158665","1992-11-08 19:00","1992","11","08","19:00","","0.4","","-4.8","","68","","11","","7","","25.0","","102.20","","","","","","Clear"
"-79.40","43.63","TORONTO ISLAND A","6158665","1992-11-08 20:00","1992","11","08","20:00","","-0.3","","-5.0","","70","","12","","7","","25.0","","102.23","","","","-3","","Clear"
"-79.40","43.63","TORONTO ISLAND A","6158665","1992-11-08 21:00","1992","11","08","21:00","","-0.4","","-4.9","","72","","14","","9","","25.0","","102.26","","","","-4","","Clear"
"-79.40","43.63","TORONTO ISLAND A","6158665","1992-11-08 22:00","1992","11","08","22:00","","0.5","","-3.6","","74","","13","","6","","25.0","","102.26","","","","","","Mainly Clear"
"-79.40","43.63","TORONTO ISLAND A","6158665","1992-11-08 23:00","1992","11","08","23:00","","","","","","","","12","","11","","","","","","","","","","NA"
"-79.40","43.63","TORONTO ISLAND A","6158665","1992-11-09 00:00","1992","11","09","00:00","","","","","","","","13","","9","","","","","","","","","","NA"
"-79.40","43.63","TORONTO ISLAND A","6158665","1992-11-09 01:00","1992","11","09","01:00","","","","","","","","12","","9","","","","","","","","","","NA"
"-79.40","43.63","TORONTO ISLAND A","6158665","1992-11-09 02:00","1992","11","09","02:00","","","","","","","","12","","9","","","","","","","","","","NA"
"-79.40","43.63","TORONTO ISLAND A","6158665","1992-11-09 03:00","1992","11","09","03:00","","","","","","","","11","","7","","","","","","","","","","NA"
"-79.40","43.63","TORONTO ISLAND A","6158665","1992-11-09 04:00","1992","11","09","04:00","","","","","","","","12","","9","","","","","","","","","","NA"
"-79.40","43.63","TORONTO ISLAND A","6158665","1992-11-09 05:00","1992","11","09","05:00","","","","","","","","12","","13","","","","","","","","","","NA"
"-79.40","43.63","TORONTO ISLAND A","6158665","1992-11-09 06:00","1992","11","09","06:00","","","","","","","","13","","15","","","","","","","","","","NA"
"-79.40","43.63","TORONTO ISLAND A","6158665","1992-11-09 07:00","1992","11","09","07:00","","2.4","","-4.0","","63","","14","","17","","24.1","","102.33","","","","","","Cloudy"
"-79.40","43.63","TORONTO ISLAND A","6158665","1992-11-09 08:00","1992","11","09","08:00","","3.0","","-4.4","","58","","13","","20","","24.1","","102.37","","","","","","Cloudy"
"-79.40","43.63","TORONTO ISLAND A","6158665","1992-11-09 09:00","1992","11","09","09:00","","3.8","","-4.4","","55","","15","","17","","16.1","","102.37","","","","","","Snow"
"-79.40","43.63","TORONTO ISLAND A","6158665","1992-11-09 10:00","1992","11","09","10:00","","3.0","","0.2","","82","","13","","22","","11.3","","102.33","","","","","","Rain"
"-79.40","43.63","TORONTO ISLAND A","6158665","1992-11-09 11:00","1992","11","09","11:00","","2.5","","1.2","","91","","12","","19","","9.7","","102.37","","","","","","Rain,Fog"
"-79.40","43.63","TORONTO ISLAND A","6158665","1992-11-09 12:00","1992","11","09","12:00","","3.0","","1.5","","90","","12","","22","","24.1","","102.30","","","","","","Cloudy"
"-79.40","43.63","TORONTO ISLAND A","6158665","1992-11-09 13:00","1992","11","09","13:00","","3.7","","1.1","","83","","12","","22","","24.1","","102.20","","","","","","Cloudy"
"-79.40","43.63","TORONTO ISLAND A","6158665","1992-11-09 14:00","1992","11","09","14:00","","4.8","","0.6","","74","","11","","28","","19.3","","102.20","","","","","","Cloudy"
"-79.40","43.63","TORONTO ISLAND A","6158665","1992-11-09 15:00","1992","11","09","15:00","","5.3","","0.4","","71","","13","","22","","19.3","","102.16","","","","","","Rain Showers"
"-79.40","43.63","TORONTO ISLAND A","6158665","1992-11-09 16:00","1992","11","09","16:00","","5.3","","1.1","","74","","15","","19","","19.3","","102.20","","","","","","Rain Showers"
"-79.40","43.63","TORONTO ISLAND A","6158665","1992-11-09 17:00","1992","11","09","17:00","","5.1","","2.4","","83","","12","","11","","16.1","","102.20","","","","","","Cloudy"
"-79.40","43.63","TORONTO ISLAND A","6158665","1992-11-09 18:00","1992","11","09","18:00","","5.1","","2.4","","83","","12","","22","","19.3","","102.16","","","","","","Cloudy"
"-79.40","43.63","TORONTO ISLAND A","6158665","1992-11-09 19:00","1992","11","09","19:00","","5.1","","2.1","","81","","11","","19","","24.1","","102.20","","","","","","Cloudy"
"-79.40","43.63","TORONTO ISLAND A","6158665","1992-11-09 20:00","1992","11","09","20:00","","4.8","","2.4","","84","","11","","24","","24.1","","102.20","","","","","","Cloudy"
"-79.40","43.63","TORONTO ISLAND A","6158665","1992-11-09 21:00","1992","11","09","21:00","","4.8","","2.7","","87","","10","","22","","24.1","","102.16","","","","","","Cloudy"
"-79.40","43.63","TORONTO ISLAND A","6158665","1992-11-09 22:00","1992","11","09","22:00","","5.1","","2.9","","86","","10","","19","","24.1","","102.16","","","","","","Cloudy"
"-79.40","43.63","TORONTO ISLAND A","6158665","1992-11-09 23:00","1992","11","09","23:00","","","","","","","","10","","19","","","","","","","","","","NA"
"-79.40","43.63","TORONTO ISLAND A","6158665","1992-11-10 00:00","1992","11","10","00:00","","","","","","","","10","","19","","","","","","","","","","NA"
"-79.40","43.63","TORONTO ISLAND A","6158665","1992-11-10 01:00","1992","11","10","01:00","","","","","","","","10","","15","","","","","","","","","","NA"
"-79.40","43.63","TORONTO ISLAND A","6158665","1992-11-10 02:00","1992","11","10","02:00","","","","","","","","9","","17","","","","","","","","","","NA"
"-79.40","43.63","TORONTO ISLAND A","6158665","1992-11-10 03:00","1992","11","10","03:00","","","","","","","","10","","17","","","","","","","","","","NA"
"-79.40","43.63","TORONTO ISLAND A","6158665","1992-11-10 04:00","1992","11","10","04:00","","","","","","","","9","","19","","","","","","","","","","NA"
"-79.40","43.63","TORONTO ISLAND A","6158665","1992-11-10 05:00","1992","11","10","05:00","","","","","","","","9","","17","","","","","","","","","","NA"
"-79.40","43.63","TORONTO ISLAND A","6158665","1992-11-10 06:00","1992","11","10","06:00","","","","","","","","9","","17","","","","","","","","","","NA"
"-79.40","43.63","TORONTO ISLAND A","6158665","1992-11-10 07:00","1992","11","10","07:00","","6.3","","4.4","","88","","9","","19","","24.1","","101.86","","","","","","Cloudy"
"-79.40","43.63","TORONTO ISLAND A","6158665","1992-11-10 08:00","1992","11","10","08:00","","6.9","","4.3","","83","","10","","15","","16.1","","101.86","","","","","","Mostly Cloudy"
"-79.40","43.63","TORONTO ISLAND A","6158665","1992-11-10 09:00","1992","11","10","09:00","","7.4","","4.6","","83","","9","","15","","16.1","","101.83","","","","","","Mostly Cloudy"
"-79.40","43.63","TORONTO ISLAND A","6158665","1992-11-10 10:00","1992","11","10","10:00","","7.8","","4.6","","80","","10","","15","","19.3","","101.73","","","","","","Cloudy"
"-79.40","43.63","TORONTO ISLAND A","6158665","1992-11-10 11:00","1992","11","10","11:00","","8.3","","4.8","","79","","10","","13","","16.1","","101.69","","","","","","Cloudy"
"-79.40","43.63","TORONTO ISLAND A","6158665","1992-11-10 12:00","1992","11","10","12:00","","8.4","","5.2","","80","","9","","11","","16.1","","101.59","","","","","","Cloudy"
"-79.40","43.63","TORONTO ISLAND A","6158665","1992-11-10 13:00","1992","11","10","13:00","","10.0","","6.5","","79","","16","","15","","14.5","","101.49","","","","","","Rain Showers"
"-79.40","43.63","TORONTO ISLAND A","6158665","1992-11-10 14:00","1992","11","10","14:00","","9.3","","7.1","","86","","20","","17","","12.9","","101.42","","","","","","Rain Showers"
"-79.40","43.63","TORONTO ISLAND A","6158665","1992-11-10 15:00","1992","11","10","15:00","","9.4","","6.4","","82","","21","","19","","16.1","","101.32","","","","","","Cloudy"
"-79.40","43.63","TORONTO ISLAND A","6158665","1992-11-10 16:00","1992","11","10","16:00","","8.8","","7.0","","89","","21","","19","","12.9","","101.26","","","","","","Rain Showers"
"-79.40","43.63","TORONTO ISLAND A","6158665","1992-11-10 17:00","1992","11","10","17:00","","8.8","","6.8","","87","","22","","22","","8.0","","101.26","","","","","","Rain Showers,Fog"
"-79.40","43.63","TORONTO ISLAND A","6158665","1992-11-10 18:00","1992","11","10","18:00","","8.1","","7.1","","93","","21","","19","","8.0","","101.26","","","","","","Moderate Rain"
"-79.40","43.63","TORONTO ISLAND A","6158665","1992-11-10 19:00","1992","11","10","19:00","","8.4","","7.5","","94","","21","","19","","24.1","","101.19","","","","","","Cloudy"
"-79.40","43.63","TORONTO ISLAND A","6158665","1992-11-10 20:00","1992","11","10","20:00","","9.3","","7.6","","89","","21","","28","","24.1","","101.15","","","","","","Cloudy"
"-79.40","43.63","TORONTO ISLAND A","6158665","1992-11-10 21:00","1992","11","10","21:00","","8.7","","7.7","","93","","23","","37","","24.1","","101.15","","","","","","Cloudy"
"-79.40","43.63","TORONTO ISLAND A","6158665","1992-11-10 22:00","1992","11","10","22:00","","8.4","","8.2","","99","","23","","33","","6.4","","101.09","","","","","","Rain Showers,Fog"
"-79.40","43.63","TORONTO ISLAND A","6158665","1992-11-10 23:00","1992","11","10","23:00","","","","","","","","22","","28","","","","","","","","","","NA"
"-79.40","43.63","TORONTO ISLAND A","6158665","1992-11-11 00:00","1992","11","11","00:00","","","","","","","","22","","28","","","","","","","","","","NA"
"-79.40","43.63","TORONTO ISLAND A","6158665","1992-11-11 01:00","1992","11","11","01:00","","","","","","","","22","","30","","","","","","","","","","NA"
"-79.40","43.63","TORONTO ISLAND A","6158665","1992-11-11 02:00","1992","11","11","02:00","","","","","","","","22","","30","","","","","","","","","","NA"
"-79.40","43.63","TORONTO ISLAND A","6158665","1992-11-11 03:00","1992","11","11","03:00","","","","","","","","23","","22","","","","","","","","","","NA"
"-79.40","43.63","TORONTO ISLAND A","6158665","1992-11-11 04:00","1992","11","11","04:00","","","","","","","","21","","20","","","","","","","","","","NA"
"-79.40","43.63","TORONTO ISLAND A","6158665","1992-11-11 05:00","1992","11","11","05:00","","","","","","","","22","","17","","","","","","","","","","NA"
"-79.40","43.63","TORONTO ISLAND A","6158665","1992-11-11 06:00","1992","11","11","06:00","","","","","","","","24","","15","","","","","","","","","","NA"
"-79.40","43.63","TORONTO ISLAND A","6158665","1992-11-11 07:00","1992","11","11","07:00","","8.8","","8.8","","100","","23","","19","","6.4","","100.85","","","","","","Rain,Fog"
"-79.40","43.63","TORONTO ISLAND A","6158665","1992-11-11 08:00","1992","11","11","08:00","","8.7","","8.7","","100","","24","","15","","3.2","","100.92","","","","","","Rain,Fog"
"-79.40","43.63","TORONTO ISLAND A","6158665","1992-11-11 09:00","1992","11","11","09:00","","8.8","","8.8","","100","","22","","19","","2.0","","100.95","","","","","","Rain,Fog"
"-79.40","43.63","TORONTO ISLAND A","6158665","1992-11-11 10:00","1992","11","11","10:00","","8.9","","8.9","","100","","22","","20","","4.8","","100.95","","","","","","Fog"
"-79.40","43.63","TORONTO ISLAND A","6158665","1992-11-11 11:00","1992","11","11","11:00","","8.9","","8.9","","100","","24","","13","","4.8","","101.02","","","","","","Fog"
"-79.40","43.63","TORONTO ISLAND A","6158665","1992-11-11 12:00","1992","11","11","12:00","","10.8","","9.0","","89","","27","","17","","12.9","","101.02","","","","","","Cloudy"
"-79.40","43.63","TORONTO ISLAND A","6158665","1992-11-11 13:00","1992","11","11","13:00","","10.8","","6.4","","74","","31","","19","","16.1","","101.02","","","","","","Cloudy"
"-79.40","43.63","TORONTO ISLAND A","6158665","1992-11-11 14:00","1992","11","11","14:00","","10.0","","4.7","","70","","29","","22","","19.3","","101.09","","","","","","Cloudy"
"-79.40","43.63","TORONTO ISLAND A","6158665","1992-11-11 15:00","1992","11","11","15:00","","9.3","","3.1","","65","","29","","26","","24.1","","101.09","","","","","","Mostly Cloudy"
"-79.40","43.63","TORONTO ISLAND A","6158665","1992-11-11 16:00","1992","11","11","16:00","","8.7","","2.8","","66","","28","","19","","24.1","","101.12","","","","","","Cloudy"
"-79.40","43.63","TORONTO ISLAND A","6158665","1992-11-11 17:00","1992","11","11","17:00","","8.2","","2.7","","68","","28","","15","","24.1","","101.22","","","","","","Cloudy"
"-79.40","43.63","TORONTO ISLAND A","6158665","1992-11-11 18:00","1992","11","11","18:00","","7.7","","3.4","","74","","27","","9","","24.1","","101.26","","","","","","Cloudy"
"-79.40","43.63","TORONTO ISLAND A","6158665","1992-11-11 19:00","1992","11","11","19:00","","7.3","","3.2","","75","","27","","7","","24.1","","101.29","","","","","","Cloudy"
"-79.40","43.63","TORONTO ISLAND A","6158665","1992-11-11 20:00","1992","11","11","20:00","","6.9","","2.7","","75","","33","","4","","24.1","","101.29","","","","","","Cloudy"
"-79.40","43.63","TORONTO ISLAND A","6158665","1992-11-11 21:00","1992","11","11","21:00","","6.6","","2.5","","75","","33","","6","","24.1","","101.32","","","","","","Mostly Cloudy"
"-79.40","43.63","TORONTO ISLAND A","6158665","1992-11-11 22:00","1992","11","11","22:00","","5.9","","3.0","","82","","10","","4","","24.1","","101.29","","","","","","Mostly Cloudy"
"-79.40","43.63","TORONTO ISLAND A","6158665","1992-11-11 23:00","1992","11","11","23:00","","","","","","","","9","","9","","","","","","","","","","NA"
"-79.40","43.63","TORONTO ISLAND A","6158665","1992-11-12 00:00","1992","11","12","00:00","","","","","","","","7","","11","","","","","","","","","","NA"
"-79.40","43.63","TORONTO ISLAND A","6158665","1992-11-12 01:00","1992","11","12","01:00","","","","","","","","8","","11","","","","","","","","","","NA"
"-79.40","43.63","TORONTO ISLAND A","6158665","1992-11-12 02:00","1992","11","12","02:00","","","","","","","","9","","17","","","","","","","","","","NA"
"-79.40","43.63","TORONTO ISLAND A","6158665","1992-11-12 03:00","1992","11","12","03:00","","","","","","","","9","","20","","","","","","","","","","NA"
"-79.40","43.63","TORONTO ISLAND A","6158665","1992-11-12 04:00","1992","11","12","04:00","","","","","","","","8","","20","","","","","","","","","","NA"
"-79.40","43.63","TORONTO ISLAND A","6158665","1992-11-12 05:00","1992","11","12","05:00","","","","","","","","9","","26","","","","","","","","","","NA"
"-79.40","43.63","TORONTO ISLAND A","6158665","1992-11-12 06:00","1992","11","12","06:00","","","","","","","","9","","33","","","","","","","","","","NA"
"-79.40","43.63","TORONTO ISLAND A","6158665","1992-11-12 07:00","1992","11","12","07:00","","7.1","","5.8","","91","","9","","35","","19.3","","100.45","","","","","","Rain"
"-79.40","43.63","TORONTO ISLAND A","6158665","1992-11-12 08:00","1992","11","12","08:00","","7.1","","6.4","","95","","8","","30","","12.9","","100.35","","","","","","Rain"
"-79.40","43.63","TORONTO ISLAND A","6158665","1992-11-12 09:00","1992","11","12","09:00","","7.0","","7.0","","100","","8","","28","","2.8","","100.15","","","","","","Rain,Fog"
"-79.40","43.63","TORONTO ISLAND A","6158665","1992-11-12 10:00","1992","11","12","10:00","","7.1","","7.1","","100","","8","","30","","2.8","","99.88","","","","","","Rain,Fog"
"-79.40","43.63","TORONTO ISLAND A","6158665","1992-11-12 11:00","1992","11","12","11:00","","7.4","","7.4","","100","","8","","28","","1.6","","99.64","","","","","","Rain,Fog"
"-79.40","43.63","TORONTO ISLAND A","6158665","1992-11-12 12:00","1992","11","12","12:00","","8.3","","8.3","","100","","8","","20","","4.8","","99.41","","","","","","Rain,Fog"
"-79.40","43.63","TORONTO ISLAND A","6158665","1992-11-12 13:00","1992","11","12","13:00","","8.4","","8.4","","100","","8","","19","","4.0","","99.17","","","","","","Rain,Fog"
"-79.40","43.63","TORONTO ISLAND A","6158665","1992-11-12 14:00","1992","11","12","14:00","","8.9","","8.9","","100","","8","","22","","4.8","","98.90","","","","","","Rain,Fog"
"-79.40","43.63","TORONTO ISLAND A","6158665","1992-11-12 15:00","1992","11","12","15:00","","9.5","","9.5","","100","","8","","19","","3.2","","98.70","","","","","","Rain,Fog"
"-79.40","43.63","TORONTO ISLAND A","6158665","1992-11-12 16:00","1992","11","12","16:00","","9.7","","9.7","","100","","9","","19","","4.8","","98.43","","","","","","Rain,Fog"
"-79.40","43.63","TORONTO ISLAND A","6158665","1992-11-12 17:00","1992","11","12","17:00","","12.4","","12.4","","100","","16","","22","","2.8","","98.23","","","","","","Rain,Fog"
"-79.40","43.63","TORONTO ISLAND A","6158665","1992-11-12 18:00","1992","11","12","18:00","","12.2","","12.2","","100","","13","","22","","3.2","","97.96","","","","","","Rain,Fog"
"-79.40","43.63","TORONTO ISLAND A","6158665","1992-11-12 19:00","1992","11","12","19:00","","11.8","","11.8","","100","","14","","22","","6.4","","97.66","","","","","","Rain,Fog"
"-79.40","43.63","TORONTO ISLAND A","6158665","1992-11-12 20:00","1992","11","12","20:00","","12.4","","12.4","","100","","16","","30","","9.7","","97.36","","","","","","Rain,Fog"
"-79.40","43.63","TORONTO ISLAND A","6158665","1992-11-12 21:00","1992","11","12","21:00","","12.3","","12.3","","100","","17","","37","","19.3","","97.15","","","","","","Rain"
"-79.40","43.63","TORONTO ISLAND A","6158665","1992-11-12 22:00","1992","11","12","22:00","","12.3","","12.3","","100","","18","","37","","12.9","","97.02","","","","","","Rain"
"-79.40","43.63","TORONTO ISLAND A","6158665","1992-11-12 23:00","1992","11","12","23:00","","","","","","","","26","","74","","","","","","","","","","NA"
"-79.40","43.63","TORONTO ISLAND A","6158665","1992-11-13 00:00","1992","11","13","00:00","","","","","","","","26","","56","","","","","","","","","","NA"
"-79.40","43.63","TORONTO ISLAND A","6158665","1992-11-13 01:00","1992","11","13","01:00","","","","","","","","25","","57","","","","","","","","","","NA"
"-79.40","43.63","TORONTO ISLAND A","6158665","1992-11-13 02:00","1992","11","13","02:00","","","","","","","","26","","54","","","","","","","","","","NA"
"-79.40","43.63","TORONTO ISLAND A","6158665","1992-11-13 03:00","1992","11","13","03:00","","","","","","","","26","","48","","","","","","","","","","NA"
"-79.40","43.63","TORONTO ISLAND A","6158665","1992-11-13 04:00","1992","11","13","04:00","","","","","","","","26","","56","","","","","","","","","","NA"
"-79.40","43.63","TORONTO ISLAND A","6158665","1992-11-13 05:00","1992","11","13","05:00","","","","","","","","26","","57","","","","","","","","","","NA"
"-79.40","43.63","TORONTO ISLAND A","6158665","1992-11-13 06:00","1992","11","13","06:00","","","","","","","","25","","54","","","","","","","","","","NA"
"-79.40","43.63","TORONTO ISLAND A","6158665","1992-11-13 07:00","1992","11","13","07:00","","2.9","","-0.8","","77","","26","","56","","24.1","","99.37","","","","","","Snow Showers"
"-79.40","43.63","TORONTO ISLAND A","6158665","1992-11-13 08:00","1992","11","13","08:00","","3.8","","-2.4","","64","","25","","48","","24.1","","99.44","","","","","","Mainly Clear"
"-79.40","43.63","TORONTO ISLAND A","6158665","1992-11-13 09:00","1992","11","13","09:00","","4.0","","-2.5","","62","","25","","56","","25.0","","99.54","","","","","","Mainly Clear"
"-79.40","43.63","TORONTO ISLAND A","6158665","1992-11-13 10:00","1992","11","13","10:00","","4.4","","-3.0","","59","","26","","56","","25.0","","99.57","","","","","","Mostly Cloudy"
"-79.40","43.63","TORONTO ISLAND A","6158665","1992-11-13 11:00","1992","11","13","11:00","","5.0","","-3.0","","56","","26","","52","","25.0","","99.64","","","","","","Mostly Cloudy"
"-79.40","43.63","TORONTO ISLAND A","6158665","1992-11-13 12:00","1992","11","13","12:00","","5.2","","-2.7","","56","","26","","46","","25.0","","99.68","","","","","","Mostly Cloudy"
"-79.40","43.63","TORONTO ISLAND A","6158665","1992-11-13 13:00","1992","11","13","13:00","","5.4","","-2.9","","55","","26","","43","","25.0","","99.64","","","","","","Mostly Cloudy"
"-79.40","43.63","TORONTO ISLAND A","6158665","1992-11-13 14:00","1992","11","13","14:00","","5.2","","-3.9","","52","","25","","39","","25.0","","99.64","","","","","","Mainly Clear"
"-79.40","43.63","TORONTO ISLAND A","6158665","1992-11-13 15:00","1992","11","13","15:00","","5.0","","-3.1","","56","","26","","41","","25.0","","99.64","","","","","","Mainly Clear"
"-79.40","43.63","TORONTO ISLAND A","6158665","1992-11-13 16:00","1992","11","13","16:00","","4.1","","-1.6","","66","","29","","33","","25.0","","99.74","","","","","","Mostly Cloudy"
"-79.40","43.63","TORONTO ISLAND A","6158665","1992-11-13 17:00","1992","11","13","17:00","","3.2","","-2.7","","65","","26","","28","","25.0","","99.78","","","","","","Mainly Clear"
"-79.40","43.63","TORONTO ISLAND A","6158665","1992-11-13 18:00","1992","11","13","18:00","","3.1","","-1.4","","72","","26","","41","","25.0","","99.91","","","","","","Mainly Clear"
"-79.40","43.63","TORONTO ISLAND A","6158665","1992-11-13 19:00","1992","11","13","19:00","","2.4","","-1.1","","78","","26","","41","","25.0","","100.01","","","","","","Clear"
"-79.40","43.63","TORONTO ISLAND A","6158665","1992-11-13 20:00","1992","11","13","20:00","","2.0","","-1.9","","75","","27","","30","","25.0","","100.08","","","","","","Clear"
"-79.40","43.63","TORONTO ISLAND A","6158665","1992-11-13 21:00","1992","11","13","21:00","","2.1","","-2.5","","71","","27","","26","","25.0","","100.11","","","","","","Clear"
"-79.40","43.63","TORONTO ISLAND A","6158665","1992-11-13 22:00","1992","11","13","22:00","","1.2","","-1.6","","81","","26","","26","","25.0","","100.21","","","","","","Mainly Clear"
"-79.40","43.63","TORONTO ISLAND A","6158665","1992-11-13 23:00","1992","11","13","23:00","","","","","","","","25","","30","","","","","","","","","","NA"
"-79.40","43.63","TORONTO ISLAND A","6158665","1992-11-14 00:00","1992","11","14","00:00","","","","","","","","25","","39","","","","","","","","","","NA"
"-79.40","43.63","TORONTO ISLAND A","6158665","1992-11-14 01:00","1992","11","14","01:00","","","","","","","","26","","30","","","","","","","","","","NA"
"-79.40","43.63","TORONTO ISLAND A","6158665","1992-11-14 02:00","1992","11","14","02:00","","","","","","","","26","","28","","","","","","","","","","NA"
"-79.40","43.63","TORONTO ISLAND A","6158665","1992-11-14 03:00","1992","11","14","03:00","","","","","","","","26","","26","","","","","","","","","","NA"
"-79.40","43.63","TORONTO ISLAND A","6158665","1992-11-14 04:00","1992","11","14","04:00","","","","","","","","26","","31","","","","","","","","","","NA"
"-79.40","43.63","TORONTO ISLAND A","6158665","1992-11-14 05:00","1992","11","14","05:00","","","","","","","","25","","35","","","","","","","","","","NA"
"-79.40","43.63","TORONTO ISLAND A","6158665","1992-11-14 06:00","1992","11","14","06:00","","","","","","","","26","","30","","","","","","","","","","NA"
"-79.40","43.63","TORONTO ISLAND A","6158665","1992-11-14 07:00","1992","11","14","07:00","","0.0","","-2.7","","82","","26","","28","","25.0","","100.65","","","","-6","","Clear"
"-79.40","43.63","TORONTO ISLAND A","6158665","1992-11-14 08:00","1992","11","14","08:00","","0.0","","-3.0","","80","","25","","22","","25.0","","100.68","","","","-6","","Clear"
"-79.40","43.63","TORONTO ISLAND A","6158665","1992-11-14 09:00","1992","11","14","09:00","","0.7","","-2.8","","77","","25","","26","","25.0","","100.72","","","","","","Clear"
"-79.40","43.63","TORONTO ISLAND A","6158665","1992-11-14 10:00","1992","11","14","10:00","","1.8","","-2.7","","72","","26","","26","","25.0","","100.75","","","","","","Mainly Clear"
"-79.40","43.63","TORONTO ISLAND A","6158665","1992-11-14 11:00","1992","11","14","11:00","","3.1","","-3.4","","62","","27","","30","","25.0","","100.79","","","","","","Clear"
"-79.40","43.63","TORONTO ISLAND A","6158665","1992-11-14 12:00","1992","11","14","12:00","","2.7","","-4.1","","61","","27","","35","","25.0","","100.75","","","","","","Mainly Clear"
"-79.40","43.63","TORONTO ISLAND A","6158665","1992-11-14 13:00","1992","11","14","13:00","","3.6","","-3.2","","61","","26","","39","","25.0","","100.75","","","","","","Mainly Clear"
"-79.40","43.63","TORONTO ISLAND A","6158665","1992-11-14 14:00","1992","11","14","14:00","","3.1","","-4.1","","59","","26","","37","","25.0","","100.75","","","","","","Mostly Cloudy"
"-79.40","43.63","TORONTO ISLAND A","6158665","1992-11-14 15:00","1992","11","14","15:00","","3.3","","-3.6","","61","","26","","37","","25.0","","100.75","","","","","","Mostly Cloudy"
"-79.40","43.63","TORONTO ISLAND A","6158665","1992-11-14 16:00","1992","11","14","16:00","","1.8","","-4.1","","65","","28","","22","","25.0","","100.82","","","","","","Mostly Cloudy"
"-79.40","43.63","TORONTO ISLAND A","6158665","1992-11-14 17:00","1992","11","14","17:00","","2.2","","-5.4","","57","","28","","22","","25.0","","100.82","","","","","","Mainly Clear"
"-79.40","43.63","TORONTO ISLAND A","6158665","1992-11-14 18:00","1992","11","14","18:00","","1.9","","-4.6","","62","","28","","19","","25.0","","100.89","","","","","","Mainly Clear"
"-79.40","43.63","TORONTO ISLAND A","6158665","1992-11-14 19:00","1992","11","14","19:00","","1.2","","-5.0","","63","","29","","15","","25.0","","100.95","","","","","","Mainly Clear"
"-79.40","43.63","TORONTO ISLAND A","6158665","1992-11-14 20:00","1992","11","14","20:00","","0.8","","-4.9","","66","","29","","15","","25.0","","100.95","","","","","","Mainly Clear"
"-79.40","43.63","TORONTO ISLAND A","6158665","1992-11-14 21:00","1992","11","14","21:00","","0.3","","-4.1","","72","","29","","19","","25.0","","101.02","","","","","","Mainly Clear"
"-79.40","43.63","TORONTO ISLAND A","6158665","1992-11-14 22:00","1992","11","14","22:00","","-0.3","","-3.6","","78","","26","","15","","25.0","","101.02","","","","-5","","Mainly Clear"
"-79.40","43.63","TORONTO ISLAND A","6158665","1992-11-14 23:00","1992","11","14","23:00","","","","","","","","26","","13","","","","","","","","","","NA"
"-79.40","43.63","TORONTO ISLAND A","6158665","1992-11-15 00:00","1992","11","15","00:00","","","","","","","","26","","17","","","","","","","","","","NA"
"-79.40","43.63","TORONTO ISLAND A","6158665","1992-11-15 01:00","1992","11","15","01:00","","","","","","","","26","","15","","","","","","","","","","NA"
"-79.40","43.63","TORONTO ISLAND A","6158665","1992-11-15 02:00","1992","11","15","02:00","","","","","","","","28","","9","","","","","","","","","","NA"
"-79.40","43.63","TORONTO ISLAND A","6158665","1992-11-15 03:00","1992","11","15","03:00","","","","","","","","28","","11","","","","","","","","","","NA"
"-79.40","43.63","TORONTO ISLAND A","6158665","1992-11-15 04:00","1992","11","15","04:00","","","","","","","","33","","9","","","","","","","","","","NA"
"-79.40","43.63","TORONTO ISLAND A","6158665","1992-11-15 05:00","1992","11","15","05:00","","","","","","","","33","","7","","","","","","","","","","NA"
"-79.40","43.63","TORONTO ISLAND A","6158665","1992-11-15 06:00","1992","11","15","06:00","","","","","","","","34","","6","","","","","","","","","","NA"
"-79.40","43.63","TORONTO ISLAND A","6158665","1992-11-15 07:00","1992","11","15","07:00","","-1.6","","-3.5","","87","","35","","11","","25.0","","101.05","","","","-5","","Mostly Cloudy"
"-79.40","43.63","TORONTO ISLAND A","6158665","1992-11-15 08:00","1992","11","15","08:00","","-1.3","","-4.1","","81","","36","","7","","25.0","","101.12","","","","-4","","Cloudy"
"-79.40","43.63","TORONTO ISLAND A","6158665","1992-11-15 09:00","1992","11","15","09:00","","-0.8","","-5.4","","71","","1","","11","","25.0","","101.15","","","","-5","","Cloudy"
"-79.40","43.63","TORONTO ISLAND A","6158665","1992-11-15 10:00","1992","11","15","10:00","","-0.5","","-7.0","","61","","1","","11","","25.0","","101.22","","","","-4","","Cloudy"
"-79.40","43.63","TORONTO ISLAND A","6158665","1992-11-15 11:00","1992","11","15","11:00","","-0.2","","-6.7","","61","","36","","6","","25.0","","101.26","","","","-2","","Snow Showers"
"-79.40","43.63","TORONTO ISLAND A","6158665","1992-11-15 12:00","1992","11","15","12:00","","-0.1","","-6.5","","62","","2","","9","","24.1","","101.29","","","","-3","","Snow Showers"
"-79.40","43.63","TORONTO ISLAND A","6158665","1992-11-15 13:00","1992","11","15","13:00","","-0.7","","-3.9","","79","","35","","11","","24.1","","101.29","","","","-4","","Snow Showers"
"-79.40","43.63","TORONTO ISLAND A","6158665","1992-11-15 14:00","1992","11","15","14:00","","0.0","","-5.6","","66","","7","","4","","25.0","","101.29","","","","-1","","Mostly Cloudy"
"-79.40","43.63","TORONTO ISLAND A","6158665","1992-11-15 15:00","1992","11","15","15:00","","0.4","","-6.6","","59","","30","","6","","25.0","","101.36","","","","","","Mostly Cloudy"
"-79.40","43.63","TORONTO ISLAND A","6158665","1992-11-15 16:00","1992","11","15","16:00","","0.7","","-8.1","","51","","30","","4","","25.0","","101.39","","","","","","Mainly Clear"
"-79.40","43.63","TORONTO ISLAND A","6158665","1992-11-15 17:00","1992","11","15","17:00","","0.2","","-8.1","","53","","27","","11","","25.0","","101.46","","","","","","Clear"
"-79.40","43.63","TORONTO ISLAND A","6158665","1992-11-15 18:00","1992","11","15","18:00","","0.3","","-6.6","","60","","27","","17","","25.0","","101.52","","","","","","Mostly Cloudy"
"-79.40","43.63","TORONTO ISLAND A","6158665","1992-11-15 19:00","1992","11","15","19:00","","-0.3","","-5.9","","66","","28","","13","","25.0","","101.56","","","","-4","","Mainly Clear"
"-79.40","43.63","TORONTO ISLAND A","6158665","1992-11-15 20:00","1992","11","15","20:00","","-0.7","","-5.3","","71","","27","","15","","25.0","","101.63","","","","-5","","Clear"
"-79.40","43.63","TORONTO ISLAND A","6158665","1992-11-15 21:00","1992","11","15","21:00","","-1.7","","-5.0","","78","","28","","19","","25.0","","101.69","","","","-7","","Clear"
"-79.40","43.63","TORONTO ISLAND A","6158665","1992-11-15 22:00","1992","11","15","22:00","","-2.1","","-4.3","","85","","33","","11","","25.0","","101.76","","","","-6","","Clear"
"-79.40","43.63","TORONTO ISLAND A","6158665","1992-11-15 23:00","1992","11","15","23:00","","","","","","","","30","","7","","","","","","","","","","NA"
"-79.40","43.63","TORONTO ISLAND A","6158665","1992-11-16 00:00","1992","11","16","00:00","","","","","","","","29","","13","","","","","","","","","","NA"
"-79.40","43.63","TORONTO ISLAND A","6158665","1992-11-16 01:00","1992","11","16","01:00","","","","","","","","28","","11","","","","","","","","","","NA"
"-79.40","43.63","TORONTO ISLAND A","6158665","1992-11-16 02:00","1992","11","16","02:00","","","","","","","","28","","13","","","","","","","","","","NA"
"-79.40","43.63","TORONTO ISLAND A","6158665","1992-11-16 03:00","1992","11","16","03:00","","","","","","","","27","","13","","","","","","","","","","NA"
"-79.40","43.63","TORONTO ISLAND A","6158665","1992-11-16 04:00","1992","11","16","04:00","","","","","","","","26","","22","","","","","","","","","","NA"
"-79.40","43.63","TORONTO ISLAND A","6158665","1992-11-16 05:00","1992","11","16","05:00","","","","","","","","26","","22","","","","","","","","","","NA"
"-79.40","43.63","TORONTO ISLAND A","6158665","1992-11-16 06:00","1992","11","16","06:00","","","","","","","","27","","15","","","","","","","","","","NA"
"-79.40","43.63","TORONTO ISLAND A","6158665","1992-11-16 07:00","1992","11","16","07:00","","-1.0","","-5.9","","69","","27","","19","","24.1","","101.86","","","","-6","","Mostly Cloudy"
"-79.40","43.63","TORONTO ISLAND A","6158665","1992-11-16 08:00","1992","11","16","08:00","","-0.7","","-5.8","","68","","25","","24","","24.1","","101.83","","","","-7","","Mainly Clear"
"-79.40","43.63","TORONTO ISLAND A","6158665","1992-11-16 09:00","1992","11","16","09:00","","0.1","","-6.0","","63","","27","","22","","24.1","","101.79","","","","","","Mostly Cloudy"
"-79.40","43.63","TORONTO ISLAND A","6158665","1992-11-16 10:00","1992","11","16","10:00","","1.1","","-6.2","","58","","26","","19","","24.1","","101.76","","","","","","Cloudy"
"-79.40","43.63","TORONTO ISLAND A","6158665","1992-11-16 11:00","1992","11","16","11:00","","1.9","","-4.6","","62","","24","","17","","19.3","","101.69","","","","","","Cloudy"
"-79.40","43.63","TORONTO ISLAND A","6158665","1992-11-16 12:00","1992","11","16","12:00","","2.6","","-3.5","","64","","23","","26","","19.3","","101.59","","","","","","Mostly Cloudy"
"-79.40","43.63","TORONTO ISLAND A","6158665","1992-11-16 13:00","1992","11","16","13:00","","2.3","","-3.3","","67","","23","","30","","24.1","","101.56","","","","","","Cloudy"
"-79.40","43.63","TORONTO ISLAND A","6158665","1992-11-16 14:00","1992","11","16","14:00","","2.9","","-6.1","","51","","24","","28","","24.1","","101.46","","","","","","Cloudy"
"-79.40","43.63","TORONTO ISLAND A","6158665","1992-11-16 15:00","1992","11","16","15:00","","2.3","","-3.7","","64","","25","","26","","19.3","","101.46","","","","","","Cloudy"
"-79.40","43.63","TORONTO ISLAND A","6158665","1992-11-16 16:00","1992","11","16","16:00","","1.8","","-2.7","","72","","24","","22","","16.1","","101.42","","","","","","Cloudy"
"-79.40","43.63","TORONTO ISLAND A","6158665","1992-11-16 17:00","1992","11","16","17:00","","1.5","","-1.4","","81","","24","","26","","6.4","","101.42","","","","","","Snow Showers"
"-79.40","43.63","TORONTO ISLAND A","6158665","1992-11-16 18:00","1992","11","16","18:00","","1.1","","0.1","","93","","24","","22","","4.0","","101.42","","","","","","Snow"
"-79.40","43.63","TORONTO ISLAND A","6158665","1992-11-16 19:00","1992","11","16","19:00","","1.0","","0.7","","98","","21","","19","","2.4","","101.39","","","","","","Snow"
"-79.40","43.63","TORONTO ISLAND A","6158665","1992-11-16 20:00","1992","11","16","20:00","","1.2","","1.0","","98","","24","","22","","3.2","","101.32","","","","","","Snow"
"-79.40","43.63","TORONTO ISLAND A","6158665","1992-11-16 21:00","1992","11","16","21:00","","1.5","","1.2","","98","","22","","30","","3.2","","101.32","","","","","","Rain,Snow,Fog"
"-79.40","43.63","TORONTO ISLAND A","6158665","1992-11-16 22:00","1992","11","16","22:00","","1.8","","1.5","","98","","22","","28","","8.0","","101.26","","","","","","Rain,Snow,Fog"
"-79.40","43.63","TORONTO ISLAND A","6158665","1992-11-16 23:00","1992","11","16","23:00","","","","","","","","21","","26","","","","","","","","","","NA"
"-79.40","43.63","TORONTO ISLAND A","6158665","1992-11-17 00:00","1992","11","17","00:00","","","","","","","","20","","22","","","","","","","","","","NA"
"-79.40","43.63","TORONTO ISLAND A","6158665","1992-11-17 01:00","1992","11","17","01:00","","","","","","","","22","","26","","","","","","","","","","NA"
"-79.40","43.63","TORONTO ISLAND A","6158665","1992-11-17 02:00","1992","11","17","02:00","","","","","","","","21","","19","","","","","","","","","","NA"
"-79.40","43.63","TORONTO ISLAND A","6158665","1992-11-17 03:00","1992","11","17","03:00","","","","","","","","18","","15","","","","","","","","","","NA"
"-79.40","43.63","TORONTO ISLAND A","6158665","1992-11-17 04:00","1992","11","17","04:00","","","","","","","","15","","9","","","","","","","","","","NA"
"-79.40","43.63","TORONTO ISLAND A","6158665","1992-11-17 05:00","1992","11","17","05:00","","","","","","","","14","","7","","","","","","","","","","NA"
"-79.40","43.63","TORONTO ISLAND A","6158665","1992-11-17 06:00","1992","11","17","06:00","","","","","","","","","","0","","","","","","","","","","NA"
"-79.40","43.63","TORONTO ISLAND A","6158665","1992-11-17 07:00","1992","11","17","07:00","","0.8","","0.8","","100","","","","0","","12.9","","100.82","","","","","","Rain,Snow"
"-79.40","43.63","TORONTO ISLAND A","6158665","1992-11-17 08:00","1992","11","17","08:00","","1.1","","1.1","","100","","","","0","","6.4","","100.82","","","","","","Rain,Fog"
"-79.40","43.63","TORONTO ISLAND A","6158665","1992-11-17 09:00","1992","11","17","09:00","","1.3","","1.3","","100","","8","","9","","9.7","","100.82","","","","","","Rain,Fog"
"-79.40","43.63","TORONTO ISLAND A","6158665","1992-11-17 10:00","1992","11","17","10:00","","1.8","","1.6","","99","","4","","7","","6.4","","100.85","","","","","","Rain,Snow,Fog"
"-79.40","43.63","TORONTO ISLAND A","6158665","1992-11-17 11:00","1992","11","17","11:00","","2.1","","2.0","","99","","6","","9","","8.0","","100.85","","","","","","Rain,Fog"
"-79.40","43.63","TORONTO ISLAND A","6158665","1992-11-17 12:00","1992","11","17","12:00","","2.3","","1.8","","96","","6","","11","","9.7","","100.85","","","","","","Rain,Fog"
"-79.40","43.63","TORONTO ISLAND A","6158665","1992-11-17 13:00","1992","11","17","13:00","","2.6","","1.8","","94","","5","","13","","12.9","","100.85","","","","","","Cloudy"
"-79.40","43.63","TORONTO ISLAND A","6158665","1992-11-17 14:00","1992","11","17","14:00","","2.9","","1.5","","91","","6","","15","","14.5","","100.89","","","","","","Cloudy"
"-79.40","43.63","TORONTO ISLAND A","6158665","1992-11-17 15:00","1992","11","17","15:00","","3.1","","1.1","","87","","7","","11","","12.9","","100.95","","","","","","Cloudy"
"-79.40","43.63","TORONTO ISLAND A","6158665","1992-11-17 16:00","1992","11","17","16:00","","3.2","","0.7","","84","","3","","15","","16.1","","101.02","","","","","","Cloudy"
"-79.40","43.63","TORONTO ISLAND A","6158665","1992-11-17 17:00","1992","11","17","17:00","","3.0","","0.0","","81","","3","","19","","16.1","","101.12","","","","","","Cloudy"
"-79.40","43.63","TORONTO ISLAND A","6158665","1992-11-17 18:00","1992","11","17","18:00","","2.8","","-0.4","","80","","5","","19","","24.1","","101.22","","","","","","Cloudy"
"-79.40","43.63","TORONTO ISLAND A","6158665","1992-11-17 19:00","1992","11","17","19:00","","2.8","","-0.6","","78","","5","","15","","24.1","","101.29","","","","","","Cloudy"
"-79.40","43.63","TORONTO ISLAND A","6158665","1992-11-17 20:00","1992","11","17","20:00","","2.9","","-0.5","","78","","5","","11","","24.1","","101.32","","","","","","Cloudy"
"-79.40","43.63","TORONTO ISLAND A","6158665","1992-11-17 21:00","1992","11","17","21:00","","3.0","","-1.2","","74","","4","","15","","24.1","","101.39","","","","","","Cloudy"
"-79.40","43.63","TORONTO ISLAND A","6158665","1992-11-17 22:00","1992","11","17","22:00","","3.0","","0.1","","81","","5","","11","","24.1","","101.42","","","","","","Cloudy"
"-79.40","43.63","TORONTO ISLAND A","6158665","1992-11-17 23:00","1992","11","17","23:00","","","","","","","","8","","17","","","","","","","","","","NA"
"-79.40","43.63","TORONTO ISLAND A","6158665","1992-11-18 00:00","1992","11","18","00:00","","","","","","","","9","","19","","","","","","","","","","NA"
"-79.40","43.63","TORONTO ISLAND A","6158665","1992-11-18 01:00","1992","11","18","01:00","","","","","","","","8","","22","","","","","","","","","","NA"
"-79.40","43.63","TORONTO ISLAND A","6158665","1992-11-18 02:00","1992","11","18","02:00","","","","","","","","9","","20","","","","","","","","","","NA"
"-79.40","43.63","TORONTO ISLAND A","6158665","1992-11-18 03:00","1992","11","18","03:00","","","","","","","","8","","17","","","","","","","","","","NA"
"-79.40","43.63","TORONTO ISLAND A","6158665","1992-11-18 04:00","1992","11","18","04:00","","","","","","","","6","","15","","","","","","","","","","NA"
"-79.40","43.63","TORONTO ISLAND A","6158665","1992-11-18 05:00","1992","11","18","05:00","","","","","","","","6","","15","","","","","","","","","","NA"
"-79.40","43.63","TORONTO ISLAND A","6158665","1992-11-18 06:00","1992","11","18","06:00","","","","","","","","7","","13","","","","","","","","","","NA"
"-79.40","43.63","TORONTO ISLAND A","6158665","1992-11-18 07:00","1992","11","18","07:00","","2.4","","0.8","","89","","6","","15","","14.5","","101.63","","","","","","Drizzle"
"-79.40","43.63","TORONTO ISLAND A","6158665","1992-11-18 08:00","1992","11","18","08:00","","2.8","","0.9","","87","","10","","15","","9.7","","101.66","","","","","","Rain,Snow Pellets,Fog"
"-79.40","43.63","TORONTO ISLAND A","6158665","1992-11-18 09:00","1992","11","18","09:00","","0.7","","0.7","","100","","27","","9","","1.2","","101.79","","","","","","Snow Pellets,Fog"
"-79.40","43.63","TORONTO ISLAND A","6158665","1992-11-18 10:00","1992","11","18","10:00","","0.8","","0.8","","100","","35","","7","","2.8","","101.79","","","","","","Snow Pellets,Fog"
"-79.40","43.63","TORONTO ISLAND A","6158665","1992-11-18 11:00","1992","11","18","11:00","","1.2","","0.6","","96","","34","","11","","6.4","","101.79","","","","","","Snow Pellets,Fog"
"-79.40","43.63","TORONTO ISLAND A","6158665","1992-11-18 12:00","1992","11","18","12:00","","1.4","","-0.3","","89","","34","","19","","8.0","","101.79","","","","","","Snow,Fog"
"-79.40","43.63","TORONTO ISLAND A","6158665","1992-11-18 13:00","1992","11","18","13:00","","1.4","","-0.2","","89","","34","","13","","24.1","","101.79","","","","","","Cloudy"
"-79.40","43.63","TORONTO ISLAND A","6158665","1992-11-18 14:00","1992","11","18","14:00","","2.2","","-0.7","","81","","34","","13","","24.1","","101.79","","","","","","Cloudy"
"-79.40","43.63","TORONTO ISLAND A","6158665","1992-11-18 15:00","1992","11","18","15:00","","2.5","","-1.9","","73","","34","","11","","24.1","","101.79","","","","","","Mostly Cloudy"
"-79.40","43.63","TORONTO ISLAND A","6158665","1992-11-18 16:00","1992","11","18","16:00","","2.5","","-1.6","","74","","1","","15","","24.1","","101.79","","","","","","Mostly Cloudy"
"-79.40","43.63","TORONTO ISLAND A","6158665","1992-11-18 17:00","1992","11","18","17:00","","2.2","","-2.0","","74","","36","","15","","24.1","","101.93","","","","","","Mostly Cloudy"
"-79.40","43.63","TORONTO ISLAND A","6158665","1992-11-18 18:00","1992","11","18","18:00","","1.4","","-2.7","","74","","36","","22","","24.1","","101.96","","","","","","Cloudy"
"-79.40","43.63","TORONTO ISLAND A","6158665","1992-11-18 19:00","1992","11","18","19:00","","1.0","","-3.3","","73","","35","","26","","24.1","","102.00","","","","","","Cloudy"
"-79.40","43.63","TORONTO ISLAND A","6158665","1992-11-18 20:00","1992","11","18","20:00","","0.0","","-5.2","","68","","34","","26","","24.1","","102.03","","","","-6","","Mostly Cloudy"
"-79.40","43.63","TORONTO ISLAND A","6158665","1992-11-18 21:00","1992","11","18","21:00","","-0.3","","-5.5","","68","","34","","15","","24.1","","102.10","","","","-5","","Mostly Cloudy"
"-79.40","43.63","TORONTO ISLAND A","6158665","1992-11-18 22:00","1992","11","18","22:00","","-0.6","","-5.6","","69","","34","","15","","24.1","","102.06","","","","-5","","Mostly Cloudy"
"-79.40","43.63","TORONTO ISLAND A","6158665","1992-11-18 23:00","1992","11","18","23:00","","","","","","","","34","","13","","","","","","","","","","NA"
"-79.40","43.63","TORONTO ISLAND A","6158665","1992-11-19 00:00","1992","11","19","00:00","","","","","","","","34","","7","","","","","","","","","","NA"
"-79.40","43.63","TORONTO ISLAND A","6158665","1992-11-19 01:00","1992","11","19","01:00","","","","","","","","34","","9","","","","","","","","","","NA"
"-79.40","43.63","TORONTO ISLAND A","6158665","1992-11-19 02:00","1992","11","19","02:00","","","","","","","","34","","9","","","","","","","","","","NA"
"-79.40","43.63","TORONTO ISLAND A","6158665","1992-11-19 03:00","1992","11","19","03:00","","","","","","","","34","","11","","","","","","","","","","NA"
"-79.40","43.63","TORONTO ISLAND A","6158665","1992-11-19 04:00","1992","11","19","04:00","","","","","","","","34","","9","","","","","","","","","","NA"
"-79.40","43.63","TORONTO ISLAND A","6158665","1992-11-19 05:00","1992","11","19","05:00","","","","","","","","34","","9","","","","","","","","","","NA"
"-79.40","43.63","TORONTO ISLAND A","6158665","1992-11-19 06:00","1992","11","19","06:00","","","","","","","","35","","6","","","","","","","","","","NA"
"-79.40","43.63","TORONTO ISLAND A","6158665","1992-11-19 07:00","1992","11","19","07:00","","-1.4","","-4.6","","79","","34","","9","","24.1","","102.26","","","","-5","","Mostly Cloudy"
"-79.40","43.63","TORONTO ISLAND A","6158665","1992-11-19 08:00","1992","11","19","08:00","","-1.0","","-5.0","","74","","36","","11","","16.1","","102.30","","","","-5","","Mostly Cloudy"
"-79.40","43.63","TORONTO ISLAND A","6158665","1992-11-19 09:00","1992","11","19","09:00","","-0.5","","-4.8","","73","","34","","9","","12.9","","102.33","","","","-4","","Mostly Cloudy"
"-79.40","43.63","TORONTO ISLAND A","6158665","1992-11-19 10:00","1992","11","19","10:00","","0.3","","-4.5","","70","","","","0","","12.9","","102.33","","","","","","Mostly Cloudy"
"-79.40","43.63","TORONTO ISLAND A","6158665","1992-11-19 11:00","1992","11","19","11:00","","1.1","","-3.8","","70","","10","","7","","16.1","","102.40","","","","","","Mostly Cloudy"
"-79.40","43.63","TORONTO ISLAND A","6158665","1992-11-19 12:00","1992","11","19","12:00","","1.3","","-2.6","","75","","","","0","","12.9","","102.40","","","","","","Mostly Cloudy"
"-79.40","43.63","TORONTO ISLAND A","6158665","1992-11-19 13:00","1992","11","19","13:00","","2.4","","-2.8","","69","","","","0","","16.1","","102.37","","","","","","Mainly Clear"
"-79.40","43.63","TORONTO ISLAND A","6158665","1992-11-19 14:00","1992","11","19","14:00","","3.4","","-1.8","","69","","","","0","","14.5","","102.30","","","","","","Mainly Clear"
"-79.40","43.63","TORONTO ISLAND A","6158665","1992-11-19 15:00","1992","11","19","15:00","","2.7","","-0.9","","77","","10","","13","","14.5","","102.33","","","","","","Mainly Clear"
"-79.40","43.63","TORONTO ISLAND A","6158665","1992-11-19 16:00","1992","11","19","16:00","","2.3","","-1.0","","79","","9","","19","","16.1","","102.33","","","","","","Mainly Clear"
"-79.40","43.63","TORONTO ISLAND A","6158665","1992-11-19 17:00","1992","11","19","17:00","","1.8","","-1.2","","80","","9","","15","","16.1","","102.40","","","","","","Mainly Clear"
"-79.40","43.63","TORONTO ISLAND A","6158665","1992-11-19 18:00","1992","11","19","18:00","","2.2","","-1.1","","79","","7","","13","","19.3","","102.43","","","","","","Mostly Cloudy"
"-79.40","43.63","TORONTO ISLAND A","6158665","1992-11-19 19:00","1992","11","19","19:00","","2.4","","-1.2","","77","","6","","11","","24.1","","102.50","","","","","","Mostly Cloudy"
"-79.40","43.63","TORONTO ISLAND A","6158665","1992-11-19 20:00","1992","11","19","20:00","","2.1","","-1.3","","78","","6","","11","","24.1","","102.50","","","","","","Mostly Cloudy"
"-79.40","43.63","TORONTO ISLAND A","6158665","1992-11-19 21:00","1992","11","19","21:00","","1.9","","-0.6","","83","","6","","15","","24.1","","102.53","","","","","","Mostly Cloudy"
"-79.40","43.63","TORONTO ISLAND A","6158665","1992-11-19 22:00","1992","11","19","22:00","","1.2","","-1.1","","84","","7","","15","","19.3","","102.50","","","","","","Mostly Cloudy"
"-79.40","43.63","TORONTO ISLAND A","6158665","1992-11-19 23:00","1992","11","19","23:00","","","","","","","","6","","19","","","","","","","","","","NA"
"-79.40","43.63","TORONTO ISLAND A","6158665","1992-11-20 00:00","1992","11","20","00:00","","","","","","","","7","","19","","","","","","","","","","NA"
"-79.40","43.63","TORONTO ISLAND A","6158665","1992-11-20 01:00","1992","11","20","01:00","","","","","","","","8","","19","","","","","","","","","","NA"
"-79.40","43.63","TORONTO ISLAND A","6158665","1992-11-20 02:00","1992","11","20","02:00","","","","","","","","7","","24","","","","","","","","","","NA"
"-79.40","43.63","TORONTO ISLAND A","6158665","1992-11-20 03:00","1992","11","20","03:00","","","","","","","","9","","24","","","","","","","","","","NA"
"-79.40","43.63","TORONTO ISLAND A","6158665","1992-11-20 04:00","1992","11","20","04:00","","","","","","","","11","","28","","","","","","","","","","NA"
"-79.40","43.63","TORONTO ISLAND A","6158665","1992-11-20 05:00","1992","11","20","05:00","","","","","","","","10","","31","","","","","","","","","","NA"
"-79.40","43.63","TORONTO ISLAND A","6158665","1992-11-20 06:00","1992","11","20","06:00","","","","","","","","10","","37","","","","","","","","","","NA"
"-79.40","43.63","TORONTO ISLAND A","6158665","1992-11-20 07:00","1992","11","20","07:00","","3.4","","0.3","","80","","10","","37","","24.1","","102.33","","","","","","Cloudy"
"-79.40","43.63","TORONTO ISLAND A","6158665","1992-11-20 08:00","1992","11","20","08:00","","3.4","","0.0","","78","","11","","37","","16.1","","102.30","","","","","","Cloudy"
"-79.40","43.63","TORONTO ISLAND A","6158665","1992-11-20 09:00","1992","11","20","09:00","","3.6","","-0.4","","75","","11","","31","","16.1","","102.26","","","","","","Cloudy"
"-79.40","43.63","TORONTO ISLAND A","6158665","1992-11-20 10:00","1992","11","20","10:00","","3.9","","-0.8","","72","","12","","28","","16.1","","102.26","","","","","","Cloudy"
"-79.40","43.63","TORONTO ISLAND A","6158665","1992-11-20 11:00","1992","11","20","11:00","","4.0","","-1.0","","70","","11","","26","","19.3","","102.20","","","","","","Cloudy"
"-79.40","43.63","TORONTO ISLAND A","6158665","1992-11-20 12:00","1992","11","20","12:00","","4.2","","-0.2","","73","","11","","28","","16.1","","102.10","","","","","","Cloudy"
"-79.40","43.63","TORONTO ISLAND A","6158665","1992-11-20 13:00","1992","11","20","13:00","","4.3","","0.5","","76","","11","","26","","16.1","","102.03","","","","","","Cloudy"
"-79.40","43.63","TORONTO ISLAND A","6158665","1992-11-20 14:00","1992","11","20","14:00","","4.7","","0.8","","76","","11","","26","","14.5","","101.96","","","","","","Mostly Cloudy"
"-79.40","43.63","TORONTO ISLAND A","6158665","1992-11-20 15:00","1992","11","20","15:00","","4.6","","1.0","","77","","11","","26","","16.1","","101.89","","","","","","Mostly Cloudy"
"-79.40","43.63","TORONTO ISLAND A","6158665","1992-11-20 16:00","1992","11","20","16:00","","4.8","","1.7","","81","","9","","28","","19.3","","101.86","","","","","","Mostly Cloudy"
"-79.40","43.63","TORONTO ISLAND A","6158665","1992-11-20 17:00","1992","11","20","17:00","","4.6","","3.0","","89","","9","","30","","19.3","","101.76","","","","","","Cloudy"
"-79.40","43.63","TORONTO ISLAND A","6158665","1992-11-20 18:00","1992","11","20","18:00","","5.5","","3.1","","85","","9","","30","","19.3","","101.76","","","","","","Cloudy"
"-79.40","43.63","TORONTO ISLAND A","6158665","1992-11-20 19:00","1992","11","20","19:00","","4.6","","4.0","","96","","9","","22","","19.3","","101.69","","","","","","Mostly Cloudy"
"-79.40","43.63","TORONTO ISLAND A","6158665","1992-11-20 20:00","1992","11","20","20:00","","5.3","","3.8","","90","","9","","22","","19.3","","101.66","","","","","","Mostly Cloudy"
"-79.40","43.63","TORONTO ISLAND A","6158665","1992-11-20 21:00","1992","11","20","21:00","","5.6","","3.1","","84","","11","","19","","19.3","","101.59","","","","","","Mostly Cloudy"
"-79.40","43.63","TORONTO ISLAND A","6158665","1992-11-20 22:00","1992","11","20","22:00","","5.5","","3.0","","84","","14","","19","","19.3","","101.56","","","","","","Mainly Clear"
"-79.40","43.63","TORONTO ISLAND A","6158665","1992-11-20 23:00","1992","11","20","23:00","","","","","","","","15","","17","","","","","","","","","","NA"
"-79.40","43.63","TORONTO ISLAND A","6158665","1992-11-21 00:00","1992","11","21","00:00","","","","","","","","14","","13","","","","","","","","","","NA"
"-79.40","43.63","TORONTO ISLAND A","6158665","1992-11-21 01:00","1992","11","21","01:00","","","","","","","","12","","9","","","","","","","","","","NA"
"-79.40","43.63","TORONTO ISLAND A","6158665","1992-11-21 02:00","1992","11","21","02:00","","","","","","","","11","","13","","","","","","","","","","NA"
"-79.40","43.63","TORONTO ISLAND A","6158665","1992-11-21 03:00","1992","11","21","03:00","","","","","","","","10","","13","","","","","","","","","","NA"
"-79.40","43.63","TORONTO ISLAND A","6158665","1992-11-21 04:00","1992","11","21","04:00","","","","","","","","9","","13","","","","","","","","","","NA"
"-79.40","43.63","TORONTO ISLAND A","6158665","1992-11-21 05:00","1992","11","21","05:00","","","","","","","","9","","17","","","","","","","","","","NA"
"-79.40","43.63","TORONTO ISLAND A","6158665","1992-11-21 06:00","1992","11","21","06:00","","","","","","","","10","","17","","","","","","","","","","NA"
"-79.40","43.63","TORONTO ISLAND A","6158665","1992-11-21 07:00","1992","11","21","07:00","","5.8","","4.8","","93","","9","","19","","24.1","","100.92","","","","","","Mostly Cloudy"
"-79.40","43.63","TORONTO ISLAND A","6158665","1992-11-21 08:00","1992","11","21","08:00","","5.9","","5.2","","95","","9","","17","","19.3","","100.85","","","","","","Cloudy"
"-79.40","43.63","TORONTO ISLAND A","6158665","1992-11-21 09:00","1992","11","21","09:00","","6.9","","5.9","","93","","9","","17","","12.9","","100.75","","","","","","Rain"
"-79.40","43.63","TORONTO ISLAND A","6158665","1992-11-21 10:00","1992","11","21","10:00","","6.5","","6.5","","100","","10","","13","","6.4","","100.68","","","","","","Rain,Fog"
"-79.40","43.63","TORONTO ISLAND A","6158665","1992-11-21 11:00","1992","11","21","11:00","","7.3","","7.3","","100","","14","","4","","9.7","","100.58","","","","","","Rain,Fog"
"-79.40","43.63","TORONTO ISLAND A","6158665","1992-11-21 12:00","1992","11","21","12:00","","8.2","","8.2","","100","","19","","4","","12.9","","100.42","","","","","","Cloudy"
"-79.40","43.63","TORONTO ISLAND A","6158665","1992-11-21 13:00","1992","11","21","13:00","","8.8","","8.8","","100","","22","","17","","24.1","","100.35","","","","","","Cloudy"
"-79.40","43.63","TORONTO ISLAND A","6158665","1992-11-21 14:00","1992","11","21","14:00","","8.9","","8.7","","99","","22","","20","","24.1","","100.21","","","","","","Cloudy"
"-79.40","43.63","TORONTO ISLAND A","6158665","1992-11-21 15:00","1992","11","21","15:00","","9.6","","9.0","","96","","22","","28","","24.1","","100.18","","","","","","Cloudy"
"-79.40","43.63","TORONTO ISLAND A","6158665","1992-11-21 16:00","1992","11","21","16:00","","9.9","","9.2","","96","","22","","33","","24.1","","100.21","","","","","","Cloudy"
"-79.40","43.63","TORONTO ISLAND A","6158665","1992-11-21 17:00","1992","11","21","17:00","","9.4","","8.9","","97","","21","","30","","19.3","","100.25","","","","","","Cloudy"
"-79.40","43.63","TORONTO ISLAND A","6158665","1992-11-21 18:00","1992","11","21","18:00","","8.9","","8.7","","99","","22","","26","","24.1","","100.28","","","","","","Mostly Cloudy"
"-79.40","43.63","TORONTO ISLAND A","6158665","1992-11-21 19:00","1992","11","21","19:00","","8.8","","8.6","","99","","22","","28","","24.1","","100.35","","","","","","Mostly Cloudy"
"-79.40","43.63","TORONTO ISLAND A","6158665","1992-11-21 20:00","1992","11","21","20:00","","8.5","","8.4","","99","","24","","19","","24.1","","100.42","","","","","","Mainly Clear"
"-79.40","43.63","TORONTO ISLAND A","6158665","1992-11-21 21:00","1992","11","21","21:00","","8.2","","8.2","","100","","25","","11","","16.1","","100.45","","","","","","Mostly Cloudy"
"-79.40","43.63","TORONTO ISLAND A","6158665","1992-11-21 22:00","1992","11","21","22:00","","11.1","","9.9","","92","","27","","19","","16.1","","100.45","","","","","","Mostly Cloudy"
"-79.40","43.63","TORONTO ISLAND A","6158665","1992-11-21 23:00","1992","11","21","23:00"
"-79.40","43.63","TORONTO ISLAND A","6158665","1992-11-22 00:00","1992","11","22","00:00"
"-79.40","43.63","TORONTO ISLAND A","6158665","1992-11-22 01:00","1992","11","22","01:00"
"-79.40","43.63","TORONTO ISLAND A","6158665","1992-11-22 02:00","1992","11","22","02:00"
"-79.40","43.63","TORONTO ISLAND A","6158665","1992-11-22 03:00","1992","11","22","03:00"
"-79.40","43.63","TORONTO ISLAND A","6158665","1992-11-22 04:00","1992","11","22","04:00"
"-79.40","43.63","TORONTO ISLAND A","6158665","1992-11-22 05:00","1992","11","22","05:00"
"-79.40","43.63","TORONTO ISLAND A","6158665","1992-11-22 06:00","1992","11","22","06:00"
"-79.40","43.63","TORONTO ISLAND A","6158665","1992-11-22 07:00","1992","11","22","07:00","","7.4","","4.2","","80","","32","","11","","25.0","","100.62","","","","","","Cloudy"
"-79.40","43.63","TORONTO ISLAND A","6158665","1992-11-22 08:00","1992","11","22","08:00","","7.2","","4.2","","81","","2","","7","","25.0","","100.62","","","","","","Cloudy"
"-79.40","43.63","TORONTO ISLAND A","6158665","1992-11-22 09:00","1992","11","22","09:00","","7.0","","4.1","","82","","35","","6","","25.0","","100.65","","","","","","Cloudy"
"-79.40","43.63","TORONTO ISLAND A","6158665","1992-11-22 10:00","1992","11","22","10:00","","7.1","","4.0","","81","","4","","7","","25.0","","100.62","","","","","","Cloudy"
"-79.40","43.63","TORONTO ISLAND A","6158665","1992-11-22 11:00","1992","11","22","11:00","","6.8","","4.1","","83","","","","0","","25.0","","100.62","","","","","","Cloudy"
"-79.40","43.63","TORONTO ISLAND A","6158665","1992-11-22 12:00","1992","11","22","12:00","","7.1","","3.6","","78","","36","","9","","24.1","","100.48","","","","","","Cloudy"
"-79.40","43.63","TORONTO ISLAND A","6158665","1992-11-22 13:00","1992","11","22","13:00","","6.9","","3.1","","77","","2","","17","","24.1","","100.42","","","","","","Cloudy"
"-79.40","43.63","TORONTO ISLAND A","6158665","1992-11-22 14:00","1992","11","22","14:00","","7.0","","3.2","","77","","7","","9","","24.1","","100.38","","","","","","Cloudy"
"-79.40","43.63","TORONTO ISLAND A","6158665","1992-11-22 15:00","1992","11","22","15:00","","6.6","","3.2","","79","","3","","15","","24.1","","100.28","","","","","","Rain Showers"
"-79.40","43.63","TORONTO ISLAND A","6158665","1992-11-22 16:00","1992","11","22","16:00","","6.3","","3.5","","82","","6","","9","","16.1","","100.21","","","","","","Rain Showers"
"-79.40","43.63","TORONTO ISLAND A","6158665","1992-11-22 17:00","1992","11","22","17:00","","5.6","","3.6","","87","","7","","19","","9.7","","100.18","","","","","","Rain,Fog"
"-79.40","43.63","TORONTO ISLAND A","6158665","1992-11-22 18:00","1992","11","22","18:00","","5.4","","3.6","","88","","5","","15","","14.5","","100.11","","","","","","Rain"
"-79.40","43.63","TORONTO ISLAND A","6158665","1992-11-22 19:00","1992","11","22","19:00","","4.8","","4.1","","95","","7","","28","","19.3","","99.88","","","","","","Rain"
"-79.40","43.63","TORONTO ISLAND A","6158665","1992-11-22 20:00","1992","11","22","20:00","","4.6","","3.8","","94","","7","","22","","16.1","","99.88","","","","","","Rain"
"-79.40","43.63","TORONTO ISLAND A","6158665","1992-11-22 21:00","1992","11","22","21:00","","4.6","","4.4","","98","","7","","22","","6.4","","99.78","","","","","","Rain,Fog"
"-79.40","43.63","TORONTO ISLAND A","6158665","1992-11-22 22:00","1992","11","22","22:00","","4.8","","4.7","","100","","7","","26","","4.8","","99.64","","","","","","Rain,Fog"
"-79.40","43.63","TORONTO ISLAND A","6158665","1992-11-22 23:00","1992","11","22","23:00","","","","","","","","7","","46","","","","","","","","","","NA"
"-79.40","43.63","TORONTO ISLAND A","6158665","1992-11-23 00:00","1992","11","23","00:00","","","","","","","","8","","44","","","","","","","","","","NA"
"-79.40","43.63","TORONTO ISLAND A","6158665","1992-11-23 01:00","1992","11","23","01:00","","","","","","","","4","","19","","","","","","","","","","NA"
"-79.40","43.63","TORONTO ISLAND A","6158665","1992-11-23 02:00","1992","11","23","02:00","","","","","","","","7","","22","","","","","","","","","","NA"
"-79.40","43.63","TORONTO ISLAND A","6158665","1992-11-23 03:00","1992","11","23","03:00","","","","","","","","5","","19","","","","","","","","","","NA"
"-79.40","43.63","TORONTO ISLAND A","6158665","1992-11-23 04:00","1992","11","23","04:00","","","","","","","","6","","15","","","","","","","","","","NA"
"-79.40","43.63","TORONTO ISLAND A","6158665","1992-11-23 05:00","1992","11","23","05:00","","","","","","","","7","","24","","","","","","","","","","NA"
"-79.40","43.63","TORONTO ISLAND A","6158665","1992-11-23 06:00","1992","11","23","06:00","","","","","","","","9","","20","","","","","","","","","","NA"
"-79.40","43.63","TORONTO ISLAND A","6158665","1992-11-23 07:00","1992","11","23","07:00","","4.0","","4.0","","100","","8","","20","","4.8","","99.47","","","","","","Rain,Fog"
"-79.40","43.63","TORONTO ISLAND A","6158665","1992-11-23 08:00","1992","11","23","08:00","","4.0","","4.0","","100","","7","","11","","6.4","","99.64","","","","","","Rain,Fog"
"-79.40","43.63","TORONTO ISLAND A","6158665","1992-11-23 09:00","1992","11","23","09:00","","4.1","","4.1","","100","","8","","17","","8.0","","99.71","","","","","","Rain,Fog"
"-79.40","43.63","TORONTO ISLAND A","6158665","1992-11-23 10:00","1992","11","23","10:00","","4.2","","4.1","","99","","6","","9","","14.5","","99.78","","","","","","Rain"
"-79.40","43.63","TORONTO ISLAND A","6158665","1992-11-23 11:00","1992","11","23","11:00","","4.4","","4.0","","97","","7","","11","","12.9","","99.84","","","","","","Rain"
"-79.40","43.63","TORONTO ISLAND A","6158665","1992-11-23 12:00","1992","11","23","12:00","","4.7","","3.9","","94","","7","","9","","16.1","","99.84","","","","","","Rain"
"-79.40","43.63","TORONTO ISLAND A","6158665","1992-11-23 13:00","1992","11","23","13:00","","4.4","","3.6","","95","","1","","13","","11.3","","99.94","","","","","","Cloudy"
"-79.40","43.63","TORONTO ISLAND A","6158665","1992-11-23 14:00","1992","11","23","14:00","","4.1","","3.0","","92","","4","","13","","6.4","","100.01","","","","","","Drizzle,Fog"
"-79.40","43.63","TORONTO ISLAND A","6158665","1992-11-23 15:00","1992","11","23","15:00","","4.4","","3.1","","91","","5","","7","","19.3","","100.08","","","","","","Mostly Cloudy"
"-79.40","43.63","TORONTO ISLAND A","6158665","1992-11-23 16:00","1992","11","23","16:00","","4.5","","2.8","","89","","","","0","","24.1","","100.25","","","","","","Cloudy"
"-79.40","43.63","TORONTO ISLAND A","6158665","1992-11-23 17:00","1992","11","23","17:00","","4.7","","2.9","","88","","","","0","","19.3","","100.38","","","","","","Cloudy"
"-79.40","43.63","TORONTO ISLAND A","6158665","1992-11-23 18:00","1992","11","23","18:00","","4.7","","2.6","","86","","10","","7","","24.1","","100.48","","","","","","Cloudy"
"-79.40","43.63","TORONTO ISLAND A","6158665","1992-11-23 19:00","1992","11","23","19:00","","4.6","","3.2","","91","","10","","15","","24.1","","100.58","","","","","","Cloudy"
"-79.40","43.63","TORONTO ISLAND A","6158665","1992-11-23 20:00","1992","11","23","20:00","","4.5","","2.5","","87","","9","","13","","24.1","","100.65","","","","","","Cloudy"
"-79.40","43.63","TORONTO ISLAND A","6158665","1992-11-23 21:00","1992","11","23","21:00","","4.5","","2.6","","88","","8","","11","","24.1","","100.72","","","","","","Cloudy"
"-79.40","43.63","TORONTO ISLAND A","6158665","1992-11-23 22:00","1992","11","23","22:00","","3.9","","2.9","","93","","10","","22","","19.3","","100.79","","","","","","Drizzle"
"-79.40","43.63","TORONTO ISLAND A","6158665","1992-11-23 23:00","1992","11","23","23:00","","","","","","","","7","","24","","","","","","","","","","NA"
"-79.40","43.63","TORONTO ISLAND A","6158665","1992-11-24 00:00","1992","11","24","00:00","","","","","","","","7","","24","","","","","","","","","","NA"
"-79.40","43.63","TORONTO ISLAND A","6158665","1992-11-24 01:00","1992","11","24","01:00","","","","","","","","7","","24","","","","","","","","","","NA"
"-79.40","43.63","TORONTO ISLAND A","6158665","1992-11-24 02:00","1992","11","24","02:00"
"-79.40","43.63","TORONTO ISLAND A","6158665","1992-11-24 03:00","1992","11","24","03:00"
"-79.40","43.63","TORONTO ISLAND A","6158665","1992-11-24 04:00","1992","11","24","04:00"
"-79.40","43.63","TORONTO ISLAND A","6158665","1992-11-24 05:00","1992","11","24","05:00"
"-79.40","43.63","TORONTO ISLAND A","6158665","1992-11-24 06:00","1992","11","24","06:00"
"-79.40","43.63","TORONTO ISLAND A","6158665","1992-11-24 07:00","1992","11","24","07:00","","3.8","","2.3","","90","","9","","24","","24.1","","101.15","","","","","","Drizzle"
"-79.40","43.63","TORONTO ISLAND A","6158665","1992-11-24 08:00","1992","11","24","08:00","","3.9","","2.9","","93","","9","","28","","16.1","","101.19","","","","","","Drizzle"
"-79.40","43.63","TORONTO ISLAND A","6158665","1992-11-24 09:00","1992","11","24","09:00","","4.1","","3.6","","97","","9","","19","","8.0","","101.26","","","","","","Drizzle,Fog"
"-79.40","43.63","TORONTO ISLAND A","6158665","1992-11-24 10:00","1992","11","24","10:00","","4.7","","4.1","","96","","9","","28","","14.5","","101.22","","","","","","Drizzle"
"-79.40","43.63","TORONTO ISLAND A","6158665","1992-11-24 11:00","1992","11","24","11:00","","4.8","","3.6","","92","","10","","31","","16.1","","101.26","","","","","","Drizzle"
"-79.40","43.63","TORONTO ISLAND A","6158665","1992-11-24 12:00","1992","11","24","12:00","","4.9","","4.3","","96","","9","","30","","12.9","","101.22","","","","","","Drizzle"
"-79.40","43.63","TORONTO ISLAND A","6158665","1992-11-24 13:00","1992","11","24","13:00","","4.6","","4.4","","98","","8","","24","","4.0","","101.15","","","","","","Drizzle,Fog"
"-79.40","43.63","TORONTO ISLAND A","6158665","1992-11-24 14:00","1992","11","24","14:00","","4.6","","4.5","","99","","7","","22","","4.8","","101.12","","","","","","Drizzle,Fog"
"-79.40","43.63","TORONTO ISLAND A","6158665","1992-11-24 15:00","1992","11","24","15:00","","4.8","","4.6","","99","","8","","26","","12.9","","101.12","","","","","","Drizzle"
"-79.40","43.63","TORONTO ISLAND A","6158665","1992-11-24 16:00","1992","11","24","16:00","","4.8","","4.6","","99","","9","","31","","11.3","","101.09","","","","","","Drizzle"
"-79.40","43.63","TORONTO ISLAND A","6158665","1992-11-24 17:00","1992","11","24","17:00","","4.9","","4.7","","99","","8","","22","","9.7","","101.05","","","","","","Drizzle,Fog"
"-79.40","43.63","TORONTO ISLAND A","6158665","1992-11-24 18:00","1992","11","24","18:00","","5.0","","4.9","","99","","8","","28","","19.3","","101.02","","","","","","Cloudy"
"-79.40","43.63","TORONTO ISLAND A","6158665","1992-11-24 19:00","1992","11","24","19:00","","5.0","","4.7","","98","","7","","30","","19.3","","100.92","","","","","","Cloudy"
"-79.40","43.63","TORONTO ISLAND A","6158665","1992-11-24 20:00","1992","11","24","20:00","","5.1","","4.6","","97","","7","","28","","16.1","","100.95","","","","","","Cloudy"
"-79.40","43.63","TORONTO ISLAND A","6158665","1992-11-24 21:00","1992","11","24","21:00","","5.1","","4.7","","97","","7","","30","","16.1","","100.89","","","","","","Drizzle"
"-79.40","43.63","TORONTO ISLAND A","6158665","1992-11-24 22:00","1992","11","24","22:00","","5.2","","4.5","","95","","7","","22","","16.1","","100.92","","","","","","Cloudy"
"-79.40","43.63","TORONTO ISLAND A","6158665","1992-11-24 23:00","1992","11","24","23:00"
"-79.40","43.63","TORONTO ISLAND A","6158665","1992-11-25 00:00","1992","11","25","00:00"
"-79.40","43.63","TORONTO ISLAND A","6158665","1992-11-25 01:00","1992","11","25","01:00"
"-79.40","43.63","TORONTO ISLAND A","6158665","1992-11-25 02:00","1992","11","25","02:00"
"-79.40","43.63","TORONTO ISLAND A","6158665","1992-11-25 03:00","1992","11","25","03:00"
"-79.40","43.63","TORONTO ISLAND A","6158665","1992-11-25 04:00","1992","11","25","04:00"
"-79.40","43.63","TORONTO ISLAND A","6158665","1992-11-25 05:00","1992","11","25","05:00"
"-79.40","43.63","TORONTO ISLAND A","6158665","1992-11-25 06:00","1992","11","25","06:00"
"-79.40","43.63","TORONTO ISLAND A","6158665","1992-11-25 07:00","1992","11","25","07:00","","6.1","","6.1","","100","","","","0","","9.7","","100.82","","","","","","Fog"
"-79.40","43.63","TORONTO ISLAND A","6158665","1992-11-25 08:00","1992","11","25","08:00","","5.4","","5.4","","100","","33","","11","","3.6","","100.89","","","","","","Fog"
"-79.40","43.63","TORONTO ISLAND A","6158665","1992-11-25 09:00","1992","11","25","09:00","","5.7","","5.7","","100","","32","","7","","2.8","","100.95","","","","","","Fog"
"-79.40","43.63","TORONTO ISLAND A","6158665","1992-11-25 10:00","1992","11","25","10:00","","6.0","","5.9","","99","","30","","9","","4.0","","101.05","","","","","","Fog"
"-79.40","43.63","TORONTO ISLAND A","6158665","1992-11-25 11:00","1992","11","25","11:00","","6.3","","6.1","","99","","","","0","","4.8","","101.09","","","","","","Fog"
"-79.40","43.63","TORONTO ISLAND A","6158665","1992-11-25 12:00","1992","11","25","12:00","","7.1","","6.3","","94","","24","","6","","4.8","","101.02","","","","","","Fog"
"-79.40","43.63","TORONTO ISLAND A","6158665","1992-11-25 13:00","1992","11","25","13:00","","6.6","","6.0","","96","","17","","7","","4.8","","100.95","","","","","","Fog"
"-79.40","43.63","TORONTO ISLAND A","6158665","1992-11-25 14:00","1992","11","25","14:00","","6.4","","6.2","","99","","14","","7","","2.8","","100.92","","","","","","Fog"
"-79.40","43.63","TORONTO ISLAND A","6158665","1992-11-25 15:00","1992","11","25","15:00","","5.7","","5.7","","100","","16","","4","","1.6","","100.99","","","","","","Fog"
"-79.40","43.63","TORONTO ISLAND A","6158665","1992-11-25 16:00","1992","11","25","16:00","","5.7","","5.7","","100","","11","","6","","1.6","","100.99","","","","","","Fog"
"-79.40","43.63","TORONTO ISLAND A","6158665","1992-11-25 17:00","1992","11","25","17:00","","5.4","","5.4","","100","","9","","9","","2.4","","100.95","","","","","","Fog"
"-79.40","43.63","TORONTO ISLAND A","6158665","1992-11-25 18:00","1992","11","25","18:00","","5.3","","5.3","","100","","8","","15","","1.2","","100.92","","","","","","Fog"
"-79.40","43.63","TORONTO ISLAND A","6158665","1992-11-25 19:00","1992","11","25","19:00","","5.5","","5.5","","100","","8","","20","","3.2","","100.85","","","","","","Fog"
"-79.40","43.63","TORONTO ISLAND A","6158665","1992-11-25 20:00","1992","11","25","20:00","","5.6","","5.6","","100","","8","","24","","1.6","","100.79","","","","","","Fog"
"-79.40","43.63","TORONTO ISLAND A","6158665","1992-11-25 21:00","1992","11","25","21:00","","5.6","","5.6","","100","","8","","30","","1.2","","100.72","","","","","","Drizzle,Fog"
"-79.40","43.63","TORONTO ISLAND A","6158665","1992-11-25 22:00","1992","11","25","22:00","","5.8","","5.8","","100","","8","","28","","0.8","","100.68","","","","","","Drizzle,Fog"
"-79.40","43.63","TORONTO ISLAND A","6158665","1992-11-25 23:00","1992","11","25","23:00","","","","","","","","8","","24","","","","","","","","","","NA"
"-79.40","43.63","TORONTO ISLAND A","6158665","1992-11-26 00:00","1992","11","26","00:00","","","","","","","","8","","24","","","","","","","","","","NA"
"-79.40","43.63","TORONTO ISLAND A","6158665","1992-11-26 01:00","1992","11","26","01:00","","","","","","","","8","","26","","","","","","","","","","NA"
"-79.40","43.63","TORONTO ISLAND A","6158665","1992-11-26 02:00","1992","11","26","02:00","","","","","","","","7","","22","","","","","","","","","","NA"
"-79.40","43.63","TORONTO ISLAND A","6158665","1992-11-26 03:00","1992","11","26","03:00","","","","","","","","7","","22","","","","","","","","","","NA"
"-79.40","43.63","TORONTO ISLAND A","6158665","1992-11-26 04:00","1992","11","26","04:00","","","","","","","","7","","15","","","","","","","","","","NA"
"-79.40","43.63","TORONTO ISLAND A","6158665","1992-11-26 05:00","1992","11","26","05:00","","","","","","","","8","","9","","","","","","","","","","NA"
"-79.40","43.63","TORONTO ISLAND A","6158665","1992-11-26 06:00","1992","11","26","06:00","","","","","","","","8","","7","","","","","","","","","","NA"
"-79.40","43.63","TORONTO ISLAND A","6158665","1992-11-26 07:00","1992","11","26","07:00","","6.4","","6.4","","100","","9","","9","","2.8","","100.28","","","","","","Fog"
"-79.40","43.63","TORONTO ISLAND A","6158665","1992-11-26 08:00","1992","11","26","08:00","","6.4","","6.4","","100","","","","0","","2.8","","100.28","","","","","","Drizzle,Fog"
"-79.40","43.63","TORONTO ISLAND A","6158665","1992-11-26 09:00","1992","11","26","09:00","","6.4","","6.4","","100","","","","0","","2.4","","100.21","","","","","","Fog"
"-79.40","43.63","TORONTO ISLAND A","6158665","1992-11-26 10:00","1992","11","26","10:00","","6.5","","6.5","","100","","16","","7","","0.6","","100.25","","","","","","Fog"
"-79.40","43.63","TORONTO ISLAND A","6158665","1992-11-26 11:00","1992","11","26","11:00","","7.1","","7.1","","100","","","","0","","3.2","","100.21","","","","","","Fog"
"-79.40","43.63","TORONTO ISLAND A","6158665","1992-11-26 12:00","1992","11","26","12:00","","7.9","","7.9","","100","","22","","6","","6.4","","100.18","","","","","","Fog"
"-79.40","43.63","TORONTO ISLAND A","6158665","1992-11-26 13:00","1992","11","26","13:00","","9.2","","5.4","","77","","23","","33","","24.1","","100.11","","","","","","Mostly Cloudy"
"-79.40","43.63","TORONTO ISLAND A","6158665","1992-11-26 14:00","1992","11","26","14:00","","9.2","","4.8","","74","","24","","37","","19.3","","100.11","","","","","","Mostly Cloudy"
"-79.40","43.63","TORONTO ISLAND A","6158665","1992-11-26 15:00","1992","11","26","15:00","","7.9","","4.1","","77","","24","","37","","16.1","","100.18","","","","","","Mostly Cloudy"
"-79.40","43.63","TORONTO ISLAND A","6158665","1992-11-26 16:00","1992","11","26","16:00","","7.5","","3.4","","75","","25","","28","","16.1","","100.21","","","","","","Cloudy"
"-79.40","43.63","TORONTO ISLAND A","6158665","1992-11-26 17:00","1992","11","26","17:00","","6.9","","3.7","","80","","25","","28","","24.1","","100.28","","","","","","Cloudy"
"-79.40","43.63","TORONTO ISLAND A","6158665","1992-11-26 18:00","1992","11","26","18:00","","6.6","","4.4","","86","","24","","22","","24.1","","100.31","","","","","","Cloudy"
"-79.40","43.63","TORONTO ISLAND A","6158665","1992-11-26 19:00","1992","11","26","19:00","","6.6","","4.3","","85","","24","","22","","24.1","","100.31","","","","","","Cloudy"
"-79.40","43.63","TORONTO ISLAND A","6158665","1992-11-26 20:00","1992","11","26","20:00","","6.5","","4.0","","84","","24","","26","","24.1","","100.31","","","","","","Cloudy"
"-79.40","43.63","TORONTO ISLAND A","6158665","1992-11-26 21:00","1992","11","26","21:00","","6.3","","4.3","","87","","23","","30","","24.1","","100.28","","","","","","Cloudy"
"-79.40","43.63","TORONTO ISLAND A","6158665","1992-11-26 22:00","1992","11","26","22:00","","6.2","","3.6","","83","","24","","33","","24.1","","100.31","","","","","","Cloudy"
"-79.40","43.63","TORONTO ISLAND A","6158665","1992-11-26 23:00","1992","11","26","23:00","","","","","","","","24","","30","","","","","","","","","","NA"
"-79.40","43.63","TORONTO ISLAND A","6158665","1992-11-27 00:00","1992","11","27","00:00","","","","","","","","25","","43","","","","","","","","","","NA"
"-79.40","43.63","TORONTO ISLAND A","6158665","1992-11-27 01:00","1992","11","27","01:00"
"-79.40","43.63","TORONTO ISLAND A","6158665","1992-11-27 02:00","1992","11","27","02:00"
"-79.40","43.63","TORONTO ISLAND A","6158665","1992-11-27 03:00","1992","11","27","03:00"
"-79.40","43.63","TORONTO ISLAND A","6158665","1992-11-27 04:00","1992","11","27","04:00"
"-79.40","43.63","TORONTO ISLAND A","6158665","1992-11-27 05:00","1992","11","27","05:00"
"-79.40","43.63","TORONTO ISLAND A","6158665","1992-11-27 06:00","1992","11","27","06:00"
"-79.40","43.63","TORONTO ISLAND A","6158665","1992-11-27 07:00","1992","11","27","07:00","","4.5","","1.8","","82","","25","","22","","25.0","","100.68","","","","","","Mostly Cloudy"
"-79.40","43.63","TORONTO ISLAND A","6158665","1992-11-27 08:00","1992","11","27","08:00","","4.7","","1.6","","80","","27","","20","","24.1","","100.75","","","","","","Cloudy"
"-79.40","43.63","TORONTO ISLAND A","6158665","1992-11-27 09:00","1992","11","27","09:00","","4.8","","1.9","","82","","26","","24","","24.1","","100.79","","","","","","Cloudy"
"-79.40","43.63","TORONTO ISLAND A","6158665","1992-11-27 10:00","1992","11","27","10:00","","5.1","","2.0","","80","","26","","15","","24.1","","100.82","","","","","","Cloudy"
"-79.40","43.63","TORONTO ISLAND A","6158665","1992-11-27 11:00","1992","11","27","11:00","","5.6","","2.3","","79","","26","","17","","24.1","","100.82","","","","","","Cloudy"
"-79.40","43.63","TORONTO ISLAND A","6158665","1992-11-27 12:00","1992","11","27","12:00","","5.8","","1.7","","75","","31","","19","","24.1","","100.75","","","","","","Cloudy"
"-79.40","43.63","TORONTO ISLAND A","6158665","1992-11-27 13:00","1992","11","27","13:00","","6.0","","1.8","","74","","30","","15","","24.1","","100.72","","","","","","Cloudy"
"-79.40","43.63","TORONTO ISLAND A","6158665","1992-11-27 14:00","1992","11","27","14:00","","6.0","","2.1","","76","","27","","9","","24.1","","100.75","","","","","","Cloudy"
"-79.40","43.63","TORONTO ISLAND A","6158665","1992-11-27 15:00","1992","11","27","15:00","","6.0","","2.3","","77","","29","","11","","24.1","","100.75","","","","","","Cloudy"
"-79.40","43.63","TORONTO ISLAND A","6158665","1992-11-27 16:00","1992","11","27","16:00","","5.9","","2.0","","76","","29","","15","","24.1","","100.82","","","","","","Cloudy"
"-79.40","43.63","TORONTO ISLAND A","6158665","1992-11-27 17:00","1992","11","27","17:00","","5.6","","1.9","","77","","27","","9","","24.1","","100.85","","","","","","Cloudy"
"-79.40","43.63","TORONTO ISLAND A","6158665","1992-11-27 18:00","1992","11","27","18:00","","5.7","","1.8","","76","","28","","7","","24.1","","100.82","","","","","","Cloudy"
"-79.40","43.63","TORONTO ISLAND A","6158665","1992-11-27 19:00","1992","11","27","19:00","","5.5","","2.5","","81","","27","","9","","24.1","","100.85","","","","","","Cloudy"
"-79.40","43.63","TORONTO ISLAND A","6158665","1992-11-27 20:00","1992","11","27","20:00","","5.5","","2.0","","78","","33","","9","","24.1","","100.92","","","","","","Cloudy"
"-79.40","43.63","TORONTO ISLAND A","6158665","1992-11-27 21:00","1992","11","27","21:00","","5.2","","2.6","","83","","30","","9","","24.1","","100.89","","","","","","Cloudy"
"-79.40","43.63","TORONTO ISLAND A","6158665","1992-11-27 22:00","1992","11","27","22:00","","5.1","","2.6","","84","","33","","7","","24.1","","100.85","","","","","","Cloudy"
"-79.40","43.63","TORONTO ISLAND A","6158665","1992-11-27 23:00","1992","11","27","23:00","","","","","","","","31","","9","","","","","","","","","","NA"
"-79.40","43.63","TORONTO ISLAND A","6158665","1992-11-28 00:00","1992","11","28","00:00","","","","","","","","31","","7","","","","","","","","","","NA"
"-79.40","43.63","TORONTO ISLAND A","6158665","1992-11-28 01:00","1992","11","28","01:00","","","","","","","","32","","11","","","","","","","","","","NA"
"-79.40","43.63","TORONTO ISLAND A","6158665","1992-11-28 02:00","1992","11","28","02:00","","","","","","","","34","","9","","","","","","","","","","NA"
"-79.40","43.63","TORONTO ISLAND A","6158665","1992-11-28 03:00","1992","11","28","03:00","","","","","","","","34","","7","","","","","","","","","","NA"
"-79.40","43.63","TORONTO ISLAND A","6158665","1992-11-28 04:00","1992","11","28","04:00","","","","","","","","31","","7","","","","","","","","","","NA"
"-79.40","43.63","TORONTO ISLAND A","6158665","1992-11-28 05:00","1992","11","28","05:00","","","","","","","","30","","11","","","","","","","","","","NA"
"-79.40","43.63","TORONTO ISLAND A","6158665","1992-11-28 06:00","1992","11","28","06:00","","","","","","","","31","","7","","","","","","","","","","NA"
"-79.40","43.63","TORONTO ISLAND A","6158665","1992-11-28 07:00","1992","11","28","07:00","","4.0","","1.7","","85","","36","","7","","25.0","","100.85","","","","","","Cloudy"
"-79.40","43.63","TORONTO ISLAND A","6158665","1992-11-28 08:00","1992","11","28","08:00","","3.9","","0.7","","80","","34","","11","","24.1","","100.85","","","","","","Mostly Cloudy"
"-79.40","43.63","TORONTO ISLAND A","6158665","1992-11-28 09:00","1992","11","28","09:00","","4.0","","0.5","","78","","34","","4","","19.3","","100.92","","","","","","Cloudy"
"-79.40","43.63","TORONTO ISLAND A","6158665","1992-11-28 10:00","1992","11","28","10:00","","4.3","","0.1","","74","","33","","6","","24.1","","100.95","","","","","","Cloudy"
"-79.40","43.63","TORONTO ISLAND A","6158665","1992-11-28 11:00","1992","11","28","11:00","","4.6","","-1.1","","66","","33","","6","","24.1","","100.92","","","","","","Cloudy"
"-79.40","43.63","TORONTO ISLAND A","6158665","1992-11-28 12:00","1992","11","28","12:00","","4.6","","-1.5","","64","","28","","7","","25.0","","100.89","","","","","","Cloudy"
"-79.40","43.63","TORONTO ISLAND A","6158665","1992-11-28 13:00","1992","11","28","13:00","","4.7","","-1.2","","65","","","","0","","25.0","","100.85","","","","","","Cloudy"
"-79.40","43.63","TORONTO ISLAND A","6158665","1992-11-28 14:00","1992","11","28","14:00","","4.6","","-0.8","","68","","21","","11","","25.0","","100.82","","","","","","Cloudy"
"-79.40","43.63","TORONTO ISLAND A","6158665","1992-11-28 15:00","1992","11","28","15:00","","4.5","","0.9","","77","","22","","19","","24.1","","100.75","","","","","","Cloudy"
"-79.40","43.63","TORONTO ISLAND A","6158665","1992-11-28 16:00","1992","11","28","16:00","","4.4","","0.6","","76","","23","","19","","19.3","","100.75","","","","","","Cloudy"
"-79.40","43.63","TORONTO ISLAND A","6158665","1992-11-28 17:00","1992","11","28","17:00","","4.4","","2.1","","85","","23","","22","","19.3","","100.75","","","","","","Cloudy"
"-79.40","43.63","TORONTO ISLAND A","6158665","1992-11-28 18:00","1992","11","28","18:00","","4.5","","2.0","","84","","24","","15","","19.3","","100.75","","","","","","Cloudy"
"-79.40","43.63","TORONTO ISLAND A","6158665","1992-11-28 19:00","1992","11","28","19:00","","4.3","","2.5","","88","","25","","19","","19.3","","100.75","","","","","","Mostly Cloudy"
"-79.40","43.63","TORONTO ISLAND A","6158665","1992-11-28 20:00","1992","11","28","20:00","","4.2","","2.3","","87","","27","","9","","19.3","","100.79","","","","","","Cloudy"
"-79.40","43.63","TORONTO ISLAND A","6158665","1992-11-28 21:00","1992","11","28","21:00","","4.4","","0.4","","75","","28","","15","","19.3","","100.79","","","","","","Cloudy"
"-79.40","43.63","TORONTO ISLAND A","6158665","1992-11-28 22:00","1992","11","28","22:00","","4.0","","-0.6","","72","","26","","9","","19.3","","100.82","","","","","","Cloudy"
"-79.40","43.63","TORONTO ISLAND A","6158665","1992-11-28 23:00","1992","11","28","23:00","","","","","","","","25","","11","","","","","","","","","","NA"
"-79.40","43.63","TORONTO ISLAND A","6158665","1992-11-29 00:00","1992","11","29","00:00","","","","","","","","25","","19","","","","","","","","","","NA"
"-79.40","43.63","TORONTO ISLAND A","6158665","1992-11-29 01:00","1992","11","29","01:00","","","","","","","","25","","13","","","","","","","","","","NA"
"-79.40","43.63","TORONTO ISLAND A","6158665","1992-11-29 02:00","1992","11","29","02:00","","","","","","","","25","","13","","","","","","","","","","NA"
"-79.40","43.63","TORONTO ISLAND A","6158665","1992-11-29 03:00","1992","11","29","03:00","","","","","","","","26","","19","","","","","","","","","","NA"
"-79.40","43.63","TORONTO ISLAND A","6158665","1992-11-29 04:00","1992","11","29","04:00","","","","","","","","27","","24","","","","","","","","","","NA"
"-79.40","43.63","TORONTO ISLAND A","6158665","1992-11-29 05:00","1992","11","29","05:00","","","","","","","","26","","26","","","","","","","","","","NA"
"-79.40","43.63","TORONTO ISLAND A","6158665","1992-11-29 06:00","1992","11","29","06:00","","","","","","","","25","","26","","","","","","","","","","NA"
"-79.40","43.63","TORONTO ISLAND A","6158665","1992-11-29 07:00","1992","11","29","07:00","","3.6","","-2.4","","65","","26","","28","","25.0","","100.72","","","","","","Cloudy"
"-79.40","43.63","TORONTO ISLAND A","6158665","1992-11-29 08:00","1992","11","29","08:00","","3.3","","-1.8","","69","","24","","26","","24.1","","100.72","","","","","","Cloudy"
"-79.40","43.63","TORONTO ISLAND A","6158665","1992-11-29 09:00","1992","11","29","09:00","","3.5","","-1.6","","69","","24","","24","","24.1","","100.72","","","","","","Mostly Cloudy"
"-79.40","43.63","TORONTO ISLAND A","6158665","1992-11-29 10:00","1992","11","29","10:00","","3.2","","-2.1","","68","","25","","31","","19.3","","100.72","","","","","","Cloudy"
"-79.40","43.63","TORONTO ISLAND A","6158665","1992-11-29 11:00","1992","11","29","11:00","","3.4","","-1.2","","72","","24","","30","","16.1","","100.72","","","","","","Cloudy"
"-79.40","43.63","TORONTO ISLAND A","6158665","1992-11-29 12:00","1992","11","29","12:00","","3.3","","-1.3","","72","","24","","30","","12.9","","100.68","","","","","","Cloudy"
"-79.40","43.63","TORONTO ISLAND A","6158665","1992-11-29 13:00","1992","11","29","13:00","","3.3","","-0.9","","74","","25","","30","","12.9","","100.68","","","","","","Cloudy"
"-79.40","43.63","TORONTO ISLAND A","6158665","1992-11-29 14:00","1992","11","29","14:00","","3.4","","-0.9","","73","","25","","26","","12.9","","100.62","","","","","","Cloudy"
"-79.40","43.63","TORONTO ISLAND A","6158665","1992-11-29 15:00","1992","11","29","15:00","","3.3","","-1.1","","73","","25","","26","","12.9","","100.58","","","","","","Cloudy"
"-79.40","43.63","TORONTO ISLAND A","6158665","1992-11-29 16:00","1992","11","29","16:00","","3.2","","-1.7","","70","","26","","26","","14.5","","100.58","","","","","","Cloudy"
"-79.40","43.63","TORONTO ISLAND A","6158665","1992-11-29 17:00","1992","11","29","17:00","","2.9","","-2.1","","70","","25","","30","","12.9","","100.58","","","","","","Mostly Cloudy"
"-79.40","43.63","TORONTO ISLAND A","6158665","1992-11-29 18:00","1992","11","29","18:00","","3.1","","-1.4","","72","","25","","26","","14.5","","100.58","","","","","","Cloudy"
"-79.40","43.63","TORONTO ISLAND A","6158665","1992-11-29 19:00","1992","11","29","19:00","","3.1","","-1.6","","71","","26","","26","","16.1","","100.58","","","","","","Mostly Cloudy"
"-79.40","43.63","TORONTO ISLAND A","6158665","1992-11-29 20:00","1992","11","29","20:00","","3.0","","-1.8","","71","","25","","30","","16.1","","100.58","","","","","","Cloudy"
"-79.40","43.63","TORONTO ISLAND A","6158665","1992-11-29 21:00","1992","11","29","21:00","","2.7","","-1.2","","75","","24","","30","","19.3","","100.58","","","","","","Mostly Cloudy"
"-79.40","43.63","TORONTO ISLAND A","6158665","1992-11-29 22:00","1992","11","29","22:00","","2.6","","-1.0","","77","","25","","33","","16.1","","100.55","","","","","","Mainly Clear"
"-79.40","43.63","TORONTO ISLAND A","6158665","1992-11-29 23:00","1992","11","29","23:00","","","","","","","","24","","31","","","","","","","","","","NA"
"-79.40","43.63","TORONTO ISLAND A","6158665","1992-11-30 00:00","1992","11","30","00:00","","","","","","","","24","","37","","","","","","","","","","NA"
"-79.40","43.63","TORONTO ISLAND A","6158665","1992-11-30 01:00","1992","11","30","01:00","","","","","","","","25","","26","","","","","","","","","","NA"
"-79.40","43.63","TORONTO ISLAND A","6158665","1992-11-30 02:00","1992","11","30","02:00","","","","","","","","26","","26","","","","","","","","","","NA"
"-79.40","43.63","TORONTO ISLAND A","6158665","1992-11-30 03:00","1992","11","30","03:00","","","","","","","","25","","30","","","","","","","","","","NA"
"-79.40","43.63","TORONTO ISLAND A","6158665","1992-11-30 04:00","1992","11","30","04:00","","","","","","","","25","","26","","","","","","","","","","NA"
"-79.40","43.63","TORONTO ISLAND A","6158665","1992-11-30 05:00","1992","11","30","05:00","","","","","","","","25","","26","","","","","","","","","","NA"
"-79.40","43.63","TORONTO ISLAND A","6158665","1992-11-30 06:00","1992","11","30","06:00","","","","","","","","25","","30","","","","","","","","","","NA"
"-79.40","43.63","TORONTO ISLAND A","6158665","1992-11-30 07:00","1992","11","30","07:00","","2.6","","0.6","","87","","25","","17","","16.1","","100.28","","","","","","Mostly Cloudy"
"-79.40","43.63","TORONTO ISLAND A","6158665","1992-11-30 08:00","1992","11","30","08:00","","2.9","","1.2","","89","","25","","19","","8.0","","100.28","","","","","","Fog"
"-79.40","43.63","TORONTO ISLAND A","6158665","1992-11-30 09:00","1992","11","30","09:00","","3.3","","1.3","","87","","24","","22","","8.0","","100.25","","","","","","Fog"
"-79.40","43.63","TORONTO ISLAND A","6158665","1992-11-30 10:00","1992","11","30","10:00","","3.7","","1.7","","87","","24","","26","","8.0","","100.21","","","","","","Fog"
"-79.40","43.63","TORONTO ISLAND A","6158665","1992-11-30 11:00","1992","11","30","11:00","","4.3","","1.7","","83","","25","","17","","8.0","","100.18","","","","","","Haze"
"-79.40","43.63","TORONTO ISLAND A","6158665","1992-11-30 12:00","1992","11","30","12:00","","4.8","","1.6","","80","","25","","24","","8.0","","100.11","","","","","","Haze"
"-79.40","43.63","TORONTO ISLAND A","6158665","1992-11-30 13:00","1992","11","30","13:00","","4.6","","1.2","","79","","25","","28","","11.3","","100.01","","","","","","Cloudy"
"-79.40","43.63","TORONTO ISLAND A","6158665","1992-11-30 14:00","1992","11","30","14:00","","4.4","","1.0","","79","","25","","28","","11.3","","100.01","","","","","","Cloudy"
"-79.40","43.63","TORONTO ISLAND A","6158665","1992-11-30 15:00","1992","11","30","15:00","","4.0","","1.1","","81","","26","","28","","9.7","","99.98","","","","","","Rain Showers,Haze"
"-79.40","43.63","TORONTO ISLAND A","6158665","1992-11-30 16:00","1992","11","30","16:00","","3.9","","1.1","","82","","25","","26","","9.7","","99.98","","","","","","Haze"
"-79.40","43.63","TORONTO ISLAND A","6158665","1992-11-30 17:00","1992","11","30","17:00","","4.0","","0.8","","79","","25","","26","","9.7","","99.98","","","","","","Haze"
"-79.40","43.63","TORONTO ISLAND A","6158665","1992-11-30 18:00","1992","11","30","18:00","","3.2","","1.8","","90","","26","","22","","8.0","","100.01","","","","","","Drizzle,Fog"
"-79.40","43.63","TORONTO ISLAND A","6158665","1992-11-30 19:00","1992","11","30","19:00","","3.0","","2.3","","95","","26","","19","","8.0","","100.01","","","","","","Drizzle,Fog"
"-79.40","43.63","TORONTO ISLAND A","6158665","1992-11-30 20:00","1992","11","30","20:00","","3.0","","1.0","","87","","26","","30","","16.1","","100.01","","","","","","Cloudy"
"-79.40","43.63","TORONTO ISLAND A","6158665","1992-11-30 21:00","1992","11","30","21:00","","2.7","","-0.3","","81","","28","","33","","24.1","","100.01","","","","","","Cloudy"
"-79.40","43.63","TORONTO ISLAND A","6158665","1992-11-30 22:00","1992","11","30","22:00","","2.4","","-0.9","","79","","28","","28","","24.1","","100.01","","","","","","Cloudy"
"-79.40","43.63","TORONTO ISLAND A","6158665","1992-11-30 23:00","1992","11","30","23:00","","","","","","","","26","","26","","","","","","","","","","NA"
