"Longitude (x)","Latitude (y)","Station Name","Climate ID","Date/Time (LST)","Year","Month","Day","Time (LST)","Flag","Temp (°C)","Temp Flag","Dew Point Temp (°C)","Dew Point Temp Flag","Rel Hum (%)","Rel Hum Flag","Wind Dir (10s deg)","Wind Dir Flag","Wind Spd (km/h)","Wind Spd Flag","Visibility (km)","Visibility Flag","Stn Press (kPa)","Stn Press Flag","Hmdx","Hmdx Flag","Wind Chill","Wind Chill Flag","Weather"
"-79.40","43.63","TORONTO ISLAND A","6158665","1993-04-01 00:00","1993","04","01","00:00","","","","","","","","34","","11","","","","","","","","","","NA"
"-79.40","43.63","TORONTO ISLAND A","6158665","1993-04-01 01:00","1993","04","01","01:00","","","","","","","","34","","19","","","","","","","","","","NA"
"-79.40","43.63","TORONTO ISLAND A","6158665","1993-04-01 02:00","1993","04","01","02:00","","","","","","","","","","","","","","","","","","","","NA"
"-79.40","43.63","TORONTO ISLAND A","6158665","1993-04-01 03:00","1993","04","01","03:00","","","","","","","","","","","","","","","","","","","","NA"
"-79.40","43.63","TORONTO ISLAND A","6158665","1993-04-01 04:00","1993","04","01","04:00","","","","","","","","","","","","","","","","","","","","NA"
"-79.40","43.63","TORONTO ISLAND A","6158665","1993-04-01 05:00","1993","04","01","05:00","","","","","","","","","","","","","","","","","","","","NA"
"-79.40","43.63","TORONTO ISLAND A","6158665","1993-04-01 06:00","1993","04","01","06:00","","","","","","","","","","","","","","","","","","","","NA"
"-79.40","43.63","TORONTO ISLAND A","6158665","1993-04-01 07:00","1993","04","01","07:00","","0.6","","-1.0","","89","","7","","26","","8.0","","99.54","","","","","","Rain,Fog"
"-79.40","43.63","TORONTO ISLAND A","6158665","1993-04-01 08:00","1993","04","01","08:00","","0.5","","-1.0","","90","","7","","31","","6.4","","99.47","","","","","","Rain,Fog"
"-79.40","43.63","TORONTO ISLAND A","6158665","1993-04-01 09:00","1993","04","01","09:00","","0.3","","-1.1","","90","","7","","28","","4.8","","99.44","","","","","","Rain,Fog"
"-79.40","43.63","TORONTO ISLAND A","6158665","1993-04-01 10:00","1993","04","01","10:00","","0.4","","-1.1","","90","","7","","37","","11.3","","99.44","","","","","","Rain"
"-79.40","43.63","TORONTO ISLAND A","6158665","1993-04-01 11:00","1993","04","01","11:00","","0.7","","-0.9","","89","","7","","35","","12.9","","99.37","","","","","","Rain"
"-79.40","43.63","TORONTO ISLAND A","6158665","1993-04-01 12:00","1993","04","01","12:00","","0.7","","-0.8","","90","","7","","37","","6.4","","99.37","","","","","","Rain,Fog"
"-79.40","43.63","TORONTO ISLAND A","6158665","1993-04-01 13:00","1993","04","01","13:00","","1.0","","-0.5","","90","","7","","37","","4.8","","99.37","","","","","","Rain,Fog"
"-79.40","43.63","TORONTO ISLAND A","6158665","1993-04-01 14:00","1993","04","01","14:00","","1.2","","-0.2","","90","","7","","33","","4.8","","99.31","","","","","","Drizzle,Fog"
"-79.40","43.63","TORONTO ISLAND A","6158665","1993-04-01 15:00","1993","04","01","15:00","","1.3","","-0.1","","90","","7","","30","","2.4","","99.27","","","","","","Rain,Fog"
"-79.40","43.63","TORONTO ISLAND A","6158665","1993-04-01 16:00","1993","04","01","16:00","","1.5","","-0.1","","89","","7","","22","","6.4","","99.34","","","","","","Rain,Fog"
"-79.40","43.63","TORONTO ISLAND A","6158665","1993-04-01 17:00","1993","04","01","17:00","","1.7","","0.2","","90","","5","","19","","2.4","","99.41","","","","","","Rain,Fog"
"-79.40","43.63","TORONTO ISLAND A","6158665","1993-04-01 18:00","1993","04","01","18:00","","1.8","","0.3","","90","","5","","19","","2.4","","99.44","","","","","","Rain,Fog"
"-79.40","43.63","TORONTO ISLAND A","6158665","1993-04-01 19:00","1993","04","01","19:00","","1.5","","0.0","","90","","5","","19","","2.4","","99.44","","","","","","Drizzle,Fog"
"-79.40","43.63","TORONTO ISLAND A","6158665","1993-04-01 20:00","1993","04","01","20:00","","1.5","","0.0","","90","","5","","28","","3.2","","99.54","","","","","","Drizzle,Fog"
"-79.40","43.63","TORONTO ISLAND A","6158665","1993-04-01 21:00","1993","04","01","21:00","","1.2","","-0.2","","90","","5","","22","","2.4","","99.54","","","","","","Drizzle,Fog"
"-79.40","43.63","TORONTO ISLAND A","6158665","1993-04-01 22:00","1993","04","01","22:00","","1.1","","-0.4","","90","","6","","22","","6.4","","99.54","","","","","","Drizzle,Fog"
"-79.40","43.63","TORONTO ISLAND A","6158665","1993-04-01 23:00","1993","04","01","23:00","","","","","","","","17","","19","","","","","","","","","","NA"
"-79.40","43.63","TORONTO ISLAND A","6158665","1993-04-02 00:00","1993","04","02","00:00","","","","","","","","17","","19","","","","","","","","","","NA"
"-79.40","43.63","TORONTO ISLAND A","6158665","1993-04-02 01:00","1993","04","02","01:00","","","","","","","","17","","19","","","","","","","","","","NA"
"-79.40","43.63","TORONTO ISLAND A","6158665","1993-04-02 02:00","1993","04","02","02:00","","","","","","","","7","","19","","","","","","","","","","NA"
"-79.40","43.63","TORONTO ISLAND A","6158665","1993-04-02 03:00","1993","04","02","03:00","","","","","","","","5","","19","","","","","","","","","","NA"
"-79.40","43.63","TORONTO ISLAND A","6158665","1993-04-02 04:00","1993","04","02","04:00","","","","","","","","6","","17","","","","","","","","","","NA"
"-79.40","43.63","TORONTO ISLAND A","6158665","1993-04-02 05:00","1993","04","02","05:00","","","","","","","","6","","15","","","","","","","","","","NA"
"-79.40","43.63","TORONTO ISLAND A","6158665","1993-04-02 06:00","1993","04","02","06:00","","","","","","","","9","","17","","","","","","","","","","NA"
"-79.40","43.63","TORONTO ISLAND A","6158665","1993-04-02 07:00","1993","04","02","07:00","","0.9","","-0.6","","90","","7","","17","","16.1","","99.64","","","","","","Rain"
"-79.40","43.63","TORONTO ISLAND A","6158665","1993-04-02 08:00","1993","04","02","08:00","","1.0","","-0.6","","89","","7","","17","","12.9","","99.68","","","","","","Rain"
"-79.40","43.63","TORONTO ISLAND A","6158665","1993-04-02 09:00","1993","04","02","09:00","","1.2","","-0.4","","89","","8","","17","","12.9","","99.71","","","","","","Rain"
"-79.40","43.63","TORONTO ISLAND A","6158665","1993-04-02 10:00","1993","04","02","10:00","","1.2","","-0.3","","90","","9","","15","","19.3","","99.78","","","","","","Rain"
"-79.40","43.63","TORONTO ISLAND A","6158665","1993-04-02 11:00","1993","04","02","11:00","","1.1","","-0.3","","90","","8","","13","","19.3","","99.78","","","","","","Drizzle"
"-79.40","43.63","TORONTO ISLAND A","6158665","1993-04-02 12:00","1993","04","02","12:00","","1.1","","-0.2","","91","","8","","11","","11.3","","99.81","","","","","","Cloudy"
"-79.40","43.63","TORONTO ISLAND A","6158665","1993-04-02 13:00","1993","04","02","13:00","","1.2","","0.1","","92","","9","","7","","6.4","","99.84","","","","","","Drizzle,Fog"
"-79.40","43.63","TORONTO ISLAND A","6158665","1993-04-02 14:00","1993","04","02","14:00","","1.2","","0.3","","93","","9","","9","","6.4","","99.84","","","","","","Drizzle,Fog"
"-79.40","43.63","TORONTO ISLAND A","6158665","1993-04-02 15:00","1993","04","02","15:00","","1.2","","0.4","","94","","8","","11","","4.0","","99.88","","","","","","Drizzle,Fog"
"-79.40","43.63","TORONTO ISLAND A","6158665","1993-04-02 16:00","1993","04","02","16:00","","1.0","","0.2","","95","","12","","11","","2.4","","99.94","","","","","","Drizzle,Fog"
"-79.40","43.63","TORONTO ISLAND A","6158665","1993-04-02 17:00","1993","04","02","17:00","","1.0","","0.3","","95","","11","","9","","2.0","","100.01","","","","","","Drizzle,Fog"
"-79.40","43.63","TORONTO ISLAND A","6158665","1993-04-02 18:00","1993","04","02","18:00","","1.1","","0.2","","94","","11","","9","","4.8","","100.08","","","","","","Drizzle,Fog"
"-79.40","43.63","TORONTO ISLAND A","6158665","1993-04-02 19:00","1993","04","02","19:00","","1.0","","0.2","","95","","12","","7","","2.4","","100.15","","","","","","Drizzle,Fog"
"-79.40","43.63","TORONTO ISLAND A","6158665","1993-04-02 20:00","1993","04","02","20:00","","0.9","","0.2","","95","","11","","9","","3.2","","100.21","","","","","","Drizzle,Snow,Fog"
"-79.40","43.63","TORONTO ISLAND A","6158665","1993-04-02 21:00","1993","04","02","21:00","","0.8","","0.1","","95","","11","","7","","12.9","","100.28","","","","","","Snow"
"-79.40","43.63","TORONTO ISLAND A","6158665","1993-04-02 22:00","1993","04","02","22:00","","0.9","","0.1","","95","","11","","7","","12.9","","100.28","","","","","","Snow"
"-79.40","43.63","TORONTO ISLAND A","6158665","1993-04-02 23:00","1993","04","02","23:00","","","","","","","","28","","17","","","","","","","","","","NA"
"-79.40","43.63","TORONTO ISLAND A","6158665","1993-04-03 00:00","1993","04","03","00:00","","","","","","","","28","","17","","","","","","","","","","NA"
"-79.40","43.63","TORONTO ISLAND A","6158665","1993-04-03 01:00","1993","04","03","01:00","","","","","","","","28","","17","","","","","","","","","","NA"
"-79.40","43.63","TORONTO ISLAND A","6158665","1993-04-03 02:00","1993","04","03","02:00","","","","","","","","28","","17","","","","","","","","","","NA"
"-79.40","43.63","TORONTO ISLAND A","6158665","1993-04-03 03:00","1993","04","03","03:00","","","","","","","","28","","15","","","","","","","","","","NA"
"-79.40","43.63","TORONTO ISLAND A","6158665","1993-04-03 04:00","1993","04","03","04:00","","","","","","","","27","","13","","","","","","","","","","NA"
"-79.40","43.63","TORONTO ISLAND A","6158665","1993-04-03 05:00","1993","04","03","05:00","","","","","","","","27","","9","","","","","","","","","","NA"
"-79.40","43.63","TORONTO ISLAND A","6158665","1993-04-03 06:00","1993","04","03","06:00","","","","","","","","27","","11","","","","","","","","","","NA"
"-79.40","43.63","TORONTO ISLAND A","6158665","1993-04-03 07:00","1993","04","03","07:00","","-0.1","","-3.0","","81","","27","","13","","25.0","","100.79","","","","-4","","Snow"
"-79.40","43.63","TORONTO ISLAND A","6158665","1993-04-03 08:00","1993","04","03","08:00","","0.2","","-3.1","","78","","27","","11","","25.0","","100.82","","","","","","Mostly Cloudy"
"-79.40","43.63","TORONTO ISLAND A","6158665","1993-04-03 09:00","1993","04","03","09:00","","1.1","","-2.2","","78","","26","","15","","25.0","","100.89","","","","","","Cloudy"
"-79.40","43.63","TORONTO ISLAND A","6158665","1993-04-03 10:00","1993","04","03","10:00","","0.8","","-3.3","","74","","28","","19","","25.0","","100.95","","","","","","Cloudy"
"-79.40","43.63","TORONTO ISLAND A","6158665","1993-04-03 11:00","1993","04","03","11:00","","1.1","","-3.9","","69","","28","","19","","25.0","","100.95","","","","","","Cloudy"
"-79.40","43.63","TORONTO ISLAND A","6158665","1993-04-03 12:00","1993","04","03","12:00","","1.4","","-4.3","","66","","28","","19","","25.0","","100.95","","","","","","Cloudy"
"-79.40","43.63","TORONTO ISLAND A","6158665","1993-04-03 13:00","1993","04","03","13:00","","1.6","","-3.6","","68","","28","","13","","25.0","","100.95","","","","","","Cloudy"
"-79.40","43.63","TORONTO ISLAND A","6158665","1993-04-03 14:00","1993","04","03","14:00","","2.2","","-5.1","","58","","28","","22","","25.0","","100.99","","","","","","Cloudy"
"-79.40","43.63","TORONTO ISLAND A","6158665","1993-04-03 15:00","1993","04","03","15:00","","2.3","","-4.9","","59","","27","","19","","25.0","","100.99","","","","","","Cloudy"
"-79.40","43.63","TORONTO ISLAND A","6158665","1993-04-03 16:00","1993","04","03","16:00","","2.3","","-4.5","","61","","28","","22","","25.0","","101.05","","","","","","Cloudy"
"-79.40","43.63","TORONTO ISLAND A","6158665","1993-04-03 17:00","1993","04","03","17:00","","2.3","","-4.5","","61","","27","","22","","25.0","","101.12","","","","","","Cloudy"
"-79.40","43.63","TORONTO ISLAND A","6158665","1993-04-03 18:00","1993","04","03","18:00","","1.8","","-3.3","","69","","26","","15","","19.3","","101.15","","","","","","Snow Showers"
"-79.40","43.63","TORONTO ISLAND A","6158665","1993-04-03 19:00","1993","04","03","19:00","","1.4","","-2.3","","76","","26","","19","","19.3","","101.26","","","","","","Snow Showers"
"-79.40","43.63","TORONTO ISLAND A","6158665","1993-04-03 20:00","1993","04","03","20:00","","1.3","","-3.0","","73","","28","","15","","24.1","","101.32","","","","","","Snow Showers"
"-79.40","43.63","TORONTO ISLAND A","6158665","1993-04-03 21:00","1993","04","03","21:00","","1.3","","-4.8","","64","","29","","15","","24.1","","101.39","","","","","","Cloudy"
"-79.40","43.63","TORONTO ISLAND A","6158665","1993-04-03 22:00","1993","04","03","22:00","","1.1","","-6.0","","59","","29","","19","","24.1","","101.36","","","","","","Cloudy"
"-79.40","43.63","TORONTO ISLAND A","6158665","1993-04-03 23:00","1993","04","03","23:00","","","","","","","","28","","22","","","","","","","","","","NA"
"-79.40","43.63","TORONTO ISLAND A","6158665","1993-04-04 00:00","1993","04","04","00:00","","","","","","","","27","","15","","","","","","","","","","NA"
"-79.40","43.63","TORONTO ISLAND A","6158665","1993-04-04 01:00","1993","04","04","01:00","","","","","","","","30","","17","","","","","","","","","","NA"
"-79.40","43.63","TORONTO ISLAND A","6158665","1993-04-04 02:00","1993","04","04","02:00","","","","","","","","29","","13","","","","","","","","","","NA"
"-79.40","43.63","TORONTO ISLAND A","6158665","1993-04-04 03:00","1993","04","04","03:00","","","","","","","","28","","13","","","","","","","","","","NA"
"-79.40","43.63","TORONTO ISLAND A","6158665","1993-04-04 04:00","1993","04","04","04:00","","","","","","","","29","","15","","","","","","","","","","NA"
"-79.40","43.63","TORONTO ISLAND A","6158665","1993-04-04 05:00","1993","04","04","05:00","","","","","","","","31","","17","","","","","","","","","","NA"
"-79.40","43.63","TORONTO ISLAND A","6158665","1993-04-04 06:00","1993","04","04","06:00","","0.7","","-2.4","","80","","29","","15","","16.1","","101.32","","","","","","Cloudy"
"-79.40","43.63","TORONTO ISLAND A","6158665","1993-04-04 07:00","1993","04","04","07:00","","0.8","","-1.8","","83","","28","","15","","8.0","","101.36","","","","","","Snow"
"-79.40","43.63","TORONTO ISLAND A","6158665","1993-04-04 08:00","1993","04","04","08:00","","1.9","","-1.2","","80","","30","","19","","16.1","","101.42","","","","","","Snow"
"-79.40","43.63","TORONTO ISLAND A","6158665","1993-04-04 09:00","1993","04","04","09:00","","2.6","","-1.1","","76","","31","","15","","25.0","","101.42","","","","","","Cloudy"
"-79.40","43.63","TORONTO ISLAND A","6158665","1993-04-04 10:00","1993","04","04","10:00","","3.5","","-1.0","","72","","30","","19","","25.0","","101.46","","","","","","Mostly Cloudy"
"-79.40","43.63","TORONTO ISLAND A","6158665","1993-04-04 11:00","1993","04","04","11:00","","4.0","","-0.7","","71","","30","","13","","25.0","","101.52","","","","","","Cloudy"
"-79.40","43.63","TORONTO ISLAND A","6158665","1993-04-04 12:00","1993","04","04","12:00","","4.8","","-0.9","","67","","30","","17","","25.0","","101.49","","","","","","Cloudy"
"-79.40","43.63","TORONTO ISLAND A","6158665","1993-04-04 13:00","1993","04","04","13:00","","4.1","","0.6","","78","","21","","13","","25.0","","101.52","","","","","","Mostly Cloudy"
"-79.40","43.63","TORONTO ISLAND A","6158665","1993-04-04 14:00","1993","04","04","14:00","","3.7","","0.4","","79","","20","","15","","25.0","","101.46","","","","","","Mostly Cloudy"
"-79.40","43.63","TORONTO ISLAND A","6158665","1993-04-04 15:00","1993","04","04","15:00","","3.8","","0.6","","80","","20","","19","","24.1","","101.46","","","","","","Mostly Cloudy"
"-79.40","43.63","TORONTO ISLAND A","6158665","1993-04-04 16:00","1993","04","04","16:00","","3.3","","0.1","","80","","21","","15","","24.1","","101.46","","","","","","Mostly Cloudy"
"-79.40","43.63","TORONTO ISLAND A","6158665","1993-04-04 17:00","1993","04","04","17:00","","3.3","","0.8","","84","","25","","7","","24.1","","101.52","","","","","","Mostly Cloudy"
"-79.40","43.63","TORONTO ISLAND A","6158665","1993-04-04 18:00","1993","04","04","18:00","","3.5","","0.7","","82","","","","0","","24.1","","101.52","","","","","","Mostly Cloudy"
"-79.40","43.63","TORONTO ISLAND A","6158665","1993-04-04 19:00","1993","04","04","19:00","","3.2","","0.3","","81","","","","0","","24.1","","101.56","","","","","","Mostly Cloudy"
"-79.40","43.63","TORONTO ISLAND A","6158665","1993-04-04 20:00","1993","04","04","20:00","","3.1","","0.1","","81","","","","0","","24.1","","101.56","","","","","","Mainly Clear"
"-79.40","43.63","TORONTO ISLAND A","6158665","1993-04-04 21:00","1993","04","04","21:00","","1.7","","-0.5","","85","","","","0","","24.1","","101.56","","","","","","Clear"
"-79.40","43.63","TORONTO ISLAND A","6158665","1993-04-04 22:00","1993","04","04","22:00","","","","","","","","","","0","","","","","","","","","","NA"
"-79.40","43.63","TORONTO ISLAND A","6158665","1993-04-04 23:00","1993","04","04","23:00","","","","","","","","","","0","","","","","","","","","","NA"
"-79.40","43.63","TORONTO ISLAND A","6158665","1993-04-05 00:00","1993","04","05","00:00","","","","","","","","","","0","","","","","","","","","","NA"
"-79.40","43.63","TORONTO ISLAND A","6158665","1993-04-05 01:00","1993","04","05","01:00","","","","","","","","","","0","","","","","","","","","","NA"
"-79.40","43.63","TORONTO ISLAND A","6158665","1993-04-05 02:00","1993","04","05","02:00","","","","","","","","","","0","","","","","","","","","","NA"
"-79.40","43.63","TORONTO ISLAND A","6158665","1993-04-05 03:00","1993","04","05","03:00","","","","","","","","7","","6","","","","","","","","","","NA"
"-79.40","43.63","TORONTO ISLAND A","6158665","1993-04-05 04:00","1993","04","05","04:00","","","","","","","","20","","7","","","","","","","","","","NA"
"-79.40","43.63","TORONTO ISLAND A","6158665","1993-04-05 05:00","1993","04","05","05:00","","","","","","","","9","","7","","","","","","","","","","NA"
"-79.40","43.63","TORONTO ISLAND A","6158665","1993-04-05 06:00","1993","04","05","06:00","","-0.3","","-1.5","","91","","","","0","","12.9","","101.56","","","","","","Mostly Cloudy"
"-79.40","43.63","TORONTO ISLAND A","6158665","1993-04-05 07:00","1993","04","05","07:00","","1.0","","-1.5","","83","","","","0","","14.5","","101.59","","","","","","Cloudy"
"-79.40","43.63","TORONTO ISLAND A","6158665","1993-04-05 08:00","1993","04","05","08:00","","3.7","","-1.2","","70","","","","0","","12.9","","101.63","","","","","","Cloudy"
"-79.40","43.63","TORONTO ISLAND A","6158665","1993-04-05 09:00","1993","04","05","09:00","","3.4","","-2.2","","67","","9","","15","","16.1","","101.59","","","","","","Mostly Cloudy"
"-79.40","43.63","TORONTO ISLAND A","6158665","1993-04-05 10:00","1993","04","05","10:00","","4.1","","-1.6","","66","","8","","17","","24.1","","101.59","","","","","","Mostly Cloudy"
"-79.40","43.63","TORONTO ISLAND A","6158665","1993-04-05 11:00","1993","04","05","11:00","","4.9","","-1.6","","63","","10","","20","","24.1","","101.59","","","","","","Cloudy"
"-79.40","43.63","TORONTO ISLAND A","6158665","1993-04-05 12:00","1993","04","05","12:00","","4.3","","-1.2","","67","","9","","22","","24.1","","101.56","","","","","","Mostly Cloudy"
"-79.40","43.63","TORONTO ISLAND A","6158665","1993-04-05 13:00","1993","04","05","13:00","","5.5","","-0.8","","64","","8","","20","","24.1","","101.52","","","","","","Cloudy"
"-79.40","43.63","TORONTO ISLAND A","6158665","1993-04-05 14:00","1993","04","05","14:00","","6.5","","-0.2","","62","","8","","22","","24.1","","101.49","","","","","","Cloudy"
"-79.40","43.63","TORONTO ISLAND A","6158665","1993-04-05 15:00","1993","04","05","15:00","","6.9","","-0.9","","58","","8","","28","","24.1","","101.42","","","","","","Mostly Cloudy"
"-79.40","43.63","TORONTO ISLAND A","6158665","1993-04-05 16:00","1993","04","05","16:00","","7.8","","-3.4","","45","","7","","30","","24.1","","101.36","","","","","","Mostly Cloudy"
"-79.40","43.63","TORONTO ISLAND A","6158665","1993-04-05 17:00","1993","04","05","17:00","","7.3","","-4.5","","43","","7","","33","","24.1","","101.32","","","","","","Mostly Cloudy"
"-79.40","43.63","TORONTO ISLAND A","6158665","1993-04-05 18:00","1993","04","05","18:00","","6.9","","-4.3","","45","","7","","26","","24.1","","101.29","","","","","","Cloudy"
"-79.40","43.63","TORONTO ISLAND A","6158665","1993-04-05 19:00","1993","04","05","19:00","","6.2","","-2.0","","56","","7","","28","","24.1","","101.32","","","","","","Cloudy"
"-79.40","43.63","TORONTO ISLAND A","6158665","1993-04-05 20:00","1993","04","05","20:00","","5.3","","-1.1","","63","","7","","22","","24.1","","101.32","","","","","","Cloudy"
"-79.40","43.63","TORONTO ISLAND A","6158665","1993-04-05 21:00","1993","04","05","21:00","","5.3","","-2.8","","56","","8","","26","","24.1","","101.32","","","","","","Cloudy"
"-79.40","43.63","TORONTO ISLAND A","6158665","1993-04-05 22:00","1993","04","05","22:00","","","","","","","","8","","26","","","","","","","","","","NA"
"-79.40","43.63","TORONTO ISLAND A","6158665","1993-04-05 23:00","1993","04","05","23:00","","","","","","","","7","","22","","","","","","","","","","NA"
"-79.40","43.63","TORONTO ISLAND A","6158665","1993-04-06 00:00","1993","04","06","00:00","","","","","","","","7","","22","","","","","","","","","","NA"
"-79.40","43.63","TORONTO ISLAND A","6158665","1993-04-06 01:00","1993","04","06","01:00","","","","","","","","8","","24","","","","","","","","","","NA"
"-79.40","43.63","TORONTO ISLAND A","6158665","1993-04-06 02:00","1993","04","06","02:00","","","","","","","","7","","22","","","","","","","","","","NA"
"-79.40","43.63","TORONTO ISLAND A","6158665","1993-04-06 03:00","1993","04","06","03:00","","","","","","","","7","","20","","","","","","","","","","NA"
"-79.40","43.63","TORONTO ISLAND A","6158665","1993-04-06 04:00","1993","04","06","04:00","","","","","","","","7","","22","","","","","","","","","","NA"
"-79.40","43.63","TORONTO ISLAND A","6158665","1993-04-06 05:00","1993","04","06","05:00","","","","","","","","7","","26","","","","","","","","","","NA"
"-79.40","43.63","TORONTO ISLAND A","6158665","1993-04-06 06:00","1993","04","06","06:00","","3.8","","-3.7","","58","","8","","22","","24.1","","101.46","","","","","","Cloudy"
"-79.40","43.63","TORONTO ISLAND A","6158665","1993-04-06 07:00","1993","04","06","07:00","","3.5","","-3.6","","60","","7","","28","","19.3","","101.49","","","","","","Cloudy"
"-79.40","43.63","TORONTO ISLAND A","6158665","1993-04-06 08:00","1993","04","06","08:00","","3.9","","-3.8","","57","","7","","28","","19.3","","101.52","","","","","","Cloudy"
"-79.40","43.63","TORONTO ISLAND A","6158665","1993-04-06 09:00","1993","04","06","09:00","","4.8","","-3.5","","55","","7","","26","","24.1","","101.52","","","","","","Cloudy"
"-79.40","43.63","TORONTO ISLAND A","6158665","1993-04-06 10:00","1993","04","06","10:00","","5.6","","-3.4","","52","","7","","24","","24.1","","101.56","","","","","","Cloudy"
"-79.40","43.63","TORONTO ISLAND A","6158665","1993-04-06 11:00","1993","04","06","11:00","","5.9","","-2.8","","54","","9","","28","","24.1","","101.59","","","","","","Cloudy"
"-79.40","43.63","TORONTO ISLAND A","6158665","1993-04-06 12:00","1993","04","06","12:00","","5.1","","-2.0","","60","","9","","26","","24.1","","101.52","","","","","","Cloudy"
"-79.40","43.63","TORONTO ISLAND A","6158665","1993-04-06 13:00","1993","04","06","13:00","","5.9","","-0.8","","62","","9","","26","","24.1","","101.49","","","","","","Cloudy"
"-79.40","43.63","TORONTO ISLAND A","6158665","1993-04-06 14:00","1993","04","06","14:00","","5.9","","-1.3","","60","","10","","30","","24.1","","101.46","","","","","","Cloudy"
"-79.40","43.63","TORONTO ISLAND A","6158665","1993-04-06 15:00","1993","04","06","15:00","","6.9","","-0.3","","60","","10","","28","","24.1","","101.39","","","","","","Cloudy"
"-79.40","43.63","TORONTO ISLAND A","6158665","1993-04-06 16:00","1993","04","06","16:00","","7.5","","-1.6","","52","","9","","26","","24.1","","101.39","","","","","","Cloudy"
"-79.40","43.63","TORONTO ISLAND A","6158665","1993-04-06 17:00","1993","04","06","17:00","","6.8","","-2.7","","51","","9","","26","","24.1","","101.39","","","","","","Cloudy"
"-79.40","43.63","TORONTO ISLAND A","6158665","1993-04-06 18:00","1993","04","06","18:00","","6.8","","-2.8","","50","","8","","22","","25.0","","101.36","","","","","","Cloudy"
"-79.40","43.63","TORONTO ISLAND A","6158665","1993-04-06 19:00","1993","04","06","19:00","","6.2","","-1.8","","56","","7","","22","","25.0","","101.39","","","","","","Mainly Clear"
"-79.40","43.63","TORONTO ISLAND A","6158665","1993-04-06 20:00","1993","04","06","20:00","","6.1","","-2.1","","56","","7","","22","","25.0","","101.39","","","","","","Mainly Clear"
"-79.40","43.63","TORONTO ISLAND A","6158665","1993-04-06 21:00","1993","04","06","21:00","","6.0","","-3.3","","51","","8","","22","","25.0","","101.42","","","","","","Mainly Clear"
"-79.40","43.63","TORONTO ISLAND A","6158665","1993-04-06 22:00","1993","04","06","22:00","","","","","","","","7","","22","","","","","","","","","","NA"
"-79.40","43.63","TORONTO ISLAND A","6158665","1993-04-06 23:00","1993","04","06","23:00","","","","","","","","8","","20","","","","","","","","","","NA"
"-79.40","43.63","TORONTO ISLAND A","6158665","1993-04-07 00:00","1993","04","07","00:00","","","","","","","","8","","19","","","","","","","","","","NA"
"-79.40","43.63","TORONTO ISLAND A","6158665","1993-04-07 01:00","1993","04","07","01:00","","","","","","","","7","","15","","","","","","","","","","NA"
"-79.40","43.63","TORONTO ISLAND A","6158665","1993-04-07 02:00","1993","04","07","02:00","","","","","","","","7","","17","","","","","","","","","","NA"
"-79.40","43.63","TORONTO ISLAND A","6158665","1993-04-07 03:00","1993","04","07","03:00","","","","","","","","7","","20","","","","","","","","","","NA"
"-79.40","43.63","TORONTO ISLAND A","6158665","1993-04-07 04:00","1993","04","07","04:00","","","","","","","","6","","22","","","","","","","","","","NA"
"-79.40","43.63","TORONTO ISLAND A","6158665","1993-04-07 05:00","1993","04","07","05:00","","","","","","","","7","","19","","","","","","","","","","NA"
"-79.40","43.63","TORONTO ISLAND A","6158665","1993-04-07 06:00","1993","04","07","06:00","","5.1","","-3.3","","55","","7","","19","","19.3","","101.42","","","","","","Clear"
"-79.40","43.63","TORONTO ISLAND A","6158665","1993-04-07 07:00","1993","04","07","07:00","","5.1","","-3.2","","55","","7","","22","","24.1","","101.46","","","","","","Clear"
"-79.40","43.63","TORONTO ISLAND A","6158665","1993-04-07 08:00","1993","04","07","08:00","","5.5","","-2.8","","55","","7","","19","","24.1","","101.49","","","","","","Clear"
"-79.40","43.63","TORONTO ISLAND A","6158665","1993-04-07 09:00","1993","04","07","09:00","","5.9","","-1.3","","60","","9","","22","","19.3","","101.49","","","","","","Clear"
"-79.40","43.63","TORONTO ISLAND A","6158665","1993-04-07 10:00","1993","04","07","10:00","","5.9","","-1.0","","61","","10","","24","","24.1","","101.52","","","","","","Mainly Clear"
"-79.40","43.63","TORONTO ISLAND A","6158665","1993-04-07 11:00","1993","04","07","11:00","","5.7","","-0.2","","66","","10","","24","","19.3","","101.52","","","","","","Clear"
"-79.40","43.63","TORONTO ISLAND A","6158665","1993-04-07 12:00","1993","04","07","12:00","","5.3","","0.4","","71","","9","","22","","19.3","","101.46","","","","","","Clear"
"-79.40","43.63","TORONTO ISLAND A","6158665","1993-04-07 13:00","1993","04","07","13:00","","5.6","","0.9","","72","","10","","20","","16.1","","101.39","","","","","","Clear"
"-79.40","43.63","TORONTO ISLAND A","6158665","1993-04-07 14:00","1993","04","07","14:00","","6.2","","1.1","","70","","10","","20","","16.1","","101.36","","","","","","Mainly Clear"
"-79.40","43.63","TORONTO ISLAND A","6158665","1993-04-07 15:00","1993","04","07","15:00","","6.8","","0.8","","66","","10","","22","","19.3","","101.26","","","","","","Mainly Clear"
"-79.40","43.63","TORONTO ISLAND A","6158665","1993-04-07 16:00","1993","04","07","16:00","","6.4","","0.4","","65","","10","","22","","19.3","","101.22","","","","","","Mainly Clear"
"-79.40","43.63","TORONTO ISLAND A","6158665","1993-04-07 17:00","1993","04","07","17:00","","6.3","","0.1","","65","","9","","22","","24.1","","101.22","","","","","","Mostly Cloudy"
"-79.40","43.63","TORONTO ISLAND A","6158665","1993-04-07 18:00","1993","04","07","18:00","","5.5","","0.3","","69","","9","","26","","24.1","","101.19","","","","","","Mostly Cloudy"
"-79.40","43.63","TORONTO ISLAND A","6158665","1993-04-07 19:00","1993","04","07","19:00","","5.9","","-1.0","","61","","9","","26","","24.1","","101.15","","","","","","Mostly Cloudy"
"-79.40","43.63","TORONTO ISLAND A","6158665","1993-04-07 20:00","1993","04","07","20:00","","6.8","","-1.8","","54","","8","","22","","24.1","","101.19","","","","","","Mainly Clear"
"-79.40","43.63","TORONTO ISLAND A","6158665","1993-04-07 21:00","1993","04","07","21:00","","6.7","","-1.3","","57","","8","","15","","24.1","","101.22","","","","","","Cloudy"
"-79.40","43.63","TORONTO ISLAND A","6158665","1993-04-07 22:00","1993","04","07","22:00","","","","","","","","8","","15","","","","","","","","","","NA"
"-79.40","43.63","TORONTO ISLAND A","6158665","1993-04-07 23:00","1993","04","07","23:00","","","","","","","","8","","15","","","","","","","","","","NA"
"-79.40","43.63","TORONTO ISLAND A","6158665","1993-04-08 00:00","1993","04","08","00:00","","","","","","","","8","","11","","","","","","","","","","NA"
"-79.40","43.63","TORONTO ISLAND A","6158665","1993-04-08 01:00","1993","04","08","01:00","","","","","","","","9","","6","","","","","","","","","","NA"
"-79.40","43.63","TORONTO ISLAND A","6158665","1993-04-08 02:00","1993","04","08","02:00","","","","","","","","7","","9","","","","","","","","","","NA"
"-79.40","43.63","TORONTO ISLAND A","6158665","1993-04-08 03:00","1993","04","08","03:00","","","","","","","","7","","13","","","","","","","","","","NA"
"-79.40","43.63","TORONTO ISLAND A","6158665","1993-04-08 04:00","1993","04","08","04:00","","","","","","","","6","","13","","","","","","","","","","NA"
"-79.40","43.63","TORONTO ISLAND A","6158665","1993-04-08 05:00","1993","04","08","05:00","","","","","","","","8","","7","","","","","","","","","","NA"
"-79.40","43.63","TORONTO ISLAND A","6158665","1993-04-08 06:00","1993","04","08","06:00","","6.7","","-2.8","","51","","9","","17","","19.3","","101.05","","","","","","Cloudy"
"-79.40","43.63","TORONTO ISLAND A","6158665","1993-04-08 07:00","1993","04","08","07:00","","6.4","","-3.1","","51","","8","","17","","24.1","","101.09","","","","","","Mostly Cloudy"
"-79.40","43.63","TORONTO ISLAND A","6158665","1993-04-08 08:00","1993","04","08","08:00","","6.6","","-1.9","","55","","9","","24","","24.1","","101.05","","","","","","Mostly Cloudy"
"-79.40","43.63","TORONTO ISLAND A","6158665","1993-04-08 09:00","1993","04","08","09:00","","6.7","","-0.8","","59","","9","","24","","24.1","","101.02","","","","","","Cloudy"
"-79.40","43.63","TORONTO ISLAND A","6158665","1993-04-08 10:00","1993","04","08","10:00","","6.7","","0.0","","62","","9","","26","","24.1","","100.95","","","","","","Mostly Cloudy"
"-79.40","43.63","TORONTO ISLAND A","6158665","1993-04-08 11:00","1993","04","08","11:00","","7.1","","0.5","","63","","9","","26","","24.1","","100.99","","","","","","Cloudy"
"-79.40","43.63","TORONTO ISLAND A","6158665","1993-04-08 12:00","1993","04","08","12:00","","7.9","","0.6","","60","","10","","26","","24.1","","100.92","","","","","","Cloudy"
"-79.40","43.63","TORONTO ISLAND A","6158665","1993-04-08 13:00","1993","04","08","13:00","","9.0","","-0.5","","51","","9","","31","","24.1","","100.75","","","","","","Cloudy"
"-79.40","43.63","TORONTO ISLAND A","6158665","1993-04-08 14:00","1993","04","08","14:00","","9.8","","-1.2","","46","","8","","28","","24.1","","100.68","","","","","","Cloudy"
"-79.40","43.63","TORONTO ISLAND A","6158665","1993-04-08 15:00","1993","04","08","15:00","","9.4","","-1.2","","47","","8","","28","","24.1","","100.62","","","","","","Cloudy"
"-79.40","43.63","TORONTO ISLAND A","6158665","1993-04-08 16:00","1993","04","08","16:00","","10.3","","-3.3","","38","","7","","22","","24.1","","100.52","","","","","","Cloudy"
"-79.40","43.63","TORONTO ISLAND A","6158665","1993-04-08 17:00","1993","04","08","17:00","","10.5","","-3.5","","37","","8","","28","","24.1","","100.52","","","","","","Cloudy"
"-79.40","43.63","TORONTO ISLAND A","6158665","1993-04-08 18:00","1993","04","08","18:00","","8.1","","-2.5","","47","","8","","28","","24.1","","100.28","","","","","","Cloudy"
"-79.40","43.63","TORONTO ISLAND A","6158665","1993-04-08 19:00","1993","04","08","19:00","","8.4","","-2.4","","47","","8","","30","","24.1","","100.31","","","","","","Cloudy"
"-79.40","43.63","TORONTO ISLAND A","6158665","1993-04-08 20:00","1993","04","08","20:00","","8.8","","-1.8","","47","","7","","26","","24.1","","100.31","","","","","","Cloudy"
"-79.40","43.63","TORONTO ISLAND A","6158665","1993-04-08 21:00","1993","04","08","21:00","","8.6","","-0.6","","52","","8","","26","","24.1","","100.31","","","","","","Cloudy"
"-79.40","43.63","TORONTO ISLAND A","6158665","1993-04-08 22:00","1993","04","08","22:00","","","","","","","","7","","22","","","","","","","","","","NA"
"-79.40","43.63","TORONTO ISLAND A","6158665","1993-04-08 23:00","1993","04","08","23:00","","","","","","","","7","","19","","","","","","","","","","NA"
"-79.40","43.63","TORONTO ISLAND A","6158665","1993-04-09 00:00","1993","04","09","00:00","","","","","","","","8","","22","","","","","","","","","","NA"
"-79.40","43.63","TORONTO ISLAND A","6158665","1993-04-09 01:00","1993","04","09","01:00","","","","","","","","8","","17","","","","","","","","","","NA"
"-79.40","43.63","TORONTO ISLAND A","6158665","1993-04-09 02:00","1993","04","09","02:00","","","","","","","","10","","9","","","","","","","","","","NA"
"-79.40","43.63","TORONTO ISLAND A","6158665","1993-04-09 03:00","1993","04","09","03:00","","","","","","","","9","","17","","","","","","","","","","NA"
"-79.40","43.63","TORONTO ISLAND A","6158665","1993-04-09 04:00","1993","04","09","04:00","","","","","","","","9","","13","","","","","","","","","","NA"
"-79.40","43.63","TORONTO ISLAND A","6158665","1993-04-09 05:00","1993","04","09","05:00","","","","","","","","10","","13","","","","","","","","","","NA"
"-79.40","43.63","TORONTO ISLAND A","6158665","1993-04-09 06:00","1993","04","09","06:00","","5.5","","3.1","","85","","8","","11","","11.3","","100.08","","","","","","Rain Showers"
"-79.40","43.63","TORONTO ISLAND A","6158665","1993-04-09 07:00","1993","04","09","07:00","","6.9","","3.6","","80","","7","","17","","19.3","","99.88","","","","","","Cloudy"
"-79.40","43.63","TORONTO ISLAND A","6158665","1993-04-09 08:00","1993","04","09","08:00","","6.7","","3.4","","79","","7","","19","","19.3","","99.98","","","","","","Cloudy"
"-79.40","43.63","TORONTO ISLAND A","6158665","1993-04-09 09:00","1993","04","09","09:00","","8.9","","3.5","","69","","9","","17","","19.3","","99.94","","","","","","Cloudy"
"-79.40","43.63","TORONTO ISLAND A","6158665","1993-04-09 10:00","1993","04","09","10:00","","11.5","","2.9","","55","","","","0","","16.1","","99.94","","","","","","Cloudy"
"-79.40","43.63","TORONTO ISLAND A","6158665","1993-04-09 11:00","1993","04","09","11:00","","11.6","","2.5","","54","","","","0","","24.1","","99.84","","","","","","Cloudy"
"-79.40","43.63","TORONTO ISLAND A","6158665","1993-04-09 12:00","1993","04","09","12:00","","9.2","","3.0","","65","","9","","15","","24.1","","99.78","","","","","","Cloudy"
"-79.40","43.63","TORONTO ISLAND A","6158665","1993-04-09 13:00","1993","04","09","13:00","","10.2","","3.1","","61","","10","","19","","19.3","","99.74","","","","","","Mostly Cloudy"
"-79.40","43.63","TORONTO ISLAND A","6158665","1993-04-09 14:00","1993","04","09","14:00","","9.1","","2.8","","65","","10","","19","","19.3","","99.64","","","","","","Cloudy"
"-79.40","43.63","TORONTO ISLAND A","6158665","1993-04-09 15:00","1993","04","09","15:00","","9.8","","2.6","","61","","10","","15","","19.3","","99.57","","","","","","Cloudy"
"-79.40","43.63","TORONTO ISLAND A","6158665","1993-04-09 16:00","1993","04","09","16:00","","9.7","","2.2","","60","","10","","13","","19.3","","99.51","","","","","","Rain Showers"
"-79.40","43.63","TORONTO ISLAND A","6158665","1993-04-09 17:00","1993","04","09","17:00","","8.7","","2.9","","67","","9","","11","","19.3","","99.51","","","","","","Rain Showers"
"-79.40","43.63","TORONTO ISLAND A","6158665","1993-04-09 18:00","1993","04","09","18:00","","8.8","","2.7","","66","","9","","7","","24.1","","99.47","","","","","","Rain Showers"
"-79.40","43.63","TORONTO ISLAND A","6158665","1993-04-09 19:00","1993","04","09","19:00","","6.4","","3.3","","80","","22","","4","","16.1","","99.57","","","","","","Rain Showers"
"-79.40","43.63","TORONTO ISLAND A","6158665","1993-04-09 20:00","1993","04","09","20:00","","9.5","","5.7","","77","","4","","4","","16.1","","99.54","","","","","","Rain"
"-79.40","43.63","TORONTO ISLAND A","6158665","1993-04-09 21:00","1993","04","09","21:00","","11.6","","8.6","","82","","26","","15","","12.9","","99.54","","","","","","Rain"
"-79.40","43.63","TORONTO ISLAND A","6158665","1993-04-09 22:00","1993","04","09","22:00","","","","","","","","16","","17","","","","","","","","","","NA"
"-79.40","43.63","TORONTO ISLAND A","6158665","1993-04-09 23:00","1993","04","09","23:00","","","","","","","","","","0","","","","","","","","","","NA"
"-79.40","43.63","TORONTO ISLAND A","6158665","1993-04-10 00:00","1993","04","10","00:00","","","","","","","","11","","9","","","","","","","","","","NA"
"-79.40","43.63","TORONTO ISLAND A","6158665","1993-04-10 01:00","1993","04","10","01:00","","","","","","","","9","","11","","","","","","","","","","NA"
"-79.40","43.63","TORONTO ISLAND A","6158665","1993-04-10 02:00","1993","04","10","02:00","","","","","","","","15","","17","","","","","","","","","","NA"
"-79.40","43.63","TORONTO ISLAND A","6158665","1993-04-10 03:00","1993","04","10","03:00","","","","","","","","35","","4","","","","","","","","","","NA"
"-79.40","43.63","TORONTO ISLAND A","6158665","1993-04-10 04:00","1993","04","10","04:00","","","","","","","","33","","11","","","","","","","","","","NA"
"-79.40","43.63","TORONTO ISLAND A","6158665","1993-04-10 05:00","1993","04","10","05:00","","","","","","","","35","","15","","","","","","","","","","NA"
"-79.40","43.63","TORONTO ISLAND A","6158665","1993-04-10 06:00","1993","04","10","06:00","","7.9","","5.3","","84","","32","","15","","16.1","","99.34","","","","","","Rain"
"-79.40","43.63","TORONTO ISLAND A","6158665","1993-04-10 07:00","1993","04","10","07:00","","7.4","","4.9","","84","","33","","15","","6.4","","99.41","","","","","","Rain,Fog"
"-79.40","43.63","TORONTO ISLAND A","6158665","1993-04-10 08:00","1993","04","10","08:00","","7.1","","5.7","","91","","32","","13","","6.4","","99.47","","","","","","Rain,Fog"
"-79.40","43.63","TORONTO ISLAND A","6158665","1993-04-10 09:00","1993","04","10","09:00","","7.1","","5.3","","88","","32","","17","","6.4","","99.51","","","","","","Rain,Fog"
"-79.40","43.63","TORONTO ISLAND A","6158665","1993-04-10 10:00","1993","04","10","10:00","","6.7","","4.5","","86","","32","","22","","9.7","","99.54","","","","","","Rain,Fog"
"-79.40","43.63","TORONTO ISLAND A","6158665","1993-04-10 11:00","1993","04","10","11:00","","6.6","","2.2","","74","","35","","26","","25.0","","99.54","","","","","","Cloudy"
"-79.40","43.63","TORONTO ISLAND A","6158665","1993-04-10 12:00","1993","04","10","12:00","","7.7","","2.3","","68","","35","","22","","25.0","","99.54","","","","","","Cloudy"
"-79.40","43.63","TORONTO ISLAND A","6158665","1993-04-10 13:00","1993","04","10","13:00","","8.8","","2.3","","64","","32","","20","","25.0","","99.61","","","","","","Cloudy"
"-79.40","43.63","TORONTO ISLAND A","6158665","1993-04-10 14:00","1993","04","10","14:00","","8.1","","1.2","","62","","32","","22","","25.0","","99.68","","","","","","Cloudy"
"-79.40","43.63","TORONTO ISLAND A","6158665","1993-04-10 15:00","1993","04","10","15:00","","8.0","","0.6","","60","","30","","31","","25.0","","99.68","","","","","","Cloudy"
"-79.40","43.63","TORONTO ISLAND A","6158665","1993-04-10 16:00","1993","04","10","16:00","","7.5","","-0.1","","58","","29","","26","","25.0","","99.71","","","","","","Cloudy"
"-79.40","43.63","TORONTO ISLAND A","6158665","1993-04-10 17:00","1993","04","10","17:00","","7.2","","-0.3","","59","","31","","24","","25.0","","99.81","","","","","","Cloudy"
"-79.40","43.63","TORONTO ISLAND A","6158665","1993-04-10 18:00","1993","04","10","18:00","","7.3","","0.0","","60","","29","","28","","25.0","","99.84","","","","","","Cloudy"
"-79.40","43.63","TORONTO ISLAND A","6158665","1993-04-10 19:00","1993","04","10","19:00","","6.9","","-0.5","","59","","30","","30","","25.0","","99.84","","","","","","Cloudy"
"-79.40","43.63","TORONTO ISLAND A","6158665","1993-04-10 20:00","1993","04","10","20:00","","6.1","","0.6","","68","","32","","22","","25.0","","99.94","","","","","","Cloudy"
"-79.40","43.63","TORONTO ISLAND A","6158665","1993-04-10 21:00","1993","04","10","21:00","","5.9","","0.7","","69","","33","","28","","25.0","","99.94","","","","","","Mostly Cloudy"
"-79.40","43.63","TORONTO ISLAND A","6158665","1993-04-10 22:00","1993","04","10","22:00","","","","","","","","32","","22","","","","","","","","","","NA"
"-79.40","43.63","TORONTO ISLAND A","6158665","1993-04-10 23:00","1993","04","10","23:00","","","","","","","","33","","19","","","","","","","","","","NA"
"-79.40","43.63","TORONTO ISLAND A","6158665","1993-04-11 00:00","1993","04","11","00:00","","","","","","","","31","","15","","","","","","","","","","NA"
"-79.40","43.63","TORONTO ISLAND A","6158665","1993-04-11 01:00","1993","04","11","01:00","","","","","","","","32","","15","","","","","","","","","","NA"
"-79.40","43.63","TORONTO ISLAND A","6158665","1993-04-11 02:00","1993","04","11","02:00","","","","","","","","31","","17","","","","","","","","","","NA"
"-79.40","43.63","TORONTO ISLAND A","6158665","1993-04-11 03:00","1993","04","11","03:00","","","","","","","","32","","15","","","","","","","","","","NA"
"-79.40","43.63","TORONTO ISLAND A","6158665","1993-04-11 04:00","1993","04","11","04:00","","","","","","","","30","","17","","","","","","","","","","NA"
"-79.40","43.63","TORONTO ISLAND A","6158665","1993-04-11 05:00","1993","04","11","05:00","","","","","","","","33","","17","","","","","","","","","","NA"
"-79.40","43.63","TORONTO ISLAND A","6158665","1993-04-11 06:00","1993","04","11","06:00","","1.4","","-2.6","","75","","32","","15","","25.0","","100.31","","","","","","Clear"
"-79.40","43.63","TORONTO ISLAND A","6158665","1993-04-11 07:00","1993","04","11","07:00","","2.1","","-3.5","","66","","34","","15","","25.0","","100.35","","","","","","Mainly Clear"
"-79.40","43.63","TORONTO ISLAND A","6158665","1993-04-11 08:00","1993","04","11","08:00","","2.9","","-3.6","","62","","33","","30","","25.0","","100.35","","","","","","Mostly Cloudy"
"-79.40","43.63","TORONTO ISLAND A","6158665","1993-04-11 09:00","1993","04","11","09:00","","3.2","","-3.8","","60","","33","","20","","25.0","","100.38","","","","","","Mostly Cloudy"
"-79.40","43.63","TORONTO ISLAND A","6158665","1993-04-11 10:00","1993","04","11","10:00","","4.5","","-3.3","","57","","32","","13","","25.0","","100.38","","","","","","Mostly Cloudy"
"-79.40","43.63","TORONTO ISLAND A","6158665","1993-04-11 11:00","1993","04","11","11:00","","4.6","","-3.4","","56","","3","","15","","25.0","","100.38","","","","","","Mostly Cloudy"
"-79.40","43.63","TORONTO ISLAND A","6158665","1993-04-11 12:00","1993","04","11","12:00","","5.6","","-2.7","","55","","33","","9","","25.0","","100.38","","","","","","Mostly Cloudy"
"-79.40","43.63","TORONTO ISLAND A","6158665","1993-04-11 13:00","1993","04","11","13:00","","4.5","","-2.7","","59","","16","","17","","25.0","","100.31","","","","","","Mainly Clear"
"-79.40","43.63","TORONTO ISLAND A","6158665","1993-04-11 14:00","1993","04","11","14:00","","5.5","","-2.0","","58","","15","","19","","25.0","","100.18","","","","","","Mostly Cloudy"
"-79.40","43.63","TORONTO ISLAND A","6158665","1993-04-11 15:00","1993","04","11","15:00","","4.9","","-1.8","","62","","16","","15","","25.0","","100.18","","","","","","Mostly Cloudy"
"-79.40","43.63","TORONTO ISLAND A","6158665","1993-04-11 16:00","1993","04","11","16:00","","3.7","","-1.6","","68","","16","","15","","25.0","","100.11","","","","","","Mostly Cloudy"
"-79.40","43.63","TORONTO ISLAND A","6158665","1993-04-11 17:00","1993","04","11","17:00","","3.2","","-1.6","","71","","19","","7","","25.0","","100.18","","","","","","Mostly Cloudy"
"-79.40","43.63","TORONTO ISLAND A","6158665","1993-04-11 18:00","1993","04","11","18:00","","3.5","","-2.2","","66","","21","","4","","24.1","","100.21","","","","","","Cloudy"
"-79.40","43.63","TORONTO ISLAND A","6158665","1993-04-11 19:00","1993","04","11","19:00","","2.6","","-1.4","","75","","26","","7","","25.0","","100.38","","","","","","Mostly Cloudy"
"-79.40","43.63","TORONTO ISLAND A","6158665","1993-04-11 20:00","1993","04","11","20:00","","2.6","","-2.4","","70","","","","0","","25.0","","100.42","","","","","","Mostly Cloudy"
"-79.40","43.63","TORONTO ISLAND A","6158665","1993-04-11 21:00","1993","04","11","21:00","","4.5","","-1.7","","64","","36","","11","","25.0","","100.42","","","","","","Cloudy"
"-79.40","43.63","TORONTO ISLAND A","6158665","1993-04-11 22:00","1993","04","11","22:00","","","","","","","","5","","17","","","","","","","","","","NA"
"-79.40","43.63","TORONTO ISLAND A","6158665","1993-04-11 23:00","1993","04","11","23:00","","","","","","","","5","","17","","","","","","","","","","NA"
"-79.40","43.63","TORONTO ISLAND A","6158665","1993-04-12 00:00","1993","04","12","00:00","","","","","","","","6","","15","","","","","","","","","","NA"
"-79.40","43.63","TORONTO ISLAND A","6158665","1993-04-12 01:00","1993","04","12","01:00","","","","","","","","6","","19","","","","","","","","","","NA"
"-79.40","43.63","TORONTO ISLAND A","6158665","1993-04-12 02:00","1993","04","12","02:00","","","","","","","","6","","26","","","","","","","","","","NA"
"-79.40","43.63","TORONTO ISLAND A","6158665","1993-04-12 03:00","1993","04","12","03:00","","","","","","","","5","","17","","","","","","","","","","NA"
"-79.40","43.63","TORONTO ISLAND A","6158665","1993-04-12 04:00","1993","04","12","04:00","","","","","","","","6","","22","","","","","","","","","","NA"
"-79.40","43.63","TORONTO ISLAND A","6158665","1993-04-12 05:00","1993","04","12","05:00","","","","","","","","6","","26","","","","","","","","","","NA"
"-79.40","43.63","TORONTO ISLAND A","6158665","1993-04-12 06:00","1993","04","12","06:00","","1.6","","-3.9","","67","","5","","19","","24.1","","100.62","","","","","","Mostly Cloudy"
"-79.40","43.63","TORONTO ISLAND A","6158665","1993-04-12 07:00","1993","04","12","07:00","","1.8","","-3.6","","67","","3","","17","","24.1","","100.68","","","","","","Mostly Cloudy"
"-79.40","43.63","TORONTO ISLAND A","6158665","1993-04-12 08:00","1993","04","12","08:00","","2.4","","-3.4","","66","","5","","6","","19.3","","100.68","","","","","","Mostly Cloudy"
"-79.40","43.63","TORONTO ISLAND A","6158665","1993-04-12 09:00","1993","04","12","09:00","","2.6","","-3.5","","64","","5","","6","","24.1","","100.72","","","","","","Mostly Cloudy"
"-79.40","43.63","TORONTO ISLAND A","6158665","1993-04-12 10:00","1993","04","12","10:00","","3.6","","-3.5","","60","","4","","17","","24.1","","100.72","","","","","","Mainly Clear"
"-79.40","43.63","TORONTO ISLAND A","6158665","1993-04-12 11:00","1993","04","12","11:00","","4.7","","-2.9","","58","","5","","9","","24.1","","100.72","","","","","","Mainly Clear"
"-79.40","43.63","TORONTO ISLAND A","6158665","1993-04-12 12:00","1993","04","12","12:00","","6.5","","-0.4","","61","","11","","19","","24.1","","100.72","","","","","","Mainly Clear"
"-79.40","43.63","TORONTO ISLAND A","6158665","1993-04-12 13:00","1993","04","12","13:00","","3.7","","-1.3","","70","","17","","17","","24.1","","100.75","","","","","","Mainly Clear"
"-79.40","43.63","TORONTO ISLAND A","6158665","1993-04-12 14:00","1993","04","12","14:00","","3.5","","-1.0","","72","","21","","15","","25.0","","100.72","","","","","","Clear"
"-79.40","43.63","TORONTO ISLAND A","6158665","1993-04-12 15:00","1993","04","12","15:00","","3.5","","-0.9","","73","","23","","15","","25.0","","100.72","","","","","","Clear"
"-79.40","43.63","TORONTO ISLAND A","6158665","1993-04-12 16:00","1993","04","12","16:00","","3.3","","-0.8","","75","","23","","19","","25.0","","100.68","","","","","","Mainly Clear"
"-79.40","43.63","TORONTO ISLAND A","6158665","1993-04-12 17:00","1993","04","12","17:00","","3.3","","-0.8","","75","","23","","15","","25.0","","100.68","","","","","","Mostly Cloudy"
"-79.40","43.63","TORONTO ISLAND A","6158665","1993-04-12 18:00","1993","04","12","18:00","","3.3","","-0.8","","75","","","","0","","25.0","","100.68","","","","","","Mostly Cloudy"
"-79.40","43.63","TORONTO ISLAND A","6158665","1993-04-12 19:00","1993","04","12","19:00","","2.8","","-1.4","","74","","10","","7","","25.0","","100.72","","","","","","Mostly Cloudy"
"-79.40","43.63","TORONTO ISLAND A","6158665","1993-04-12 20:00","1993","04","12","20:00","","3.2","","-0.5","","77","","8","","15","","25.0","","100.82","","","","","","Clear"
"-79.40","43.63","TORONTO ISLAND A","6158665","1993-04-12 21:00","1993","04","12","21:00","","2.4","","-0.8","","80","","11","","7","","25.0","","100.85","","","","","","Clear"
"-79.40","43.63","TORONTO ISLAND A","6158665","1993-04-12 22:00","1993","04","12","22:00","","","","","","","","10","","7","","","","","","","","","","NA"
"-79.40","43.63","TORONTO ISLAND A","6158665","1993-04-12 23:00","1993","04","12","23:00","","","","","","","","35","","6","","","","","","","","","","NA"
"-79.40","43.63","TORONTO ISLAND A","6158665","1993-04-13 00:00","1993","04","13","00:00","","","","","","","","35","","6","","","","","","","","","","NA"
"-79.40","43.63","TORONTO ISLAND A","6158665","1993-04-13 01:00","1993","04","13","01:00","","","","","","","","1","","11","","","","","","","","","","NA"
"-79.40","43.63","TORONTO ISLAND A","6158665","1993-04-13 02:00","1993","04","13","02:00","","","","","","","","31","","13","","","","","","","","","","NA"
"-79.40","43.63","TORONTO ISLAND A","6158665","1993-04-13 03:00","1993","04","13","03:00","","","","","","","","33","","11","","","","","","","","","","NA"
"-79.40","43.63","TORONTO ISLAND A","6158665","1993-04-13 04:00","1993","04","13","04:00","","","","","","","","34","","11","","","","","","","","","","NA"
"-79.40","43.63","TORONTO ISLAND A","6158665","1993-04-13 05:00","1993","04","13","05:00","","","","","","","","32","","4","","","","","","","","","","NA"
"-79.40","43.63","TORONTO ISLAND A","6158665","1993-04-13 06:00","1993","04","13","06:00","","3.0","","-5.1","","55","","35","","7","","19.3","","100.95","","","","","","Mainly Clear"
"-79.40","43.63","TORONTO ISLAND A","6158665","1993-04-13 07:00","1993","04","13","07:00","","3.7","","-4.7","","54","","32","","7","","24.1","","100.99","","","","","","Mainly Clear"
"-79.40","43.63","TORONTO ISLAND A","6158665","1993-04-13 08:00","1993","04","13","08:00","","6.0","","-5.2","","44","","9","","7","","19.3","","100.99","","","","","","Clear"
"-79.40","43.63","TORONTO ISLAND A","6158665","1993-04-13 09:00","1993","04","13","09:00","","6.4","","-3.1","","51","","9","","7","","19.3","","100.99","","","","","","Clear"
"-79.40","43.63","TORONTO ISLAND A","6158665","1993-04-13 10:00","1993","04","13","10:00","","7.1","","-3.9","","45","","18","","11","","24.1","","100.95","","","","","","Mainly Clear"
"-79.40","43.63","TORONTO ISLAND A","6158665","1993-04-13 11:00","1993","04","13","11:00","","6.9","","-4.2","","45","","19","","11","","24.1","","100.99","","","","","","Clear"
"-79.40","43.63","TORONTO ISLAND A","6158665","1993-04-13 12:00","1993","04","13","12:00","","7.5","","-3.2","","46","","18","","11","","24.1","","100.95","","","","","","Clear"
"-79.40","43.63","TORONTO ISLAND A","6158665","1993-04-13 13:00","1993","04","13","13:00","","5.8","","-1.2","","61","","19","","13","","24.1","","100.92","","","","","","Clear"
"-79.40","43.63","TORONTO ISLAND A","6158665","1993-04-13 14:00","1993","04","13","14:00","","6.2","","-0.7","","61","","18","","13","","24.1","","100.85","","","","","","Clear"
"-79.40","43.63","TORONTO ISLAND A","6158665","1993-04-13 15:00","1993","04","13","15:00","","6.1","","-1.2","","59","","19","","9","","24.1","","100.82","","","","","","Clear"
"-79.40","43.63","TORONTO ISLAND A","6158665","1993-04-13 16:00","1993","04","13","16:00","","6.8","","-1.4","","56","","19","","7","","24.1","","100.79","","","","","","Clear"
"-79.40","43.63","TORONTO ISLAND A","6158665","1993-04-13 17:00","1993","04","13","17:00","","7.3","","-2.5","","50","","18","","7","","25.0","","100.79","","","","","","Clear"
"-79.40","43.63","TORONTO ISLAND A","6158665","1993-04-13 18:00","1993","04","13","18:00","","6.8","","-2.5","","52","","","","0","","25.0","","100.82","","","","","","Clear"
"-79.40","43.63","TORONTO ISLAND A","6158665","1993-04-13 19:00","1993","04","13","19:00","","8.9","","-5.0","","37","","34","","9","","25.0","","100.82","","","","","","Clear"
"-79.40","43.63","TORONTO ISLAND A","6158665","1993-04-13 20:00","1993","04","13","20:00","","7.6","","-5.6","","38","","1","","11","","25.0","","100.89","","","","","","Clear"
"-79.40","43.63","TORONTO ISLAND A","6158665","1993-04-13 21:00","1993","04","13","21:00","","6.4","","-6.9","","38","","35","","19","","25.0","","100.85","","","","","","Clear"
"-79.40","43.63","TORONTO ISLAND A","6158665","1993-04-13 22:00","1993","04","13","22:00","","","","","","","","35","","19","","","","","","","","","","NA"
"-79.40","43.63","TORONTO ISLAND A","6158665","1993-04-13 23:00","1993","04","13","23:00","","","","","","","","36","","7","","","","","","","","","","NA"
"-79.40","43.63","TORONTO ISLAND A","6158665","1993-04-14 00:00","1993","04","14","00:00","","","","","","","","35","","15","","","","","","","","","","NA"
"-79.40","43.63","TORONTO ISLAND A","6158665","1993-04-14 01:00","1993","04","14","01:00","","","","","","","","32","","6","","","","","","","","","","NA"
"-79.40","43.63","TORONTO ISLAND A","6158665","1993-04-14 02:00","1993","04","14","02:00","","","","","","","","32","","9","","","","","","","","","","NA"
"-79.40","43.63","TORONTO ISLAND A","6158665","1993-04-14 03:00","1993","04","14","03:00","","","","","","","","25","","9","","","","","","","","","","NA"
"-79.40","43.63","TORONTO ISLAND A","6158665","1993-04-14 04:00","1993","04","14","04:00","","","","","","","","34","","7","","","","","","","","","","NA"
"-79.40","43.63","TORONTO ISLAND A","6158665","1993-04-14 05:00","1993","04","14","05:00","","","","","","","","30","","7","","","","","","","","","","NA"
"-79.40","43.63","TORONTO ISLAND A","6158665","1993-04-14 06:00","1993","04","14","06:00","","2.5","","-4.0","","62","","1","","6","","24.1","","100.85","","","","","","Mainly Clear"
"-79.40","43.63","TORONTO ISLAND A","6158665","1993-04-14 07:00","1993","04","14","07:00","","3.9","","-4.8","","53","","31","","9","","19.3","","100.92","","","","","","Mostly Cloudy"
"-79.40","43.63","TORONTO ISLAND A","6158665","1993-04-14 08:00","1993","04","14","08:00","","6.1","","-4.3","","47","","31","","9","","16.1","","100.89","","","","","","Mostly Cloudy"
"-79.40","43.63","TORONTO ISLAND A","6158665","1993-04-14 09:00","1993","04","14","09:00","","9.1","","-4.4","","38","","8","","15","","19.3","","100.85","","","","","","Mostly Cloudy"
"-79.40","43.63","TORONTO ISLAND A","6158665","1993-04-14 10:00","1993","04","14","10:00","","7.2","","-2.4","","50","","8","","15","","24.1","","100.82","","","","","","Mostly Cloudy"
"-79.40","43.63","TORONTO ISLAND A","6158665","1993-04-14 11:00","1993","04","14","11:00","","8.2","","-2.2","","48","","11","","19","","24.1","","100.82","","","","","","Mainly Clear"
"-79.40","43.63","TORONTO ISLAND A","6158665","1993-04-14 12:00","1993","04","14","12:00","","7.0","","-3.7","","46","","8","","13","","24.1","","100.72","","","","","","Mainly Clear"
"-79.40","43.63","TORONTO ISLAND A","6158665","1993-04-14 13:00","1993","04","14","13:00","","7.3","","-2.3","","51","","16","","15","","24.1","","100.72","","","","","","Mainly Clear"
"-79.40","43.63","TORONTO ISLAND A","6158665","1993-04-14 14:00","1993","04","14","14:00","","6.9","","-0.6","","59","","21","","6","","24.1","","100.65","","","","","","Mostly Cloudy"
"-79.40","43.63","TORONTO ISLAND A","6158665","1993-04-14 15:00","1993","04","14","15:00","","6.8","","-1.1","","57","","8","","15","","24.1","","100.55","","","","","","Mostly Cloudy"
"-79.40","43.63","TORONTO ISLAND A","6158665","1993-04-14 16:00","1993","04","14","16:00","","7.3","","-1.6","","53","","7","","19","","24.1","","100.48","","","","","","Mostly Cloudy"
"-79.40","43.63","TORONTO ISLAND A","6158665","1993-04-14 17:00","1993","04","14","17:00","","7.9","","-0.7","","54","","10","","19","","24.1","","100.48","","","","","","Cloudy"
"-79.40","43.63","TORONTO ISLAND A","6158665","1993-04-14 18:00","1993","04","14","18:00","","7.7","","-1.0","","54","","9","","22","","24.1","","100.52","","","","","","Cloudy"
"-79.40","43.63","TORONTO ISLAND A","6158665","1993-04-14 19:00","1993","04","14","19:00","","8.1","","-1.4","","51","","8","","20","","24.1","","100.52","","","","","","Cloudy"
"-79.40","43.63","TORONTO ISLAND A","6158665","1993-04-14 20:00","1993","04","14","20:00","","8.0","","-2.0","","49","","8","","19","","24.1","","100.58","","","","","","Cloudy"
"-79.40","43.63","TORONTO ISLAND A","6158665","1993-04-14 21:00","1993","04","14","21:00","","8.3","","-4.0","","42","","8","","26","","24.1","","100.52","","","","","","Cloudy"
"-79.40","43.63","TORONTO ISLAND A","6158665","1993-04-14 22:00","1993","04","14","22:00","","","","","","","","8","","24","","","","","","","","","","NA"
"-79.40","43.63","TORONTO ISLAND A","6158665","1993-04-14 23:00","1993","04","14","23:00","","","","","","","","8","","24","","","","","","","","","","NA"
"-79.40","43.63","TORONTO ISLAND A","6158665","1993-04-15 00:00","1993","04","15","00:00","","","","","","","","8","","24","","","","","","","","","","NA"
"-79.40","43.63","TORONTO ISLAND A","6158665","1993-04-15 01:00","1993","04","15","01:00","","","","","","","","8","","31","","","","","","","","","","NA"
"-79.40","43.63","TORONTO ISLAND A","6158665","1993-04-15 02:00","1993","04","15","02:00","","","","","","","","8","","22","","","","","","","","","","NA"
"-79.40","43.63","TORONTO ISLAND A","6158665","1993-04-15 03:00","1993","04","15","03:00","","","","","","","","8","","26","","","","","","","","","","NA"
"-79.40","43.63","TORONTO ISLAND A","6158665","1993-04-15 04:00","1993","04","15","04:00","","","","","","","","6","","19","","","","","","","","","","NA"
"-79.40","43.63","TORONTO ISLAND A","6158665","1993-04-15 05:00","1993","04","15","05:00","","","","","","","","8","","24","","","","","","","","","","NA"
"-79.40","43.63","TORONTO ISLAND A","6158665","1993-04-15 06:00","1993","04","15","06:00","","6.3","","1.7","","73","","7","","28","","12.9","","100.28","","","","","","Rain Showers"
"-79.40","43.63","TORONTO ISLAND A","6158665","1993-04-15 07:00","1993","04","15","07:00","","6.9","","2.1","","72","","7","","35","","24.1","","100.15","","","","","","Cloudy"
"-79.40","43.63","TORONTO ISLAND A","6158665","1993-04-15 08:00","1993","04","15","08:00","","8.2","","2.1","","65","","7","","41","","24.1","","100.08","","","","","","Cloudy"
"-79.40","43.63","TORONTO ISLAND A","6158665","1993-04-15 09:00","1993","04","15","09:00","","8.6","","2.8","","67","","7","","39","","16.1","","100.05","","","","","","Cloudy"
"-79.40","43.63","TORONTO ISLAND A","6158665","1993-04-15 10:00","1993","04","15","10:00","","7.9","","2.7","","70","","7","","37","","19.3","","100.01","","","","","","Cloudy"
"-79.40","43.63","TORONTO ISLAND A","6158665","1993-04-15 11:00","1993","04","15","11:00","","8.8","","3.6","","70","","7","","39","","16.1","","99.94","","","","","","Cloudy"
"-79.40","43.63","TORONTO ISLAND A","6158665","1993-04-15 12:00","1993","04","15","12:00","","9.0","","4.2","","72","","7","","37","","12.9","","99.88","","","","","","Cloudy"
"-79.40","43.63","TORONTO ISLAND A","6158665","1993-04-15 13:00","1993","04","15","13:00","","9.8","","4.8","","71","","7","","37","","12.9","","99.81","","","","","","Cloudy"
"-79.40","43.63","TORONTO ISLAND A","6158665","1993-04-15 14:00","1993","04","15","14:00","","10.8","","5.4","","69","","7","","33","","12.9","","99.74","","","","","","Mostly Cloudy"
"-79.40","43.63","TORONTO ISLAND A","6158665","1993-04-15 15:00","1993","04","15","15:00","","10.9","","5.3","","68","","7","","37","","12.9","","99.61","","","","","","Mostly Cloudy"
"-79.40","43.63","TORONTO ISLAND A","6158665","1993-04-15 16:00","1993","04","15","16:00","","12.3","","6.3","","67","","7","","37","","16.1","","99.54","","","","","","Mostly Cloudy"
"-79.40","43.63","TORONTO ISLAND A","6158665","1993-04-15 17:00","1993","04","15","17:00","","14.0","","7.1","","63","","7","","37","","16.1","","99.44","","","","","","Mostly Cloudy"
"-79.40","43.63","TORONTO ISLAND A","6158665","1993-04-15 18:00","1993","04","15","18:00","","12.2","","6.4","","68","","7","","37","","12.9","","99.27","","","","","","Mostly Cloudy"
"-79.40","43.63","TORONTO ISLAND A","6158665","1993-04-15 19:00","1993","04","15","19:00","","12.0","","6.3","","68","","7","","30","","12.9","","99.24","","","","","","Cloudy"
"-79.40","43.63","TORONTO ISLAND A","6158665","1993-04-15 20:00","1993","04","15","20:00","","10.6","","5.6","","71","","8","","28","","12.9","","99.14","","","","","","Mostly Cloudy"
"-79.40","43.63","TORONTO ISLAND A","6158665","1993-04-15 21:00","1993","04","15","21:00","","10.7","","6.2","","74","","9","","11","","12.9","","99.14","","","","","","Thunderstorms"
"-79.40","43.63","TORONTO ISLAND A","6158665","1993-04-15 22:00","1993","04","15","22:00","","","","","","","","31","","7","","","","","","","","","","NA"
"-79.40","43.63","TORONTO ISLAND A","6158665","1993-04-15 23:00","1993","04","15","23:00","","","","","","","","10","","9","","","","","","","","","","NA"
"-79.40","43.63","TORONTO ISLAND A","6158665","1993-04-16 00:00","1993","04","16","00:00","","","","","","","","9","","24","","","","","","","","","","NA"
"-79.40","43.63","TORONTO ISLAND A","6158665","1993-04-16 01:00","1993","04","16","01:00","","","","","","","","9","","28","","","","","","","","","","NA"
"-79.40","43.63","TORONTO ISLAND A","6158665","1993-04-16 02:00","1993","04","16","02:00","","","","","","","","10","","22","","","","","","","","","","NA"
"-79.40","43.63","TORONTO ISLAND A","6158665","1993-04-16 03:00","1993","04","16","03:00","","","","","","","","22","","13","","","","","","","","","","NA"
"-79.40","43.63","TORONTO ISLAND A","6158665","1993-04-16 04:00","1993","04","16","04:00","","","","","","","","13","","6","","","","","","","","","","NA"
"-79.40","43.63","TORONTO ISLAND A","6158665","1993-04-16 05:00","1993","04","16","05:00","","","","","","","","3","","7","","","","","","","","","","NA"
"-79.40","43.63","TORONTO ISLAND A","6158665","1993-04-16 06:00","1993","04","16","06:00","","7.6","","6.3","","91","","","","0","","4.0","","99.24","","","","","","Fog"
"-79.40","43.63","TORONTO ISLAND A","6158665","1993-04-16 07:00","1993","04","16","07:00","","9.3","","7.9","","91","","11","","9","","4.8","","99.27","","","","","","Fog"
"-79.40","43.63","TORONTO ISLAND A","6158665","1993-04-16 08:00","1993","04","16","08:00","","9.1","","7.9","","92","","10","","9","","4.8","","99.34","","","","","","Fog"
"-79.40","43.63","TORONTO ISLAND A","6158665","1993-04-16 09:00","1993","04","16","09:00","","10.3","","8.5","","89","","10","","13","","8.0","","99.34","","","","","","Fog"
"-79.40","43.63","TORONTO ISLAND A","6158665","1993-04-16 10:00","1993","04","16","10:00","","10.6","","8.3","","85","","8","","7","","12.9","","99.34","","","","","","Cloudy"
"-79.40","43.63","TORONTO ISLAND A","6158665","1993-04-16 11:00","1993","04","16","11:00","","11.8","","8.9","","82","","21","","6","","16.1","","99.31","","","","","","Cloudy"
"-79.40","43.63","TORONTO ISLAND A","6158665","1993-04-16 12:00","1993","04","16","12:00","","9.1","","7.7","","91","","28","","6","","12.9","","99.31","","","","","","Cloudy"
"-79.40","43.63","TORONTO ISLAND A","6158665","1993-04-16 13:00","1993","04","16","13:00","","8.3","","4.6","","78","","22","","13","","19.3","","99.37","","","","","","Cloudy"
"-79.40","43.63","TORONTO ISLAND A","6158665","1993-04-16 14:00","1993","04","16","14:00","","7.6","","4.4","","80","","20","","17","","24.1","","99.34","","","","","","Cloudy"
"-79.40","43.63","TORONTO ISLAND A","6158665","1993-04-16 15:00","1993","04","16","15:00","","9.7","","5.6","","76","","22","","7","","24.1","","99.31","","","","","","Mostly Cloudy"
"-79.40","43.63","TORONTO ISLAND A","6158665","1993-04-16 16:00","1993","04","16","16:00","","8.0","","4.1","","76","","27","","9","","24.1","","99.34","","","","","","Cloudy"
"-79.40","43.63","TORONTO ISLAND A","6158665","1993-04-16 17:00","1993","04","16","17:00","","7.1","","3.6","","78","","23","","22","","24.1","","99.37","","","","","","Cloudy"
"-79.40","43.63","TORONTO ISLAND A","6158665","1993-04-16 18:00","1993","04","16","18:00","","6.6","","3.4","","80","","23","","22","","24.1","","99.41","","","","","","Mostly Cloudy"
"-79.40","43.63","TORONTO ISLAND A","6158665","1993-04-16 19:00","1993","04","16","19:00","","6.0","","3.3","","83","","22","","13","","24.1","","99.47","","","","","","Mostly Cloudy"
"-79.40","43.63","TORONTO ISLAND A","6158665","1993-04-16 20:00","1993","04","16","20:00","","4.8","","2.5","","85","","24","","11","","24.1","","99.54","","","","","","Mostly Cloudy"
"-79.40","43.63","TORONTO ISLAND A","6158665","1993-04-16 21:00","1993","04","16","21:00","","5.2","","2.6","","83","","24","","19","","24.1","","99.64","","","","","","Cloudy"
"-79.40","43.63","TORONTO ISLAND A","6158665","1993-04-16 22:00","1993","04","16","22:00","","","","","","","","23","","17","","","","","","","","","","NA"
"-79.40","43.63","TORONTO ISLAND A","6158665","1993-04-16 23:00","1993","04","16","23:00","","","","","","","","25","","13","","","","","","","","","","NA"
"-79.40","43.63","TORONTO ISLAND A","6158665","1993-04-17 00:00","1993","04","17","00:00","","","","","","","","23","","17","","","","","","","","","","NA"
"-79.40","43.63","TORONTO ISLAND A","6158665","1993-04-17 01:00","1993","04","17","01:00","","","","","","","","25","","11","","","","","","","","","","NA"
"-79.40","43.63","TORONTO ISLAND A","6158665","1993-04-17 02:00","1993","04","17","02:00","","","","","","","","26","","9","","","","","","","","","","NA"
"-79.40","43.63","TORONTO ISLAND A","6158665","1993-04-17 03:00","1993","04","17","03:00","","","","","","","","26","","11","","","","","","","","","","NA"
"-79.40","43.63","TORONTO ISLAND A","6158665","1993-04-17 04:00","1993","04","17","04:00","","","","","","","","25","","13","","","","","","","","","","NA"
"-79.40","43.63","TORONTO ISLAND A","6158665","1993-04-17 05:00","1993","04","17","05:00","","","","","","","","20","","6","","","","","","","","","","NA"
"-79.40","43.63","TORONTO ISLAND A","6158665","1993-04-17 06:00","1993","04","17","06:00","","4.0","","2.1","","87","","22","","17","","12.9","","99.61","","","","","","Cloudy"
"-79.40","43.63","TORONTO ISLAND A","6158665","1993-04-17 07:00","1993","04","17","07:00","","4.9","","2.2","","83","","26","","19","","24.1","","99.64","","","","","","Cloudy"
"-79.40","43.63","TORONTO ISLAND A","6158665","1993-04-17 08:00","1993","04","17","08:00","","6.1","","1.7","","73","","26","","17","","24.1","","99.68","","","","","","Cloudy"
"-79.40","43.63","TORONTO ISLAND A","6158665","1993-04-17 09:00","1993","04","17","09:00","","6.7","","1.6","","70","","26","","22","","24.1","","99.68","","","","","","Mostly Cloudy"
"-79.40","43.63","TORONTO ISLAND A","6158665","1993-04-17 10:00","1993","04","17","10:00","","7.7","","2.1","","68","","25","","26","","24.1","","99.71","","","","","","Mostly Cloudy"
"-79.40","43.63","TORONTO ISLAND A","6158665","1993-04-17 11:00","1993","04","17","11:00","","5.6","","1.5","","75","","21","","22","","24.1","","99.68","","","","","","Mostly Cloudy"
"-79.40","43.63","TORONTO ISLAND A","6158665","1993-04-17 12:00","1993","04","17","12:00","","5.7","","1.1","","72","","22","","28","","25.0","","99.68","","","","","","Mostly Cloudy"
"-79.40","43.63","TORONTO ISLAND A","6158665","1993-04-17 13:00","1993","04","17","13:00","","5.4","","1.3","","75","","21","","35","","12.9","","99.68","","","","","","Rain Showers"
"-79.40","43.63","TORONTO ISLAND A","6158665","1993-04-17 14:00","1993","04","17","14:00","","5.4","","1.8","","77","","22","","30","","12.9","","99.74","","","","","","Rain Showers"
"-79.40","43.63","TORONTO ISLAND A","6158665","1993-04-17 15:00","1993","04","17","15:00","","6.0","","1.9","","75","","26","","28","","12.9","","99.78","","","","","","Rain Showers"
"-79.40","43.63","TORONTO ISLAND A","6158665","1993-04-17 16:00","1993","04","17","16:00","","6.6","","1.2","","68","","29","","26","","25.0","","99.84","","","","","","Cloudy"
"-79.40","43.63","TORONTO ISLAND A","6158665","1993-04-17 17:00","1993","04","17","17:00","","4.8","","-0.5","","69","","27","","30","","25.0","","100.01","","","","","","Rain Showers"
"-79.40","43.63","TORONTO ISLAND A","6158665","1993-04-17 18:00","1993","04","17","18:00","","3.5","","-1.2","","71","","28","","28","","24.1","","100.15","","","","","","Rain,Snow"
"-79.40","43.63","TORONTO ISLAND A","6158665","1993-04-17 19:00","1993","04","17","19:00","","2.9","","-2.5","","68","","28","","33","","25.0","","100.21","","","","","","Rain,Snow"
"-79.40","43.63","TORONTO ISLAND A","6158665","1993-04-17 20:00","1993","04","17","20:00","","2.5","","-2.6","","69","","30","","30","","25.0","","100.31","","","","","","Cloudy"
"-79.40","43.63","TORONTO ISLAND A","6158665","1993-04-17 21:00","1993","04","17","21:00","","2.6","","-3.4","","65","","28","","30","","25.0","","100.38","","","","","","Cloudy"
"-79.40","43.63","TORONTO ISLAND A","6158665","1993-04-17 22:00","1993","04","17","22:00","","","","","","","","26","","30","","","","","","","","","","NA"
"-79.40","43.63","TORONTO ISLAND A","6158665","1993-04-17 23:00","1993","04","17","23:00","","","","","","","","27","","26","","","","","","","","","","NA"
"-79.40","43.63","TORONTO ISLAND A","6158665","1993-04-18 00:00","1993","04","18","00:00","","","","","","","","27","","24","","","","","","","","","","NA"
"-79.40","43.63","TORONTO ISLAND A","6158665","1993-04-18 01:00","1993","04","18","01:00","","","","","","","","26","","22","","","","","","","","","","NA"
"-79.40","43.63","TORONTO ISLAND A","6158665","1993-04-18 02:00","1993","04","18","02:00","","","","","","","","27","","24","","","","","","","","","","NA"
"-79.40","43.63","TORONTO ISLAND A","6158665","1993-04-18 03:00","1993","04","18","03:00","","","","","","","","28","","19","","","","","","","","","","NA"
"-79.40","43.63","TORONTO ISLAND A","6158665","1993-04-18 04:00","1993","04","18","04:00","","","","","","","","27","","13","","","","","","","","","","NA"
"-79.40","43.63","TORONTO ISLAND A","6158665","1993-04-18 05:00","1993","04","18","05:00","","","","","","","","27","","15","","","","","","","","","","NA"
"-79.40","43.63","TORONTO ISLAND A","6158665","1993-04-18 06:00","1993","04","18","06:00","","1.2","","-3.1","","73","","27","","19","","25.0","","100.62","","","","","","Clear"
"-79.40","43.63","TORONTO ISLAND A","6158665","1993-04-18 07:00","1993","04","18","07:00","","1.7","","-2.9","","71","","27","","19","","25.0","","100.68","","","","","","Clear"
"-79.40","43.63","TORONTO ISLAND A","6158665","1993-04-18 08:00","1993","04","18","08:00","","3.0","","-2.5","","67","","25","","13","","25.0","","100.68","","","","","","Mainly Clear"
"-79.40","43.63","TORONTO ISLAND A","6158665","1993-04-18 09:00","1993","04","18","09:00","","3.5","","-0.8","","74","","20","","19","","25.0","","100.68","","","","","","Mainly Clear"
"-79.40","43.63","TORONTO ISLAND A","6158665","1993-04-18 10:00","1993","04","18","10:00","","4.1","","-0.5","","72","","19","","19","","25.0","","100.62","","","","","","Mostly Cloudy"
"-79.40","43.63","TORONTO ISLAND A","6158665","1993-04-18 11:00","1993","04","18","11:00","","4.5","","-0.4","","70","","19","","19","","25.0","","100.62","","","","","","Mostly Cloudy"
"-79.40","43.63","TORONTO ISLAND A","6158665","1993-04-18 12:00","1993","04","18","12:00","","5.6","","-0.7","","64","","18","","15","","25.0","","100.52","","","","","","Mostly Cloudy"
"-79.40","43.63","TORONTO ISLAND A","6158665","1993-04-18 13:00","1993","04","18","13:00","","5.9","","-0.6","","63","","17","","17","","25.0","","100.45","","","","","","Mostly Cloudy"
"-79.40","43.63","TORONTO ISLAND A","6158665","1993-04-18 14:00","1993","04","18","14:00","","7.2","","-2.0","","52","","16","","22","","25.0","","100.38","","","","","","Cloudy"
"-79.40","43.63","TORONTO ISLAND A","6158665","1993-04-18 15:00","1993","04","18","15:00","","7.9","","-0.9","","54","","16","","22","","25.0","","100.25","","","","","","Cloudy"
"-79.40","43.63","TORONTO ISLAND A","6158665","1993-04-18 16:00","1993","04","18","16:00","","7.2","","1.0","","65","","18","","19","","25.0","","100.18","","","","","","Cloudy"
"-79.40","43.63","TORONTO ISLAND A","6158665","1993-04-18 17:00","1993","04","18","17:00","","7.5","","1.7","","67","","19","","19","","25.0","","100.08","","","","","","Mostly Cloudy"
"-79.40","43.63","TORONTO ISLAND A","6158665","1993-04-18 18:00","1993","04","18","18:00","","6.9","","1.7","","70","","22","","9","","19.3","","100.08","","","","","","Mainly Clear"
"-79.40","43.63","TORONTO ISLAND A","6158665","1993-04-18 19:00","1993","04","18","19:00","","6.9","","2.4","","73","","25","","11","","19.3","","100.08","","","","","","Mostly Cloudy"
"-79.40","43.63","TORONTO ISLAND A","6158665","1993-04-18 20:00","1993","04","18","20:00","","7.6","","4.3","","79","","25","","19","","24.1","","100.08","","","","","","Cloudy"
"-79.40","43.63","TORONTO ISLAND A","6158665","1993-04-18 21:00","1993","04","18","21:00","","6.5","","3.9","","83","","26","","13","","25.0","","100.05","","","","","","Mostly Cloudy"
"-79.40","43.63","TORONTO ISLAND A","6158665","1993-04-18 22:00","1993","04","18","22:00","","","","","","","","23","","22","","","","","","","","","","NA"
"-79.40","43.63","TORONTO ISLAND A","6158665","1993-04-18 23:00","1993","04","18","23:00","","","","","","","","25","","9","","","","","","","","","","NA"
"-79.40","43.63","TORONTO ISLAND A","6158665","1993-04-19 00:00","1993","04","19","00:00","","","","","","","","24","","20","","","","","","","","","","NA"
"-79.40","43.63","TORONTO ISLAND A","6158665","1993-04-19 01:00","1993","04","19","01:00","","","","","","","","29","","19","","","","","","","","","","NA"
"-79.40","43.63","TORONTO ISLAND A","6158665","1993-04-19 02:00","1993","04","19","02:00","","","","","","","","23","","15","","","","","","","","","","NA"
"-79.40","43.63","TORONTO ISLAND A","6158665","1993-04-19 03:00","1993","04","19","03:00","","","","","","","","26","","7","","","","","","","","","","NA"
"-79.40","43.63","TORONTO ISLAND A","6158665","1993-04-19 04:00","1993","04","19","04:00","","","","","","","","26","","6","","","","","","","","","","NA"
"-79.40","43.63","TORONTO ISLAND A","6158665","1993-04-19 05:00","1993","04","19","05:00","","","","","","","","25","","11","","","","","","","","","","NA"
"-79.40","43.63","TORONTO ISLAND A","6158665","1993-04-19 06:00","1993","04","19","06:00","","6.4","","3.4","","81","","25","","9","","19.3","","100.01","","","","","","Mostly Cloudy"
"-79.40","43.63","TORONTO ISLAND A","6158665","1993-04-19 07:00","1993","04","19","07:00","","5.9","","3.4","","84","","20","","19","","14.5","","100.08","","","","","","Cloudy"
"-79.40","43.63","TORONTO ISLAND A","6158665","1993-04-19 08:00","1993","04","19","08:00","","6.5","","3.7","","82","","23","","7","","12.9","","100.08","","","","","","Cloudy"
"-79.40","43.63","TORONTO ISLAND A","6158665","1993-04-19 09:00","1993","04","19","09:00","","8.3","","4.2","","76","","24","","7","","16.1","","100.11","","","","","","Cloudy"
"-79.40","43.63","TORONTO ISLAND A","6158665","1993-04-19 10:00","1993","04","19","10:00","","6.8","","4.5","","85","","24","","9","","6.4","","100.18","","","","","","Rain Showers,Fog"
"-79.40","43.63","TORONTO ISLAND A","6158665","1993-04-19 11:00","1993","04","19","11:00","","7.0","","5.9","","93","","22","","4","","4.8","","100.21","","","","","","Rain Showers,Fog"
"-79.40","43.63","TORONTO ISLAND A","6158665","1993-04-19 12:00","1993","04","19","12:00","","9.2","","7.2","","87","","30","","19","","8.0","","100.28","","","","","","Rain Showers,Fog"
"-79.40","43.63","TORONTO ISLAND A","6158665","1993-04-19 13:00","1993","04","19","13:00","","8.6","","6.4","","86","","36","","15","","14.5","","100.31","","","","","","Cloudy"
"-79.40","43.63","TORONTO ISLAND A","6158665","1993-04-19 14:00","1993","04","19","14:00","","8.8","","5.5","","80","","3","","19","","19.3","","100.31","","","","","","Cloudy"
"-79.40","43.63","TORONTO ISLAND A","6158665","1993-04-19 15:00","1993","04","19","15:00","","8.8","","5.2","","78","","2","","22","","16.1","","100.31","","","","","","Cloudy"
"-79.40","43.63","TORONTO ISLAND A","6158665","1993-04-19 16:00","1993","04","19","16:00","","9.0","","3.8","","70","","5","","22","","16.1","","100.35","","","","","","Cloudy"
"-79.40","43.63","TORONTO ISLAND A","6158665","1993-04-19 17:00","1993","04","19","17:00","","9.0","","3.8","","70","","3","","22","","16.1","","100.31","","","","","","Rain Showers"
"-79.40","43.63","TORONTO ISLAND A","6158665","1993-04-19 18:00","1993","04","19","18:00","","9.0","","4.8","","75","","7","","11","","16.1","","100.38","","","","","","Rain Showers"
"-79.40","43.63","TORONTO ISLAND A","6158665","1993-04-19 19:00","1993","04","19","19:00","","7.4","","5.2","","86","","7","","19","","9.7","","100.38","","","","","","Rain Showers,Fog"
"-79.40","43.63","TORONTO ISLAND A","6158665","1993-04-19 20:00","1993","04","19","20:00","","4.7","","3.7","","93","","7","","19","","6.4","","100.45","","","","","","Rain,Fog"
"-79.40","43.63","TORONTO ISLAND A","6158665","1993-04-19 21:00","1993","04","19","21:00","","4.2","","3.2","","93","","10","","26","","8.0","","100.48","","","","","","Rain,Fog"
"-79.40","43.63","TORONTO ISLAND A","6158665","1993-04-19 22:00","1993","04","19","22:00","","","","","","","","9","","31","","","","","","","","","","NA"
"-79.40","43.63","TORONTO ISLAND A","6158665","1993-04-19 23:00","1993","04","19","23:00","","","","","","","","10","","26","","","","","","","","","","NA"
"-79.40","43.63","TORONTO ISLAND A","6158665","1993-04-20 00:00","1993","04","20","00:00","","","","","","","","8","","28","","","","","","","","","","NA"
"-79.40","43.63","TORONTO ISLAND A","6158665","1993-04-20 01:00","1993","04","20","01:00","","","","","","","","8","","43","","","","","","","","","","NA"
"-79.40","43.63","TORONTO ISLAND A","6158665","1993-04-20 02:00","1993","04","20","02:00","","","","","","","","8","","37","","","","","","","","","","NA"
"-79.40","43.63","TORONTO ISLAND A","6158665","1993-04-20 03:00","1993","04","20","03:00","","","","","","","","8","","46","","","","","","","","","","NA"
"-79.40","43.63","TORONTO ISLAND A","6158665","1993-04-20 04:00","1993","04","20","04:00","","","","","","","","8","","41","","","","","","","","","","NA"
"-79.40","43.63","TORONTO ISLAND A","6158665","1993-04-20 05:00","1993","04","20","05:00","","","","","","","","8","","44","","","","","","","","","","NA"
"-79.40","43.63","TORONTO ISLAND A","6158665","1993-04-20 06:00","1993","04","20","06:00","","3.6","","2.1","","90","","8","","37","","9.7","","99.74","","","","","","Rain Showers,Fog"
"-79.40","43.63","TORONTO ISLAND A","6158665","1993-04-20 07:00","1993","04","20","07:00","","3.3","","2.1","","92","","7","","33","","6.4","","99.74","","","","","","Rain Showers,Fog"
"-79.40","43.63","TORONTO ISLAND A","6158665","1993-04-20 08:00","1993","04","20","08:00","","3.5","","2.4","","92","","8","","33","","9.7","","99.64","","","","","","Rain Showers,Fog"
"-79.40","43.63","TORONTO ISLAND A","6158665","1993-04-20 09:00","1993","04","20","09:00","","4.9","","3.9","","93","","8","","19","","4.0","","99.57","","","","","","Rain,Fog"
"-79.40","43.63","TORONTO ISLAND A","6158665","1993-04-20 10:00","1993","04","20","10:00","","5.1","","4.3","","94","","8","","30","","3.6","","99.54","","","","","","Fog"
"-79.40","43.63","TORONTO ISLAND A","6158665","1993-04-20 11:00","1993","04","20","11:00","","6.2","","5.4","","94","","8","","24","","4.8","","99.51","","","","","","Fog"
"-79.40","43.63","TORONTO ISLAND A","6158665","1993-04-20 12:00","1993","04","20","12:00","","7.4","","6.3","","93","","9","","26","","6.4","","99.47","","","","","","Fog"
"-79.40","43.63","TORONTO ISLAND A","6158665","1993-04-20 13:00","1993","04","20","13:00","","7.5","","5.6","","88","","9","","31","","6.4","","99.47","","","","","","Fog"
"-79.40","43.63","TORONTO ISLAND A","6158665","1993-04-20 14:00","1993","04","20","14:00","","7.4","","5.5","","88","","9","","30","","9.7","","99.37","","","","","","Fog"
"-79.40","43.63","TORONTO ISLAND A","6158665","1993-04-20 15:00","1993","04","20","15:00","","7.7","","6.1","","90","","10","","22","","9.7","","99.37","","","","","","Haze"
"-79.40","43.63","TORONTO ISLAND A","6158665","1993-04-20 16:00","1993","04","20","16:00","","11.2","","7.3","","77","","9","","9","","12.9","","99.47","","","","","","Cloudy"
"-79.40","43.63","TORONTO ISLAND A","6158665","1993-04-20 17:00","1993","04","20","17:00","","8.8","","5.3","","79","","9","","11","","12.9","","99.51","","","","","","Cloudy"
"-79.40","43.63","TORONTO ISLAND A","6158665","1993-04-20 18:00","1993","04","20","18:00","","10.9","","8.1","","83","","29","","7","","12.9","","99.57","","","","","","Thunderstorms,Rain Showers"
"-79.40","43.63","TORONTO ISLAND A","6158665","1993-04-20 19:00","1993","04","20","19:00","","12.4","","10.0","","85","","29","","7","","12.9","","99.57","","","","","","Rain Showers"
"-79.40","43.63","TORONTO ISLAND A","6158665","1993-04-20 20:00","1993","04","20","20:00","","8.4","","7.3","","93","","15","","11","","14.5","","99.68","","","","","","Cloudy"
"-79.40","43.63","TORONTO ISLAND A","6158665","1993-04-20 21:00","1993","04","20","21:00","","7.1","","5.9","","92","","","","0","","12.9","","99.74","","","","","","Rain Showers"
"-79.40","43.63","TORONTO ISLAND A","6158665","1993-04-20 22:00","1993","04","20","22:00","","","","","","","","35","","22","","","","","","","","","","NA"
"-79.40","43.63","TORONTO ISLAND A","6158665","1993-04-20 23:00","1993","04","20","23:00","","","","","","","","35","","24","","","","","","","","","","NA"
"-79.40","43.63","TORONTO ISLAND A","6158665","1993-04-21 00:00","1993","04","21","00:00","","","","","","","","34","","31","","","","","","","","","","NA"
"-79.40","43.63","TORONTO ISLAND A","6158665","1993-04-21 01:00","1993","04","21","01:00","","","","","","","","34","","31","","","","","","","","","","NA"
"-79.40","43.63","TORONTO ISLAND A","6158665","1993-04-21 02:00","1993","04","21","02:00","","","","","","","","34","","31","","","","","","","","","","NA"
"-79.40","43.63","TORONTO ISLAND A","6158665","1993-04-21 03:00","1993","04","21","03:00","","","","","","","","35","","26","","","","","","","","","","NA"
"-79.40","43.63","TORONTO ISLAND A","6158665","1993-04-21 04:00","1993","04","21","04:00","","","","","","","","35","","28","","","","","","","","","","NA"
"-79.40","43.63","TORONTO ISLAND A","6158665","1993-04-21 05:00","1993","04","21","05:00","","","","","","","","36","","11","","","","","","","","","","NA"
"-79.40","43.63","TORONTO ISLAND A","6158665","1993-04-21 06:00","1993","04","21","06:00","","2.0","","-0.8","","82","","34","","20","","9.7","","100.21","","","","","","Rain Showers"
"-79.40","43.63","TORONTO ISLAND A","6158665","1993-04-21 07:00","1993","04","21","07:00","","1.8","","-0.8","","83","","2","","24","","12.9","","100.28","","","","","","Ice Pellets,Snow Showers"
"-79.40","43.63","TORONTO ISLAND A","6158665","1993-04-21 08:00","1993","04","21","08:00","","1.9","","-1.6","","78","","36","","19","","24.1","","100.31","","","","","","Snow Grains"
"-79.40","43.63","TORONTO ISLAND A","6158665","1993-04-21 09:00","1993","04","21","09:00","","2.2","","-1.9","","74","","33","","13","","14.5","","100.38","","","","","","Snow"
"-79.40","43.63","TORONTO ISLAND A","6158665","1993-04-21 10:00","1993","04","21","10:00","","1.5","","-1.3","","82","","33","","22","","4.0","","100.45","","","","","","Snow Pellets,Fog"
"-79.40","43.63","TORONTO ISLAND A","6158665","1993-04-21 11:00","1993","04","21","11:00","","2.1","","-1.2","","79","","33","","22","","3.6","","100.48","","","","","","Snow"
"-79.40","43.63","TORONTO ISLAND A","6158665","1993-04-21 12:00","1993","04","21","12:00","","3.2","","-2.0","","69","","1","","19","","24.1","","100.52","","","","","","Snow"
"-79.40","43.63","TORONTO ISLAND A","6158665","1993-04-21 13:00","1993","04","21","13:00","","4.1","","-1.9","","65","","34","","24","","24.1","","100.52","","","","","","Cloudy"
"-79.40","43.63","TORONTO ISLAND A","6158665","1993-04-21 14:00","1993","04","21","14:00","","5.3","","-2.0","","59","","1","","28","","24.1","","100.52","","","","","","Cloudy"
"-79.40","43.63","TORONTO ISLAND A","6158665","1993-04-21 15:00","1993","04","21","15:00","","6.0","","-2.3","","55","","1","","28","","24.1","","100.55","","","","","","Mostly Cloudy"
"-79.40","43.63","TORONTO ISLAND A","6158665","1993-04-21 16:00","1993","04","21","16:00","","7.2","","-2.3","","51","","36","","28","","24.1","","100.58","","","","","","Mostly Cloudy"
"-79.40","43.63","TORONTO ISLAND A","6158665","1993-04-21 17:00","1993","04","21","17:00","","7.3","","-3.1","","48","","36","","30","","24.1","","100.65","","","","","","Mostly Cloudy"
"-79.40","43.63","TORONTO ISLAND A","6158665","1993-04-21 18:00","1993","04","21","18:00","","7.2","","-3.1","","48","","2","","30","","24.1","","100.62","","","","","","Mostly Cloudy"
"-79.40","43.63","TORONTO ISLAND A","6158665","1993-04-21 19:00","1993","04","21","19:00","","6.5","","-1.9","","55","","36","","22","","24.1","","100.62","","","","","","Mostly Cloudy"
"-79.40","43.63","TORONTO ISLAND A","6158665","1993-04-21 20:00","1993","04","21","20:00","","3.1","","-0.5","","77","","12","","11","","24.1","","100.75","","","","","","Mostly Cloudy"
"-79.40","43.63","TORONTO ISLAND A","6158665","1993-04-21 21:00","1993","04","21","21:00","","3.0","","-0.6","","77","","12","","6","","24.1","","100.82","","","","","","Mostly Cloudy"
"-79.40","43.63","TORONTO ISLAND A","6158665","1993-04-21 22:00","1993","04","21","22:00","","","","","","","","25","","4","","","","","","","","","","NA"
"-79.40","43.63","TORONTO ISLAND A","6158665","1993-04-21 23:00","1993","04","21","23:00","","","","","","","","26","","6","","","","","","","","","","NA"
"-79.40","43.63","TORONTO ISLAND A","6158665","1993-04-22 00:00","1993","04","22","00:00","","","","","","","","29","","7","","","","","","","","","","NA"
"-79.40","43.63","TORONTO ISLAND A","6158665","1993-04-22 01:00","1993","04","22","01:00","","","","","","","","31","","7","","","","","","","","","","NA"
"-79.40","43.63","TORONTO ISLAND A","6158665","1993-04-22 02:00","1993","04","22","02:00","","","","","","","","33","","11","","","","","","","","","","NA"
"-79.40","43.63","TORONTO ISLAND A","6158665","1993-04-22 03:00","1993","04","22","03:00","","","","","","","","33","","11","","","","","","","","","","NA"
"-79.40","43.63","TORONTO ISLAND A","6158665","1993-04-22 04:00","1993","04","22","04:00","","","","","","","","34","","15","","","","","","","","","","NA"
"-79.40","43.63","TORONTO ISLAND A","6158665","1993-04-22 05:00","1993","04","22","05:00","","","","","","","","35","","17","","","","","","","","","","NA"
"-79.40","43.63","TORONTO ISLAND A","6158665","1993-04-22 06:00","1993","04","22","06:00","","3.3","","-5.8","","51","","35","","13","","24.1","","100.48","","","","","","Mostly Cloudy"
"-79.40","43.63","TORONTO ISLAND A","6158665","1993-04-22 07:00","1993","04","22","07:00","","3.2","","-5.3","","54","","34","","17","","24.1","","100.48","","","","","","Mostly Cloudy"
"-79.40","43.63","TORONTO ISLAND A","6158665","1993-04-22 08:00","1993","04","22","08:00","","4.4","","-5.3","","49","","34","","19","","24.1","","100.42","","","","","","Mostly Cloudy"
"-79.40","43.63","TORONTO ISLAND A","6158665","1993-04-22 09:00","1993","04","22","09:00","","6.2","","-5.6","","42","","35","","17","","24.1","","100.35","","","","","","Mostly Cloudy"
"-79.40","43.63","TORONTO ISLAND A","6158665","1993-04-22 10:00","1993","04","22","10:00","","7.5","","-6.8","","35","","36","","19","","24.1","","100.31","","","","","","Mostly Cloudy"
"-79.40","43.63","TORONTO ISLAND A","6158665","1993-04-22 11:00","1993","04","22","11:00","","8.6","","-6.9","","33","","2","","28","","24.1","","100.25","","","","","","Mostly Cloudy"
"-79.40","43.63","TORONTO ISLAND A","6158665","1993-04-22 12:00","1993","04","22","12:00","","9.5","","-7.0","","30","","2","","37","","24.1","","100.18","","","","","","Mostly Cloudy"
"-79.40","43.63","TORONTO ISLAND A","6158665","1993-04-22 13:00","1993","04","22","13:00","","10.2","","-7.1","","29","","36","","28","","24.1","","100.11","","","","","","Mostly Cloudy"
"-79.40","43.63","TORONTO ISLAND A","6158665","1993-04-22 14:00","1993","04","22","14:00","","10.6","","-7.5","","27","","36","","28","","24.1","","100.05","","","","","","Mostly Cloudy"
"-79.40","43.63","TORONTO ISLAND A","6158665","1993-04-22 15:00","1993","04","22","15:00","","11.7","","-6.9","","26","","36","","28","","24.1","","99.98","","","","","","Mostly Cloudy"
"-79.40","43.63","TORONTO ISLAND A","6158665","1993-04-22 16:00","1993","04","22","16:00","","11.4","","-5.4","","30","","35","","28","","24.1","","99.94","","","","","","Mostly Cloudy"
"-79.40","43.63","TORONTO ISLAND A","6158665","1993-04-22 17:00","1993","04","22","17:00","","11.2","","-5.6","","30","","33","","30","","24.1","","99.91","","","","","","Mostly Cloudy"
"-79.40","43.63","TORONTO ISLAND A","6158665","1993-04-22 18:00","1993","04","22","18:00","","11.0","","-6.4","","29","","34","","26","","24.1","","99.88","","","","","","Mostly Cloudy"
"-79.40","43.63","TORONTO ISLAND A","6158665","1993-04-22 19:00","1993","04","22","19:00","","10.3","","-6.9","","29","","34","","19","","24.1","","99.88","","","","","","Mainly Clear"
"-79.40","43.63","TORONTO ISLAND A","6158665","1993-04-22 20:00","1993","04","22","20:00","","9.7","","-6.0","","32","","34","","28","","24.1","","99.88","","","","","","Mostly Cloudy"
"-79.40","43.63","TORONTO ISLAND A","6158665","1993-04-22 21:00","1993","04","22","21:00","","9.2","","-6.1","","33","","34","","26","","24.1","","99.91","","","","","","Cloudy"
"-79.40","43.63","TORONTO ISLAND A","6158665","1993-04-22 22:00","1993","04","22","22:00","","","","","","","","31","","30","","","","","","","","","","NA"
"-79.40","43.63","TORONTO ISLAND A","6158665","1993-04-22 23:00","1993","04","22","23:00","","","","","","","","31","","26","","","","","","","","","","NA"
"-79.40","43.63","TORONTO ISLAND A","6158665","1993-04-23 00:00","1993","04","23","00:00","","","","","","","","32","","20","","","","","","","","","","NA"
"-79.40","43.63","TORONTO ISLAND A","6158665","1993-04-23 01:00","1993","04","23","01:00","","","","","","","","33","","26","","","","","","","","","","NA"
"-79.40","43.63","TORONTO ISLAND A","6158665","1993-04-23 02:00","1993","04","23","02:00","","","","","","","","33","","24","","","","","","","","","","NA"
"-79.40","43.63","TORONTO ISLAND A","6158665","1993-04-23 03:00","1993","04","23","03:00","","","","","","","","34","","19","","","","","","","","","","NA"
"-79.40","43.63","TORONTO ISLAND A","6158665","1993-04-23 04:00","1993","04","23","04:00","","","","","","","","33","","22","","","","","","","","","","NA"
"-79.40","43.63","TORONTO ISLAND A","6158665","1993-04-23 05:00","1993","04","23","05:00","","","","","","","","33","","17","","","","","","","","","","NA"
"-79.40","43.63","TORONTO ISLAND A","6158665","1993-04-23 06:00","1993","04","23","06:00","","7.1","","-4.1","","45","","33","","22","","24.1","","99.84","","","","","","Mostly Cloudy"
"-79.40","43.63","TORONTO ISLAND A","6158665","1993-04-23 07:00","1993","04","23","07:00","","8.1","","-4.2","","41","","33","","22","","24.1","","99.94","","","","","","Mostly Cloudy"
"-79.40","43.63","TORONTO ISLAND A","6158665","1993-04-23 08:00","1993","04","23","08:00","","9.9","","-3.7","","38","","32","","24","","24.1","","99.94","","","","","","Mainly Clear"
"-79.40","43.63","TORONTO ISLAND A","6158665","1993-04-23 09:00","1993","04","23","09:00","","11.9","","-4.0","","33","","33","","26","","24.1","","99.98","","","","","","Mainly Clear"
"-79.40","43.63","TORONTO ISLAND A","6158665","1993-04-23 10:00","1993","04","23","10:00","","13.8","","-4.7","","27","","33","","26","","24.1","","99.98","","","","","","Mainly Clear"
"-79.40","43.63","TORONTO ISLAND A","6158665","1993-04-23 11:00","1993","04","23","11:00","","14.9","","-5.4","","24","","35","","30","","24.1","","99.98","","","","","","Clear"
"-79.40","43.63","TORONTO ISLAND A","6158665","1993-04-23 12:00","1993","04","23","12:00","","15.7","","-5.4","","23","","33","","35","","24.1","","99.98","","","","","","Clear"
"-79.40","43.63","TORONTO ISLAND A","6158665","1993-04-23 13:00","1993","04","23","13:00","","15.5","","-6.6","","21","","32","","41","","24.1","","100.01","","","","","","Clear"
"-79.40","43.63","TORONTO ISLAND A","6158665","1993-04-23 14:00","1993","04","23","14:00","","15.9","","-5.0","","23","","32","","33","","25.0","","100.01","","","","","","Clear"
"-79.40","43.63","TORONTO ISLAND A","6158665","1993-04-23 15:00","1993","04","23","15:00","","16.0","","-5.6","","22","","31","","33","","25.0","","100.01","","","","","","Clear"
"-79.40","43.63","TORONTO ISLAND A","6158665","1993-04-23 16:00","1993","04","23","16:00","","16.0","","-4.7","","24","","31","","37","","25.0","","100.05","","","","","","Mainly Clear"
"-79.40","43.63","TORONTO ISLAND A","6158665","1993-04-23 17:00","1993","04","23","17:00","","15.5","","-5.5","","23","","30","","37","","25.0","","100.11","","","","","","Clear"
"-79.40","43.63","TORONTO ISLAND A","6158665","1993-04-23 18:00","1993","04","23","18:00","","14.6","","-4.7","","26","","29","","30","","25.0","","100.15","","","","","","Clear"
"-79.40","43.63","TORONTO ISLAND A","6158665","1993-04-23 19:00","1993","04","23","19:00","","13.5","","-5.4","","26","","29","","22","","25.0","","100.25","","","","","","Clear"
"-79.40","43.63","TORONTO ISLAND A","6158665","1993-04-23 20:00","1993","04","23","20:00","","12.6","","-6.2","","26","","30","","22","","25.0","","100.31","","","","","","Clear"
"-79.40","43.63","TORONTO ISLAND A","6158665","1993-04-23 21:00","1993","04","23","21:00","","11.5","","-5.6","","30","","30","","22","","25.0","","100.42","","","","","","Clear"
"-79.40","43.63","TORONTO ISLAND A","6158665","1993-04-23 22:00","1993","04","23","22:00","","","","","","","","31","","13","","","","","","","","","","NA"
"-79.40","43.63","TORONTO ISLAND A","6158665","1993-04-23 23:00","1993","04","23","23:00","","","","","","","","31","","7","","","","","","","","","","NA"
"-79.40","43.63","TORONTO ISLAND A","6158665","1993-04-24 00:00","1993","04","24","00:00","","","","","","","","27","","7","","","","","","","","","","NA"
"-79.40","43.63","TORONTO ISLAND A","6158665","1993-04-24 01:00","1993","04","24","01:00","","","","","","","","28","","6","","","","","","","","","","NA"
"-79.40","43.63","TORONTO ISLAND A","6158665","1993-04-24 02:00","1993","04","24","02:00","","","","","","","","25","","11","","","","","","","","","","NA"
"-79.40","43.63","TORONTO ISLAND A","6158665","1993-04-24 03:00","1993","04","24","03:00","","","","","","","","28","","4","","","","","","","","","","NA"
"-79.40","43.63","TORONTO ISLAND A","6158665","1993-04-24 04:00","1993","04","24","04:00","","","","","","","","","","0","","","","","","","","","","NA"
"-79.40","43.63","TORONTO ISLAND A","6158665","1993-04-24 05:00","1993","04","24","05:00","","","","","","","","10","","9","","","","","","","","","","NA"
"-79.40","43.63","TORONTO ISLAND A","6158665","1993-04-24 06:00","1993","04","24","06:00","","4.0","","1.0","","81","","","","0","","24.1","","100.72","","","","","","Mostly Cloudy"
"-79.40","43.63","TORONTO ISLAND A","6158665","1993-04-24 07:00","1993","04","24","07:00","","5.6","","0.9","","72","","9","","11","","24.1","","100.72","","","","","","Mainly Clear"
"-79.40","43.63","TORONTO ISLAND A","6158665","1993-04-24 08:00","1993","04","24","08:00","","6.4","","1.4","","70","","11","","7","","24.1","","100.75","","","","","","Mostly Cloudy"
"-79.40","43.63","TORONTO ISLAND A","6158665","1993-04-24 09:00","1993","04","24","09:00","","7.4","","0.7","","63","","8","","13","","24.1","","100.72","","","","","","Mostly Cloudy"
"-79.40","43.63","TORONTO ISLAND A","6158665","1993-04-24 10:00","1993","04","24","10:00","","6.9","","0.8","","65","","10","","15","","16.1","","100.72","","","","","","Cloudy"
"-79.40","43.63","TORONTO ISLAND A","6158665","1993-04-24 11:00","1993","04","24","11:00","","7.2","","1.3","","66","","9","","20","","24.1","","100.65","","","","","","Cloudy"
"-79.40","43.63","TORONTO ISLAND A","6158665","1993-04-24 12:00","1993","04","24","12:00","","7.6","","2.2","","69","","10","","20","","24.1","","100.55","","","","","","Rain"
"-79.40","43.63","TORONTO ISLAND A","6158665","1993-04-24 13:00","1993","04","24","13:00","","7.7","","3.1","","73","","9","","19","","12.9","","100.42","","","","","","Rain"
"-79.40","43.63","TORONTO ISLAND A","6158665","1993-04-24 14:00","1993","04","24","14:00","","8.2","","3.6","","73","","8","","15","","12.9","","100.35","","","","","","Rain"
"-79.40","43.63","TORONTO ISLAND A","6158665","1993-04-24 15:00","1993","04","24","15:00","","8.8","","4.3","","73","","7","","22","","16.1","","100.31","","","","","","Moderate Rain Showers"
"-79.40","43.63","TORONTO ISLAND A","6158665","1993-04-24 16:00","1993","04","24","16:00","","7.0","","5.0","","87","","10","","26","","14.5","","100.18","","","","","","Rain Showers"
"-79.40","43.63","TORONTO ISLAND A","6158665","1993-04-24 17:00","1993","04","24","17:00","","7.7","","4.8","","82","","12","","24","","16.1","","100.11","","","","","","Cloudy"
"-79.40","43.63","TORONTO ISLAND A","6158665","1993-04-24 18:00","1993","04","24","18:00","","7.8","","4.8","","81","","12","","24","","16.1","","100.01","","","","","","Cloudy"
"-79.40","43.63","TORONTO ISLAND A","6158665","1993-04-24 19:00","1993","04","24","19:00","","6.9","","4.7","","86","","9","","19","","16.1","","99.94","","","","","","Cloudy"
"-79.40","43.63","TORONTO ISLAND A","6158665","1993-04-24 20:00","1993","04","24","20:00","","7.3","","4.7","","84","","9","","19","","19.3","","99.88","","","","","","Cloudy"
"-79.40","43.63","TORONTO ISLAND A","6158665","1993-04-24 21:00","1993","04","24","21:00","","8.1","","4.9","","80","","9","","13","","19.3","","99.94","","","","","","Cloudy"
"-79.40","43.63","TORONTO ISLAND A","6158665","1993-04-24 22:00","1993","04","24","22:00","","","","","","","","9","","15","","","","","","","","","","NA"
"-79.40","43.63","TORONTO ISLAND A","6158665","1993-04-24 23:00","1993","04","24","23:00","","","","","","","","10","","15","","","","","","","","","","NA"
"-79.40","43.63","TORONTO ISLAND A","6158665","1993-04-25 00:00","1993","04","25","00:00","","","","","","","","11","","13","","","","","","","","","","NA"
"-79.40","43.63","TORONTO ISLAND A","6158665","1993-04-25 01:00","1993","04","25","01:00","","","","","","","","33","","4","","","","","","","","","","NA"
"-79.40","43.63","TORONTO ISLAND A","6158665","1993-04-25 02:00","1993","04","25","02:00","","","","","","","","18","","11","","","","","","","","","","NA"
"-79.40","43.63","TORONTO ISLAND A","6158665","1993-04-25 03:00","1993","04","25","03:00","","","","","","","","19","","7","","","","","","","","","","NA"
"-79.40","43.63","TORONTO ISLAND A","6158665","1993-04-25 04:00","1993","04","25","04:00","","","","","","","","23","","9","","","","","","","","","","NA"
"-79.40","43.63","TORONTO ISLAND A","6158665","1993-04-25 05:00","1993","04","25","05:00","","","","","","","","25","","11","","","","","","","","","","NA"
"-79.40","43.63","TORONTO ISLAND A","6158665","1993-04-25 06:00","1993","04","25","06:00","","8.8","","6.9","","88","","23","","17","","9.7","","99.71","","","","","","Fog"
"-79.40","43.63","TORONTO ISLAND A","6158665","1993-04-25 07:00","1993","04","25","07:00","","7.7","","6.4","","91","","21","","17","","8.0","","99.71","","","","","","Rain,Fog"
"-79.40","43.63","TORONTO ISLAND A","6158665","1993-04-25 08:00","1993","04","25","08:00","","7.0","","6.4","","96","","24","","11","","2.0","","99.74","","","","","","Moderate Rain,Fog"
"-79.40","43.63","TORONTO ISLAND A","6158665","1993-04-25 09:00","1993","04","25","09:00","","7.3","","6.8","","97","","25","","9","","0.8","","99.74","","","","","","Moderate Rain,Fog"
"-79.40","43.63","TORONTO ISLAND A","6158665","1993-04-25 10:00","1993","04","25","10:00","","8.0","","7.7","","98","","23","","9","","0.2","","99.78","","","","","","Rain,Fog"
"-79.40","43.63","TORONTO ISLAND A","6158665","1993-04-25 11:00","1993","04","25","11:00","","9.3","","8.2","","93","","34","","9","","4.0","","99.88","","","","","","Rain,Fog"
"-79.40","43.63","TORONTO ISLAND A","6158665","1993-04-25 12:00","1993","04","25","12:00","","11.7","","10.3","","91","","28","","13","","11.3","","99.88","","","","","","Rain"
"-79.40","43.63","TORONTO ISLAND A","6158665","1993-04-25 13:00","1993","04","25","13:00","","12.3","","9.9","","85","","28","","19","","19.3","","100.01","","","","","","Cloudy"
"-79.40","43.63","TORONTO ISLAND A","6158665","1993-04-25 14:00","1993","04","25","14:00","","11.7","","8.1","","79","","33","","22","","24.1","","100.18","","","","","","Cloudy"
"-79.40","43.63","TORONTO ISLAND A","6158665","1993-04-25 15:00","1993","04","25","15:00","","11.5","","6.5","","71","","28","","26","","24.1","","100.25","","","","","","Mostly Cloudy"
"-79.40","43.63","TORONTO ISLAND A","6158665","1993-04-25 16:00","1993","04","25","16:00","","10.7","","5.0","","68","","32","","19","","24.1","","100.28","","","","","","Mostly Cloudy"
"-79.40","43.63","TORONTO ISLAND A","6158665","1993-04-25 17:00","1993","04","25","17:00","","10.8","","4.7","","66","","33","","11","","24.1","","100.42","","","","","","Cloudy"
"-79.40","43.63","TORONTO ISLAND A","6158665","1993-04-25 18:00","1993","04","25","18:00","","9.8","","4.3","","69","","2","","28","","24.1","","100.45","","","","","","Cloudy"
"-79.40","43.63","TORONTO ISLAND A","6158665","1993-04-25 19:00","1993","04","25","19:00","","8.7","","3.2","","68","","34","","13","","24.1","","100.62","","","","","","Cloudy"
"-79.40","43.63","TORONTO ISLAND A","6158665","1993-04-25 20:00","1993","04","25","20:00","","8.7","","3.3","","69","","34","","9","","24.1","","100.68","","","","","","Cloudy"
"-79.40","43.63","TORONTO ISLAND A","6158665","1993-04-25 21:00","1993","04","25","21:00","","8.6","","3.5","","70","","33","","7","","24.1","","100.72","","","","","","Cloudy"
"-79.40","43.63","TORONTO ISLAND A","6158665","1993-04-25 22:00","1993","04","25","22:00","","","","","","","","32","","15","","","","","","","","","","NA"
"-79.40","43.63","TORONTO ISLAND A","6158665","1993-04-25 23:00","1993","04","25","23:00","","","","","","","","33","","19","","","","","","","","","","NA"
"-79.40","43.63","TORONTO ISLAND A","6158665","1993-04-26 00:00","1993","04","26","00:00","","","","","","","","34","","22","","","","","","","","","","NA"
"-79.40","43.63","TORONTO ISLAND A","6158665","1993-04-26 01:00","1993","04","26","01:00","","","","","","","","35","","22","","","","","","","","","","NA"
"-79.40","43.63","TORONTO ISLAND A","6158665","1993-04-26 02:00","1993","04","26","02:00","","","","","","","","34","","22","","","","","","","","","","NA"
"-79.40","43.63","TORONTO ISLAND A","6158665","1993-04-26 03:00","1993","04","26","03:00","","","","","","","","35","","20","","","","","","","","","","NA"
"-79.40","43.63","TORONTO ISLAND A","6158665","1993-04-26 04:00","1993","04","26","04:00","","","","","","","","1","","24","","","","","","","","","","NA"
"-79.40","43.63","TORONTO ISLAND A","6158665","1993-04-26 05:00","1993","04","26","05:00","","","","","","","","1","","22","","","","","","","","","","NA"
"-79.40","43.63","TORONTO ISLAND A","6158665","1993-04-26 06:00","1993","04","26","06:00","","4.8","","0.2","","72","","1","","24","","24.1","","101.15","","","","","","Cloudy"
"-79.40","43.63","TORONTO ISLAND A","6158665","1993-04-26 07:00","1993","04","26","07:00","","4.1","","-0.8","","70","","1","","24","","19.3","","101.22","","","","","","Cloudy"
"-79.40","43.63","TORONTO ISLAND A","6158665","1993-04-26 08:00","1993","04","26","08:00","","4.2","","-1.2","","68","","35","","19","","24.1","","101.32","","","","","","Cloudy"
"-79.40","43.63","TORONTO ISLAND A","6158665","1993-04-26 09:00","1993","04","26","09:00","","3.7","","-2.0","","66","","36","","22","","24.1","","101.39","","","","","","Cloudy"
"-79.40","43.63","TORONTO ISLAND A","6158665","1993-04-26 10:00","1993","04","26","10:00","","3.8","","-2.6","","63","","36","","17","","24.1","","101.46","","","","","","Cloudy"
"-79.40","43.63","TORONTO ISLAND A","6158665","1993-04-26 11:00","1993","04","26","11:00","","4.2","","-2.8","","60","","2","","19","","24.1","","101.52","","","","","","Cloudy"
"-79.40","43.63","TORONTO ISLAND A","6158665","1993-04-26 12:00","1993","04","26","12:00","","4.8","","-4.3","","52","","1","","24","","24.1","","101.52","","","","","","Cloudy"
"-79.40","43.63","TORONTO ISLAND A","6158665","1993-04-26 13:00","1993","04","26","13:00","","5.2","","-4.6","","49","","1","","19","","24.1","","101.52","","","","","","Cloudy"
"-79.40","43.63","TORONTO ISLAND A","6158665","1993-04-26 14:00","1993","04","26","14:00","","6.9","","-3.7","","47","","6","","19","","24.1","","101.49","","","","","","Cloudy"
"-79.40","43.63","TORONTO ISLAND A","6158665","1993-04-26 15:00","1993","04","26","15:00","","6.7","","-3.9","","47","","3","","15","","25.0","","101.46","","","","","","Cloudy"
"-79.40","43.63","TORONTO ISLAND A","6158665","1993-04-26 16:00","1993","04","26","16:00","","7.4","","-4.4","","43","","4","","11","","25.0","","101.49","","","","","","Cloudy"
"-79.40","43.63","TORONTO ISLAND A","6158665","1993-04-26 17:00","1993","04","26","17:00","","5.4","","-1.2","","62","","22","","11","","25.0","","101.52","","","","","","Mostly Cloudy"
"-79.40","43.63","TORONTO ISLAND A","6158665","1993-04-26 18:00","1993","04","26","18:00","","4.0","","-0.1","","74","","24","","11","","25.0","","101.59","","","","","","Mostly Cloudy"
"-79.40","43.63","TORONTO ISLAND A","6158665","1993-04-26 19:00","1993","04","26","19:00","","3.4","","0.3","","80","","24","","9","","25.0","","101.59","","","","","","Mostly Cloudy"
"-79.40","43.63","TORONTO ISLAND A","6158665","1993-04-26 20:00","1993","04","26","20:00","","3.2","","-0.4","","77","","25","","9","","25.0","","101.73","","","","","","Mainly Clear"
"-79.40","43.63","TORONTO ISLAND A","6158665","1993-04-26 21:00","1993","04","26","21:00","","4.4","","-5.5","","48","","35","","7","","25.0","","101.76","","","","","","Clear"
"-79.40","43.63","TORONTO ISLAND A","6158665","1993-04-26 22:00","1993","04","26","22:00","","","","","","","","35","","6","","","","","","","","","","NA"
"-79.40","43.63","TORONTO ISLAND A","6158665","1993-04-26 23:00","1993","04","26","23:00","","","","","","","","34","","11","","","","","","","","","","NA"
"-79.40","43.63","TORONTO ISLAND A","6158665","1993-04-27 00:00","1993","04","27","00:00","","","","","","","","35","","15","","","","","","","","","","NA"
"-79.40","43.63","TORONTO ISLAND A","6158665","1993-04-27 01:00","1993","04","27","01:00","","","","","","","","35","","9","","","","","","","","","","NA"
"-79.40","43.63","TORONTO ISLAND A","6158665","1993-04-27 02:00","1993","04","27","02:00","","","","","","","","31","","4","","","","","","","","","","NA"
"-79.40","43.63","TORONTO ISLAND A","6158665","1993-04-27 03:00","1993","04","27","03:00","","","","","","","","33","","7","","","","","","","","","","NA"
"-79.40","43.63","TORONTO ISLAND A","6158665","1993-04-27 04:00","1993","04","27","04:00","","","","","","","","34","","4","","","","","","","","","","NA"
"-79.40","43.63","TORONTO ISLAND A","6158665","1993-04-27 05:00","1993","04","27","05:00","","","","","","","","24","","6","","","","","","","","","","NA"
"-79.40","43.63","TORONTO ISLAND A","6158665","1993-04-27 06:00","1993","04","27","06:00","","2.3","","-4.3","","62","","7","","9","","24.1","","102.06","","","","","","Clear"
"-79.40","43.63","TORONTO ISLAND A","6158665","1993-04-27 07:00","1993","04","27","07:00","","2.8","","-3.1","","65","","9","","11","","24.1","","102.06","","","","","","Clear"
"-79.40","43.63","TORONTO ISLAND A","6158665","1993-04-27 08:00","1993","04","27","08:00","","4.2","","-5.0","","51","","9","","19","","24.1","","102.13","","","","","","Clear"
"-79.40","43.63","TORONTO ISLAND A","6158665","1993-04-27 09:00","1993","04","27","09:00","","4.8","","-3.8","","54","","10","","15","","24.1","","102.16","","","","","","Clear"
"-79.40","43.63","TORONTO ISLAND A","6158665","1993-04-27 10:00","1993","04","27","10:00","","4.8","","-3.6","","54","","12","","11","","24.1","","102.20","","","","","","Clear"
"-79.40","43.63","TORONTO ISLAND A","6158665","1993-04-27 11:00","1993","04","27","11:00","","5.4","","-2.6","","56","","14","","9","","25.0","","102.20","","","","","","Clear"
"-79.40","43.63","TORONTO ISLAND A","6158665","1993-04-27 12:00","1993","04","27","12:00","","5.9","","-3.5","","51","","13","","11","","25.0","","102.20","","","","","","Mainly Clear"
"-79.40","43.63","TORONTO ISLAND A","6158665","1993-04-27 13:00","1993","04","27","13:00","","6.2","","-5.2","","44","","12","","11","","25.0","","102.16","","","","","","Mainly Clear"
"-79.40","43.63","TORONTO ISLAND A","6158665","1993-04-27 14:00","1993","04","27","14:00","","7.0","","-3.5","","47","","14","","7","","25.0","","102.10","","","","","","Mostly Cloudy"
"-79.40","43.63","TORONTO ISLAND A","6158665","1993-04-27 15:00","1993","04","27","15:00","","7.4","","-6.0","","38","","10","","9","","25.0","","102.00","","","","","","Mostly Cloudy"
"-79.40","43.63","TORONTO ISLAND A","6158665","1993-04-27 16:00","1993","04","27","16:00","","6.6","","-3.2","","49","","9","","13","","25.0","","102.00","","","","","","Cloudy"
"-79.40","43.63","TORONTO ISLAND A","6158665","1993-04-27 17:00","1993","04","27","17:00","","6.4","","-6.9","","38","","10","","17","","25.0","","101.93","","","","","","Cloudy"
"-79.40","43.63","TORONTO ISLAND A","6158665","1993-04-27 18:00","1993","04","27","18:00","","5.8","","-3.9","","50","","9","","15","","25.0","","101.89","","","","","","Cloudy"
"-79.40","43.63","TORONTO ISLAND A","6158665","1993-04-27 19:00","1993","04","27","19:00","","5.1","","-6.8","","42","","9","","17","","25.0","","101.89","","","","","","Mostly Cloudy"
"-79.40","43.63","TORONTO ISLAND A","6158665","1993-04-27 20:00","1993","04","27","20:00","","5.0","","-6.7","","42","","8","","19","","25.0","","101.89","","","","","","Clear"
"-79.40","43.63","TORONTO ISLAND A","6158665","1993-04-27 21:00","1993","04","27","21:00","","4.4","","-5.3","","49","","9","","19","","25.0","","101.89","","","","","","Clear"
"-79.40","43.63","TORONTO ISLAND A","6158665","1993-04-27 22:00","1993","04","27","22:00","","","","","","","","9","","15","","","","","","","","","","NA"
"-79.40","43.63","TORONTO ISLAND A","6158665","1993-04-27 23:00","1993","04","27","23:00","","","","","","","","9","","9","","","","","","","","","","NA"
"-79.40","43.63","TORONTO ISLAND A","6158665","1993-04-28 00:00","1993","04","28","00:00","","","","","","","","9","","6","","","","","","","","","","NA"
"-79.40","43.63","TORONTO ISLAND A","6158665","1993-04-28 01:00","1993","04","28","01:00","","","","","","","","8","","11","","","","","","","","","","NA"
"-79.40","43.63","TORONTO ISLAND A","6158665","1993-04-28 02:00","1993","04","28","02:00","","","","","","","","7","","11","","","","","","","","","","NA"
"-79.40","43.63","TORONTO ISLAND A","6158665","1993-04-28 03:00","1993","04","28","03:00","","","","","","","","8","","13","","","","","","","","","","NA"
"-79.40","43.63","TORONTO ISLAND A","6158665","1993-04-28 04:00","1993","04","28","04:00","","","","","","","","8","","9","","","","","","","","","","NA"
"-79.40","43.63","TORONTO ISLAND A","6158665","1993-04-28 05:00","1993","04","28","05:00","","","","","","","","8","","13","","","","","","","","","","NA"
"-79.40","43.63","TORONTO ISLAND A","6158665","1993-04-28 06:00","1993","04","28","06:00","","4.7","","-2.8","","58","","8","","13","","19.3","","101.63","","","","","","Cloudy"
"-79.40","43.63","TORONTO ISLAND A","6158665","1993-04-28 07:00","1993","04","28","07:00","","4.8","","-1.5","","64","","9","","20","","24.1","","101.66","","","","","","Cloudy"
"-79.40","43.63","TORONTO ISLAND A","6158665","1993-04-28 08:00","1993","04","28","08:00","","4.8","","-0.5","","69","","9","","15","","24.1","","101.69","","","","","","Cloudy"
"-79.40","43.63","TORONTO ISLAND A","6158665","1993-04-28 09:00","1993","04","28","09:00","","5.3","","0.3","","70","","9","","19","","24.1","","101.63","","","","","","Cloudy"
"-79.40","43.63","TORONTO ISLAND A","6158665","1993-04-28 10:00","1993","04","28","10:00","","6.1","","1.2","","71","","9","","22","","24.1","","101.56","","","","","","Cloudy"
"-79.40","43.63","TORONTO ISLAND A","6158665","1993-04-28 11:00","1993","04","28","11:00","","5.9","","1.1","","71","","9","","22","","19.3","","101.52","","","","","","Cloudy"
"-79.40","43.63","TORONTO ISLAND A","6158665","1993-04-28 12:00","1993","04","28","12:00","","5.9","","1.0","","71","","9","","26","","24.1","","101.42","","","","","","Cloudy"
"-79.40","43.63","TORONTO ISLAND A","6158665","1993-04-28 13:00","1993","04","28","13:00","","6.5","","1.0","","68","","9","","24","","19.3","","101.39","","","","","","Cloudy"
"-79.40","43.63","TORONTO ISLAND A","6158665","1993-04-28 14:00","1993","04","28","14:00","","8.0","","0.9","","61","","8","","22","","24.1","","101.26","","","","","","Cloudy"
"-79.40","43.63","TORONTO ISLAND A","6158665","1993-04-28 15:00","1993","04","28","15:00","","8.4","","1.5","","62","","8","","22","","24.1","","101.19","","","","","","Mostly Cloudy"
"-79.40","43.63","TORONTO ISLAND A","6158665","1993-04-28 16:00","1993","04","28","16:00","","9.1","","1.7","","60","","8","","19","","24.1","","101.15","","","","","","Mostly Cloudy"
"-79.40","43.63","TORONTO ISLAND A","6158665","1993-04-28 17:00","1993","04","28","17:00","","9.5","","2.2","","60","","9","","20","","24.1","","101.09","","","","","","Mainly Clear"
"-79.40","43.63","TORONTO ISLAND A","6158665","1993-04-28 18:00","1993","04","28","18:00","","9.2","","2.0","","61","","9","","15","","24.1","","101.09","","","","","","Mainly Clear"
"-79.40","43.63","TORONTO ISLAND A","6158665","1993-04-28 19:00","1993","04","28","19:00","","9.8","","1.5","","56","","10","","9","","24.1","","101.12","","","","","","Mainly Clear"
"-79.40","43.63","TORONTO ISLAND A","6158665","1993-04-28 20:00","1993","04","28","20:00","","7.9","","2.8","","70","","9","","15","","24.1","","101.15","","","","","","Mainly Clear"
"-79.40","43.63","TORONTO ISLAND A","6158665","1993-04-28 21:00","1993","04","28","21:00","","7.3","","2.7","","73","","9","","17","","24.1","","101.15","","","","","","Clear"
"-79.40","43.63","TORONTO ISLAND A","6158665","1993-04-28 22:00","1993","04","28","22:00","","","","","","","","9","","15","","","","","","","","","","NA"
"-79.40","43.63","TORONTO ISLAND A","6158665","1993-04-28 23:00","1993","04","28","23:00","","","","","","","","11","","7","","","","","","","","","","NA"
"-79.40","43.63","TORONTO ISLAND A","6158665","1993-04-29 00:00","1993","04","29","00:00","","","","","","","","9","","13","","","","","","","","","","NA"
"-79.40","43.63","TORONTO ISLAND A","6158665","1993-04-29 01:00","1993","04","29","01:00","","","","","","","","26","","7","","","","","","","","","","NA"
"-79.40","43.63","TORONTO ISLAND A","6158665","1993-04-29 02:00","1993","04","29","02:00","","","","","","","","","","0","","","","","","","","","","NA"
"-79.40","43.63","TORONTO ISLAND A","6158665","1993-04-29 03:00","1993","04","29","03:00","","","","","","","","","","0","","","","","","","","","","NA"
"-79.40","43.63","TORONTO ISLAND A","6158665","1993-04-29 04:00","1993","04","29","04:00","","","","","","","","","","0","","","","","","","","","","NA"
"-79.40","43.63","TORONTO ISLAND A","6158665","1993-04-29 05:00","1993","04","29","05:00","","","","","","","","","","0","","","","","","","","","","NA"
"-79.40","43.63","TORONTO ISLAND A","6158665","1993-04-29 06:00","1993","04","29","06:00","","5.6","","3.1","","84","","","","0","","11.3","","101.09","","","","","","Mostly Cloudy"
"-79.40","43.63","TORONTO ISLAND A","6158665","1993-04-29 07:00","1993","04","29","07:00","","8.0","","3.9","","75","","","","0","","11.3","","101.12","","","","","","Mainly Clear"
"-79.40","43.63","TORONTO ISLAND A","6158665","1993-04-29 08:00","1993","04","29","08:00","","10.2","","3.2","","62","","9","","9","","12.9","","101.09","","","","","","Mostly Cloudy"
"-79.40","43.63","TORONTO ISLAND A","6158665","1993-04-29 09:00","1993","04","29","09:00","","9.7","","4.0","","68","","","","0","","11.3","","101.05","","","","","","Mostly Cloudy"
"-79.40","43.63","TORONTO ISLAND A","6158665","1993-04-29 10:00","1993","04","29","10:00","","9.2","","1.5","","58","","9","","6","","19.3","","101.05","","","","","","Cloudy"
"-79.40","43.63","TORONTO ISLAND A","6158665","1993-04-29 11:00","1993","04","29","11:00","","10.3","","2.6","","59","","10","","19","","19.3","","100.95","","","","","","Cloudy"
"-79.40","43.63","TORONTO ISLAND A","6158665","1993-04-29 12:00","1993","04","29","12:00","","10.5","","2.6","","58","","9","","22","","16.1","","100.92","","","","","","Cloudy"
"-79.40","43.63","TORONTO ISLAND A","6158665","1993-04-29 13:00","1993","04","29","13:00","","9.1","","2.6","","64","","9","","15","","16.1","","100.92","","","","","","Cloudy"
"-79.40","43.63","TORONTO ISLAND A","6158665","1993-04-29 14:00","1993","04","29","14:00","","10.6","","3.6","","62","","9","","11","","16.1","","100.82","","","","","","Cloudy"
"-79.40","43.63","TORONTO ISLAND A","6158665","1993-04-29 15:00","1993","04","29","15:00","","11.7","","4.0","","59","","9","","13","","16.1","","100.75","","","","","","Cloudy"
"-79.40","43.63","TORONTO ISLAND A","6158665","1993-04-29 16:00","1993","04","29","16:00","","9.2","","3.9","","69","","9","","17","","16.1","","100.72","","","","","","Cloudy"
"-79.40","43.63","TORONTO ISLAND A","6158665","1993-04-29 17:00","1993","04","29","17:00","","10.2","","3.9","","65","","9","","19","","16.1","","100.68","","","","","","Cloudy"
"-79.40","43.63","TORONTO ISLAND A","6158665","1993-04-29 18:00","1993","04","29","18:00","","9.5","","4.1","","69","","9","","15","","16.1","","100.65","","","","","","Cloudy"
"-79.40","43.63","TORONTO ISLAND A","6158665","1993-04-29 19:00","1993","04","29","19:00","","9.0","","4.0","","71","","","","0","","16.1","","100.65","","","","","","Cloudy"
"-79.40","43.63","TORONTO ISLAND A","6158665","1993-04-29 20:00","1993","04","29","20:00","","5.4","","2.6","","82","","24","","7","","24.1","","100.68","","","","","","Cloudy"
"-79.40","43.63","TORONTO ISLAND A","6158665","1993-04-29 21:00","1993","04","29","21:00","","9.5","","4.0","","69","","9","","15","","24.1","","100.62","","","","","","Mainly Clear"
"-79.40","43.63","TORONTO ISLAND A","6158665","1993-04-29 22:00","1993","04","29","22:00","","","","","","","","27","","4","","","","","","","","","","NA"
"-79.40","43.63","TORONTO ISLAND A","6158665","1993-04-29 23:00","1993","04","29","23:00","","","","","","","","","","0","","","","","","","","","","NA"
"-79.40","43.63","TORONTO ISLAND A","6158665","1993-04-30 00:00","1993","04","30","00:00","","","","","","","","24","","4","","","","","","","","","","NA"
"-79.40","43.63","TORONTO ISLAND A","6158665","1993-04-30 01:00","1993","04","30","01:00","","","","","","","","","","0","","","","","","","","","","NA"
"-79.40","43.63","TORONTO ISLAND A","6158665","1993-04-30 02:00","1993","04","30","02:00","","","","","","","","11","","4","","","","","","","","","","NA"
"-79.40","43.63","TORONTO ISLAND A","6158665","1993-04-30 03:00","1993","04","30","03:00","","","","","","","","18","","15","","","","","","","","","","NA"
"-79.40","43.63","TORONTO ISLAND A","6158665","1993-04-30 04:00","1993","04","30","04:00","","","","","","","","","","0","","","","","","","","","","NA"
"-79.40","43.63","TORONTO ISLAND A","6158665","1993-04-30 05:00","1993","04","30","05:00","","","","","","","","27","","4","","","","","","","","","","NA"
"-79.40","43.63","TORONTO ISLAND A","6158665","1993-04-30 06:00","1993","04","30","06:00","","6.6","","5.8","","94","","20","","9","","0.8","","100.48","","","","","","Fog"
"-79.40","43.63","TORONTO ISLAND A","6158665","1993-04-30 07:00","1993","04","30","07:00","","8.1","","7.3","","94","","24","","15","","0.4","","100.52","","","","","","Rain Showers,Fog"
"-79.40","43.63","TORONTO ISLAND A","6158665","1993-04-30 08:00","1993","04","30","08:00","","7.3","","6.8","","97","","20","","4","","0.4","","100.52","","","","","","Drizzle,Fog"
"-79.40","43.63","TORONTO ISLAND A","6158665","1993-04-30 09:00","1993","04","30","09:00","","7.8","","7.3","","97","","24","","9","","0.2","","100.52","","","","","","Drizzle,Fog"
"-79.40","43.63","TORONTO ISLAND A","6158665","1993-04-30 10:00","1993","04","30","10:00","","7.9","","7.4","","97","","30","","7","","0.2","","100.58","","","","","","Fog"
"-79.40","43.63","TORONTO ISLAND A","6158665","1993-04-30 11:00","1993","04","30","11:00","","9.8","","8.5","","92","","22","","19","","2.4","","100.62","","","","","","Fog"
"-79.40","43.63","TORONTO ISLAND A","6158665","1993-04-30 12:00","1993","04","30","12:00","","10.7","","8.6","","87","","27","","4","","12.9","","100.62","","","","","","Mostly Cloudy"
"-79.40","43.63","TORONTO ISLAND A","6158665","1993-04-30 13:00","1993","04","30","13:00","","11.7","","7.7","","76","","24","","6","","16.1","","100.68","","","","","","Clear"
"-79.40","43.63","TORONTO ISLAND A","6158665","1993-04-30 14:00","1993","04","30","14:00","","11.1","","6.9","","75","","22","","19","","24.1","","100.68","","","","","","Clear"
"-79.40","43.63","TORONTO ISLAND A","6158665","1993-04-30 15:00","1993","04","30","15:00","","13.5","","6.7","","64","","23","","15","","24.1","","100.68","","","","","","Mainly Clear"
"-79.40","43.63","TORONTO ISLAND A","6158665","1993-04-30 16:00","1993","04","30","16:00","","12.8","","5.9","","63","","24","","15","","24.1","","100.68","","","","","","Mainly Clear"
"-79.40","43.63","TORONTO ISLAND A","6158665","1993-04-30 17:00","1993","04","30","17:00","","12.2","","5.2","","62","","22","","13","","24.1","","100.75","","","","","","Mainly Clear"
"-79.40","43.63","TORONTO ISLAND A","6158665","1993-04-30 18:00","1993","04","30","18:00","","10.7","","5.3","","69","","17","","7","","24.1","","100.75","","","","","","Clear"
"-79.40","43.63","TORONTO ISLAND A","6158665","1993-04-30 19:00","1993","04","30","19:00","","9.3","","6.7","","84","","18","","15","","16.1","","100.79","","","","","","Mainly Clear"
"-79.40","43.63","TORONTO ISLAND A","6158665","1993-04-30 20:00","1993","04","30","20:00","","8.9","","6.3","","84","","18","","20","","14.5","","100.82","","","","","","Mostly Cloudy"
"-79.40","43.63","TORONTO ISLAND A","6158665","1993-04-30 21:00","1993","04","30","21:00","","9.1","","5.7","","79","","26","","7","","16.1","","100.89","","","","","","Mostly Cloudy"
"-79.40","43.63","TORONTO ISLAND A","6158665","1993-04-30 22:00","1993","04","30","22:00","","","","","","","","24","","11","","","","","","","","","","NA"
"-79.40","43.63","TORONTO ISLAND A","6158665","1993-04-30 23:00","1993","04","30","23:00","","","","","","","","34","","15","","","","","","","","","","NA"
