"Longitude (x)","Latitude (y)","Station Name","Climate ID","Date/Time (LST)","Year","Month","Day","Time (LST)","Flag","Temp (°C)","Temp Flag","Dew Point Temp (°C)","Dew Point Temp Flag","Rel Hum (%)","Rel Hum Flag","Wind Dir (10s deg)","Wind Dir Flag","Wind Spd (km/h)","Wind Spd Flag","Visibility (km)","Visibility Flag","Stn Press (kPa)","Stn Press Flag","Hmdx","Hmdx Flag","Wind Chill","Wind Chill Flag","Weather"
"-79.40","43.63","TORONTO ISLAND A","6158665","1993-02-01 00:00","1993","02","01","00:00","","","","","","","","23","","30","","","","","","","","","","NA"
"-79.40","43.63","TORONTO ISLAND A","6158665","1993-02-01 01:00","1993","02","01","01:00","","","","","","","","24","","28","","","","","","","","","","NA"
"-79.40","43.63","TORONTO ISLAND A","6158665","1993-02-01 02:00","1993","02","01","02:00","","","","","","","","35","","37","","","","","","","","","","NA"
"-79.40","43.63","TORONTO ISLAND A","6158665","1993-02-01 03:00","1993","02","01","03:00","","","","","","","","34","","28","","","","","","","","","","NA"
"-79.40","43.63","TORONTO ISLAND A","6158665","1993-02-01 04:00","1993","02","01","04:00","","","","","","","","35","","33","","","","","","","","","","NA"
"-79.40","43.63","TORONTO ISLAND A","6158665","1993-02-01 05:00","1993","02","01","05:00","","","","","","","","1","","28","","","","","","","","","","NA"
"-79.40","43.63","TORONTO ISLAND A","6158665","1993-02-01 06:00","1993","02","01","06:00","","","","","","","","36","","30","","","","","","","","","","NA"
"-79.40","43.63","TORONTO ISLAND A","6158665","1993-02-01 07:00","1993","02","01","07:00","","-17.2","","-24.7","","52","","36","","19","","24.1","","100.85","","","","-27","","Clear"
"-79.40","43.63","TORONTO ISLAND A","6158665","1993-02-01 08:00","1993","02","01","08:00","","-17.7","","-24.7","","55","","34","","22","","19.3","","101.02","","","","-28","","Mainly Clear"
"-79.40","43.63","TORONTO ISLAND A","6158665","1993-02-01 09:00","1993","02","01","09:00","","-17.9","","-24.9","","55","","34","","19","","19.3","","101.19","","","","-28","","Clear"
"-79.40","43.63","TORONTO ISLAND A","6158665","1993-02-01 10:00","1993","02","01","10:00","","-17.6","","-25.2","","52","","35","","19","","19.3","","101.26","","","","-27","","Clear"
"-79.40","43.63","TORONTO ISLAND A","6158665","1993-02-01 11:00","1993","02","01","11:00","","-16.3","","-23.6","","53","","33","","28","","19.3","","101.32","","","","-27","","Clear"
"-79.40","43.63","TORONTO ISLAND A","6158665","1993-02-01 12:00","1993","02","01","12:00","","-15.4","","-22.9","","53","","34","","26","","24.1","","101.32","","","","-26","","Clear"
"-79.40","43.63","TORONTO ISLAND A","6158665","1993-02-01 13:00","1993","02","01","13:00","","-14.8","","-22.1","","54","","33","","30","","24.1","","101.36","","","","-26","","Clear"
"-79.40","43.63","TORONTO ISLAND A","6158665","1993-02-01 14:00","1993","02","01","14:00","","-13.6","","-21.2","","53","","33","","28","","24.1","","101.39","","","","-24","","Clear"
"-79.40","43.63","TORONTO ISLAND A","6158665","1993-02-01 15:00","1993","02","01","15:00","","-12.3","","-20.1","","52","","34","","30","","24.1","","101.42","","","","-23","","Clear"
"-79.40","43.63","TORONTO ISLAND A","6158665","1993-02-01 16:00","1993","02","01","16:00","","-11.7","","-18.9","","55","","34","","30","","24.1","","101.49","","","","-22","","Clear"
"-79.40","43.63","TORONTO ISLAND A","6158665","1993-02-01 17:00","1993","02","01","17:00","","-11.4","","-17.6","","60","","32","","28","","24.1","","101.56","","","","-21","","Clear"
"-79.40","43.63","TORONTO ISLAND A","6158665","1993-02-01 18:00","1993","02","01","18:00","","-11.8","","-16.9","","66","","34","","26","","25.0","","101.66","","","","-21","","Clear"
"-79.40","43.63","TORONTO ISLAND A","6158665","1993-02-01 19:00","1993","02","01","19:00","","-12.3","","-18.1","","62","","34","","28","","25.0","","101.79","","","","-22","","Clear"
"-79.40","43.63","TORONTO ISLAND A","6158665","1993-02-01 20:00","1993","02","01","20:00","","-13.0","","-21.8","","48","","1","","26","","25.0","","101.86","","","","-23","","Clear"
"-79.40","43.63","TORONTO ISLAND A","6158665","1993-02-01 21:00","1993","02","01","21:00","","-13.7","","-22.5","","48","","1","","22","","25.0","","101.89","","","","-23","","Clear"
"-79.40","43.63","TORONTO ISLAND A","6158665","1993-02-01 22:00","1993","02","01","22:00","","-14.4","","-23.1","","48","","36","","19","","25.0","","101.96","","","","-23","","Clear"
"-79.40","43.63","TORONTO ISLAND A","6158665","1993-02-01 23:00","1993","02","01","23:00","","","","","","","","36","","24","","","","","","","","","","NA"
"-79.40","43.63","TORONTO ISLAND A","6158665","1993-02-02 00:00","1993","02","02","00:00","","","","","","","","36","","22","","","","","","","","","","NA"
"-79.40","43.63","TORONTO ISLAND A","6158665","1993-02-02 01:00","1993","02","02","01:00","","","","","","","","34","","20","","","","","","","","","","NA"
"-79.40","43.63","TORONTO ISLAND A","6158665","1993-02-02 02:00","1993","02","02","02:00","","","","","","","","1","","9","","","","","","","","","","NA"
"-79.40","43.63","TORONTO ISLAND A","6158665","1993-02-02 03:00","1993","02","02","03:00","","","","","","","","36","","11","","","","","","","","","","NA"
"-79.40","43.63","TORONTO ISLAND A","6158665","1993-02-02 04:00","1993","02","02","04:00","","","","","","","","34","","15","","","","","","","","","","NA"
"-79.40","43.63","TORONTO ISLAND A","6158665","1993-02-02 05:00","1993","02","02","05:00","","","","","","","","36","","7","","","","","","","","","","NA"
"-79.40","43.63","TORONTO ISLAND A","6158665","1993-02-02 06:00","1993","02","02","06:00","","","","","","","","34","","9","","","","","","","","","","NA"
"-79.40","43.63","TORONTO ISLAND A","6158665","1993-02-02 07:00","1993","02","02","07:00","","-15.6","","-22.9","","54","","30","","7","","24.1","","102.23","","","","-21","","Clear"
"-79.40","43.63","TORONTO ISLAND A","6158665","1993-02-02 08:00","1993","02","02","08:00","","-15.7","","-22.6","","56","","34","","6","","19.3","","102.20","","","","-20","","Mostly Cloudy"
"-79.40","43.63","TORONTO ISLAND A","6158665","1993-02-02 09:00","1993","02","02","09:00","","-14.4","","-22.1","","52","","","","0","","19.3","","102.26","","","","","","Mostly Cloudy"
"-79.40","43.63","TORONTO ISLAND A","6158665","1993-02-02 10:00","1993","02","02","10:00","","-13.0","","-21.2","","50","","25","","7","","19.3","","102.26","","","","-18","","Mostly Cloudy"
"-79.40","43.63","TORONTO ISLAND A","6158665","1993-02-02 11:00","1993","02","02","11:00","","-12.0","","-18.6","","58","","24","","11","","19.3","","102.26","","","","-18","","Mostly Cloudy"
"-79.40","43.63","TORONTO ISLAND A","6158665","1993-02-02 12:00","1993","02","02","12:00","","-10.2","","-18.3","","52","","24","","19","","24.1","","102.13","","","","-18","","Mostly Cloudy"
"-79.40","43.63","TORONTO ISLAND A","6158665","1993-02-02 13:00","1993","02","02","13:00","","-8.8","","-13.3","","70","","23","","24","","24.1","","102.00","","","","-17","","Mostly Cloudy"
"-79.40","43.63","TORONTO ISLAND A","6158665","1993-02-02 14:00","1993","02","02","14:00","","-7.4","","-11.5","","72","","24","","26","","24.1","","101.89","","","","-16","","Mainly Clear"
"-79.40","43.63","TORONTO ISLAND A","6158665","1993-02-02 15:00","1993","02","02","15:00","","-6.4","","-11.5","","67","","24","","26","","24.1","","101.76","","","","-14","","Mainly Clear"
"-79.40","43.63","TORONTO ISLAND A","6158665","1993-02-02 16:00","1993","02","02","16:00","","-5.0","","-10.4","","66","","25","","30","","24.1","","101.69","","","","-13","","Clear"
"-79.40","43.63","TORONTO ISLAND A","6158665","1993-02-02 17:00","1993","02","02","17:00","","-4.3","","-9.6","","66","","24","","33","","24.1","","101.63","","","","-12","","Clear"
"-79.40","43.63","TORONTO ISLAND A","6158665","1993-02-02 18:00","1993","02","02","18:00","","-3.9","","-9.0","","67","","24","","37","","24.1","","101.56","","","","-12","","Clear"
"-79.40","43.63","TORONTO ISLAND A","6158665","1993-02-02 19:00","1993","02","02","19:00","","-3.6","","-7.1","","77","","24","","37","","24.1","","101.49","","","","-12","","Clear"
"-79.40","43.63","TORONTO ISLAND A","6158665","1993-02-02 20:00","1993","02","02","20:00","","-3.7","","-6.7","","80","","24","","37","","24.1","","101.36","","","","-12","","Clear"
"-79.40","43.63","TORONTO ISLAND A","6158665","1993-02-02 21:00","1993","02","02","21:00","","-3.4","","-7.3","","74","","25","","37","","24.1","","101.32","","","","-12","","Clear"
"-79.40","43.63","TORONTO ISLAND A","6158665","1993-02-02 22:00","1993","02","02","22:00","","-3.1","","-7.2","","73","","25","","41","","24.1","","101.22","","","","-12","","Clear"
"-79.40","43.63","TORONTO ISLAND A","6158665","1993-02-02 23:00","1993","02","02","23:00","","","","","","","","25","","33","","","","","","","","","","NA"
"-79.40","43.63","TORONTO ISLAND A","6158665","1993-02-03 00:00","1993","02","03","00:00","","","","","","","","25","","33","","","","","","","","","","NA"
"-79.40","43.63","TORONTO ISLAND A","6158665","1993-02-03 01:00","1993","02","03","01:00","","","","","","","","25","","30","","","","","","","","","","NA"
"-79.40","43.63","TORONTO ISLAND A","6158665","1993-02-03 02:00","1993","02","03","02:00","","","","","","","","25","","24","","","","","","","","","","NA"
"-79.40","43.63","TORONTO ISLAND A","6158665","1993-02-03 03:00","1993","02","03","03:00","","","","","","","","25","","26","","","","","","","","","","NA"
"-79.40","43.63","TORONTO ISLAND A","6158665","1993-02-03 04:00","1993","02","03","04:00","","","","","","","","25","","28","","","","","","","","","","NA"
"-79.40","43.63","TORONTO ISLAND A","6158665","1993-02-03 05:00","1993","02","03","05:00","","","","","","","","26","","26","","","","","","","","","","NA"
"-79.40","43.63","TORONTO ISLAND A","6158665","1993-02-03 06:00","1993","02","03","06:00","","","","","","","","26","","22","","","","","","","","","","NA"
"-79.40","43.63","TORONTO ISLAND A","6158665","1993-02-03 07:00","1993","02","03","07:00","","-0.7","","-6.4","","65","","26","","19","","24.1","","101.05","","","","-6","","Cloudy"
"-79.40","43.63","TORONTO ISLAND A","6158665","1993-02-03 08:00","1993","02","03","08:00","","-0.7","","-5.7","","69","","25","","24","","19.3","","101.02","","","","-7","","Mostly Cloudy"
"-79.40","43.63","TORONTO ISLAND A","6158665","1993-02-03 09:00","1993","02","03","09:00","","-0.1","","-5.6","","66","","28","","24","","19.3","","101.02","","","","-6","","Mostly Cloudy"
"-79.40","43.63","TORONTO ISLAND A","6158665","1993-02-03 10:00","1993","02","03","10:00","","0.7","","-4.4","","69","","26","","26","","16.1","","100.99","","","","","","Mostly Cloudy"
"-79.40","43.63","TORONTO ISLAND A","6158665","1993-02-03 11:00","1993","02","03","11:00","","1.5","","-3.1","","71","","26","","33","","16.1","","100.95","","","","","","Mostly Cloudy"
"-79.40","43.63","TORONTO ISLAND A","6158665","1993-02-03 12:00","1993","02","03","12:00","","2.7","","-2.7","","67","","27","","24","","14.5","","100.89","","","","","","Mostly Cloudy"
"-79.40","43.63","TORONTO ISLAND A","6158665","1993-02-03 13:00","1993","02","03","13:00","","3.5","","-2.0","","67","","27","","24","","12.9","","100.82","","","","","","Mostly Cloudy"
"-79.40","43.63","TORONTO ISLAND A","6158665","1993-02-03 14:00","1993","02","03","14:00","","3.5","","-1.4","","70","","27","","22","","12.9","","100.75","","","","","","Mostly Cloudy"
"-79.40","43.63","TORONTO ISLAND A","6158665","1993-02-03 15:00","1993","02","03","15:00","","3.7","","-1.2","","70","","27","","22","","16.1","","100.72","","","","","","Mostly Cloudy"
"-79.40","43.63","TORONTO ISLAND A","6158665","1993-02-03 16:00","1993","02","03","16:00","","4.0","","-1.0","","70","","27","","26","","16.1","","100.72","","","","","","Mainly Clear"
"-79.40","43.63","TORONTO ISLAND A","6158665","1993-02-03 17:00","1993","02","03","17:00","","3.0","","-1.0","","75","","27","","26","","16.1","","100.72","","","","","","Mostly Cloudy"
"-79.40","43.63","TORONTO ISLAND A","6158665","1993-02-03 18:00","1993","02","03","18:00","","2.6","","-1.3","","75","","26","","28","","24.1","","100.68","","","","","","Mostly Cloudy"
"-79.40","43.63","TORONTO ISLAND A","6158665","1993-02-03 19:00","1993","02","03","19:00","","2.3","","-1.2","","78","","27","","26","","24.1","","100.72","","","","","","Mostly Cloudy"
"-79.40","43.63","TORONTO ISLAND A","6158665","1993-02-03 20:00","1993","02","03","20:00","","2.5","","-1.4","","75","","27","","26","","16.1","","100.79","","","","","","Mostly Cloudy"
"-79.40","43.63","TORONTO ISLAND A","6158665","1993-02-03 21:00","1993","02","03","21:00","","3.2","","-3.1","","63","","30","","22","","16.1","","100.85","","","","","","Mostly Cloudy"
"-79.40","43.63","TORONTO ISLAND A","6158665","1993-02-03 22:00","1993","02","03","22:00","","2.6","","-3.9","","62","","33","","22","","24.1","","100.92","","","","","","Clear"
"-79.40","43.63","TORONTO ISLAND A","6158665","1993-02-03 23:00","1993","02","03","23:00","","","","","","","","33","","41","","","","","","","","","","NA"
"-79.40","43.63","TORONTO ISLAND A","6158665","1993-02-04 00:00","1993","02","04","00:00","","","","","","","","33","","46","","","","","","","","","","NA"
"-79.40","43.63","TORONTO ISLAND A","6158665","1993-02-04 01:00","1993","02","04","01:00","","","","","","","","32","","30","","","","","","","","","","NA"
"-79.40","43.63","TORONTO ISLAND A","6158665","1993-02-04 02:00","1993","02","04","02:00","","","","","","","","33","","35","","","","","","","","","","NA"
"-79.40","43.63","TORONTO ISLAND A","6158665","1993-02-04 03:00","1993","02","04","03:00","","","","","","","","33","","31","","","","","","","","","","NA"
"-79.40","43.63","TORONTO ISLAND A","6158665","1993-02-04 04:00","1993","02","04","04:00","","","","","","","","33","","35","","","","","","","","","","NA"
"-79.40","43.63","TORONTO ISLAND A","6158665","1993-02-04 05:00","1993","02","04","05:00","","","","","","","","33","","31","","","","","","","","","","NA"
"-79.40","43.63","TORONTO ISLAND A","6158665","1993-02-04 06:00","1993","02","04","06:00","","","","","","","","34","","28","","","","","","","","","","NA"
"-79.40","43.63","TORONTO ISLAND A","6158665","1993-02-04 07:00","1993","02","04","07:00","","-5.0","","-12.6","","55","","32","","19","","24.1","","101.96","","","","-11","","Clear"
"-79.40","43.63","TORONTO ISLAND A","6158665","1993-02-04 08:00","1993","02","04","08:00","","-5.4","","-12.6","","57","","36","","19","","24.1","","102.06","","","","-12","","Clear"
"-79.40","43.63","TORONTO ISLAND A","6158665","1993-02-04 09:00","1993","02","04","09:00","","-5.5","","-12.6","","57","","33","","19","","24.1","","102.10","","","","-12","","Clear"
"-79.40","43.63","TORONTO ISLAND A","6158665","1993-02-04 10:00","1993","02","04","10:00","","-4.8","","-12.1","","56","","33","","17","","24.1","","102.13","","","","-11","","Clear"
"-79.40","43.63","TORONTO ISLAND A","6158665","1993-02-04 11:00","1993","02","04","11:00","","-3.6","","-10.2","","60","","29","","28","","24.1","","102.20","","","","-11","","Mainly Clear"
"-79.40","43.63","TORONTO ISLAND A","6158665","1993-02-04 12:00","1993","02","04","12:00","","-2.1","","-9.2","","58","","31","","17","","24.1","","102.16","","","","-7","","Mainly Clear"
"-79.40","43.63","TORONTO ISLAND A","6158665","1993-02-04 13:00","1993","02","04","13:00","","0.9","","-8.8","","48","","28","","15","","24.1","","102.06","","","","","","Mainly Clear"
"-79.40","43.63","TORONTO ISLAND A","6158665","1993-02-04 14:00","1993","02","04","14:00","","0.0","","-9.1","","50","","24","","11","","24.1","","101.96","","","","-4","","Mostly Cloudy"
"-79.40","43.63","TORONTO ISLAND A","6158665","1993-02-04 15:00","1993","02","04","15:00","","0.7","","-10.5","","43","","27","","19","","25.0","","101.89","","","","","","Mostly Cloudy"
"-79.40","43.63","TORONTO ISLAND A","6158665","1993-02-04 16:00","1993","02","04","16:00","","0.8","","-7.6","","53","","26","","22","","25.0","","101.86","","","","","","Mostly Cloudy"
"-79.40","43.63","TORONTO ISLAND A","6158665","1993-02-04 17:00","1993","02","04","17:00","","0.6","","-5.2","","65","","25","","22","","25.0","","101.83","","","","","","Mostly Cloudy"
"-79.40","43.63","TORONTO ISLAND A","6158665","1993-02-04 18:00","1993","02","04","18:00","","1.0","","-2.7","","76","","24","","26","","25.0","","101.76","","","","","","Mostly Cloudy"
"-79.40","43.63","TORONTO ISLAND A","6158665","1993-02-04 19:00","1993","02","04","19:00","","1.2","","-2.9","","74","","24","","37","","25.0","","101.69","","","","","","Mostly Cloudy"
"-79.40","43.63","TORONTO ISLAND A","6158665","1993-02-04 20:00","1993","02","04","20:00","","1.2","","-3.3","","72","","24","","22","","25.0","","101.66","","","","","","Cloudy"
"-79.40","43.63","TORONTO ISLAND A","6158665","1993-02-04 21:00","1993","02","04","21:00","","1.3","","-2.7","","75","","25","","22","","25.0","","101.56","","","","","","Cloudy"
"-79.40","43.63","TORONTO ISLAND A","6158665","1993-02-04 22:00","1993","02","04","22:00","","1.1","","-2.1","","79","","26","","13","","25.0","","101.49","","","","","","Mostly Cloudy"
"-79.40","43.63","TORONTO ISLAND A","6158665","1993-02-04 23:00","1993","02","04","23:00","","","","","","","","26","","28","","","","","","","","","","NA"
"-79.40","43.63","TORONTO ISLAND A","6158665","1993-02-05 00:00","1993","02","05","00:00","","","","","","","","26","","28","","","","","","","","","","NA"
"-79.40","43.63","TORONTO ISLAND A","6158665","1993-02-05 01:00","1993","02","05","01:00","","","","","","","","25","","19","","","","","","","","","","NA"
"-79.40","43.63","TORONTO ISLAND A","6158665","1993-02-05 02:00","1993","02","05","02:00","","","","","","","","25","","26","","","","","","","","","","NA"
"-79.40","43.63","TORONTO ISLAND A","6158665","1993-02-05 03:00","1993","02","05","03:00","","","","","","","","25","","19","","","","","","","","","","NA"
"-79.40","43.63","TORONTO ISLAND A","6158665","1993-02-05 04:00","1993","02","05","04:00","","","","","","","","26","","19","","","","","","","","","","NA"
"-79.40","43.63","TORONTO ISLAND A","6158665","1993-02-05 05:00","1993","02","05","05:00","","","","","","","","26","","17","","","","","","","","","","NA"
"-79.40","43.63","TORONTO ISLAND A","6158665","1993-02-05 06:00","1993","02","05","06:00","","","","","","","","25","","19","","","","","","","","","","NA"
"-79.40","43.63","TORONTO ISLAND A","6158665","1993-02-05 07:00","1993","02","05","07:00","","1.6","","-5.6","","59","","26","","26","","24.1","","100.95","","","","","","Mostly Cloudy"
"-79.40","43.63","TORONTO ISLAND A","6158665","1993-02-05 08:00","1993","02","05","08:00","","1.8","","-6.1","","56","","26","","30","","24.1","","100.92","","","","","","Mostly Cloudy"
"-79.40","43.63","TORONTO ISLAND A","6158665","1993-02-05 09:00","1993","02","05","09:00","","2.1","","-5.3","","58","","26","","28","","24.1","","100.89","","","","","","Mostly Cloudy"
"-79.40","43.63","TORONTO ISLAND A","6158665","1993-02-05 10:00","1993","02","05","10:00","","2.5","","-5.2","","57","","26","","28","","24.1","","100.85","","","","","","Cloudy"
"-79.40","43.63","TORONTO ISLAND A","6158665","1993-02-05 11:00","1993","02","05","11:00","","3.2","","-3.8","","60","","26","","24","","24.1","","100.85","","","","","","Cloudy"
"-79.40","43.63","TORONTO ISLAND A","6158665","1993-02-05 12:00","1993","02","05","12:00","","4.0","","-3.1","","60","","27","","28","","19.3","","100.79","","","","","","Mostly Cloudy"
"-79.40","43.63","TORONTO ISLAND A","6158665","1993-02-05 13:00","1993","02","05","13:00","","4.1","","-2.3","","63","","28","","22","","19.3","","100.72","","","","","","Mostly Cloudy"
"-79.40","43.63","TORONTO ISLAND A","6158665","1993-02-05 14:00","1993","02","05","14:00","","4.4","","-1.9","","64","","27","","28","","19.3","","100.62","","","","","","Mostly Cloudy"
"-79.40","43.63","TORONTO ISLAND A","6158665","1993-02-05 15:00","1993","02","05","15:00","","4.2","","-1.5","","66","","27","","26","","24.1","","100.62","","","","","","Mostly Cloudy"
"-79.40","43.63","TORONTO ISLAND A","6158665","1993-02-05 16:00","1993","02","05","16:00","","2.9","","-1.5","","73","","35","","19","","24.1","","100.65","","","","","","Cloudy"
"-79.40","43.63","TORONTO ISLAND A","6158665","1993-02-05 17:00","1993","02","05","17:00","","1.3","","-2.5","","76","","34","","15","","19.3","","100.75","","","","","","Cloudy"
"-79.40","43.63","TORONTO ISLAND A","6158665","1993-02-05 18:00","1993","02","05","18:00","","-0.6","","-5.3","","71","","34","","37","","19.3","","100.89","","","","-8","","Cloudy"
"-79.40","43.63","TORONTO ISLAND A","6158665","1993-02-05 19:00","1993","02","05","19:00","","-2.3","","-5.5","","78","","1","","26","","24.1","","100.99","","","","-9","","Snow Showers"
"-79.40","43.63","TORONTO ISLAND A","6158665","1993-02-05 20:00","1993","02","05","20:00","","-4.2","","-7.7","","76","","35","","22","","6.4","","101.12","","","","-11","","Snow"
"-79.40","43.63","TORONTO ISLAND A","6158665","1993-02-05 21:00","1993","02","05","21:00","","-6.2","","-9.7","","76","","1","","26","","4.8","","101.22","","","","-14","","Snow"
"-79.40","43.63","TORONTO ISLAND A","6158665","1993-02-05 22:00","1993","02","05","22:00","","-7.4","","-12.1","","69","","36","","30","","12.9","","101.36","","","","-16","","Snow"
"-79.40","43.63","TORONTO ISLAND A","6158665","1993-02-05 23:00","1993","02","05","23:00","","","","","","","","2","","24","","","","","","","","","","NA"
"-79.40","43.63","TORONTO ISLAND A","6158665","1993-02-06 00:00","1993","02","06","00:00","","","","","","","","1","","24","","","","","","","","","","NA"
"-79.40","43.63","TORONTO ISLAND A","6158665","1993-02-06 01:00","1993","02","06","01:00","","","","","","","","1","","31","","","","","","","","","","NA"
"-79.40","43.63","TORONTO ISLAND A","6158665","1993-02-06 02:00","1993","02","06","02:00","","","","","","","","36","","37","","","","","","","","","","NA"
"-79.40","43.63","TORONTO ISLAND A","6158665","1993-02-06 03:00","1993","02","06","03:00","","","","","","","","1","","28","","","","","","","","","","NA"
"-79.40","43.63","TORONTO ISLAND A","6158665","1993-02-06 04:00","1993","02","06","04:00","","","","","","","","4","","24","","","","","","","","","","NA"
"-79.40","43.63","TORONTO ISLAND A","6158665","1993-02-06 05:00","1993","02","06","05:00","","","","","","","","3","","17","","","","","","","","","","NA"
"-79.40","43.63","TORONTO ISLAND A","6158665","1993-02-06 06:00","1993","02","06","06:00","","","","","","","","4","","22","","","","","","","","","","NA"
"-79.40","43.63","TORONTO ISLAND A","6158665","1993-02-06 07:00","1993","02","06","07:00","","-18.8","","-26.7","","50","","3","","28","","25.0","","102.13","","","","-31","","Mainly Clear"
"-79.40","43.63","TORONTO ISLAND A","6158665","1993-02-06 08:00","1993","02","06","08:00","","-19.5","","-27.5","","49","","1","","24","","25.0","","102.16","","","","-31","","Clear"
"-79.40","43.63","TORONTO ISLAND A","6158665","1993-02-06 09:00","1993","02","06","09:00","","-19.2","","-26.1","","55","","2","","24","","25.0","","102.23","","","","-30","","Clear"
"-79.40","43.63","TORONTO ISLAND A","6158665","1993-02-06 10:00","1993","02","06","10:00","","-18.5","","-25.8","","53","","2","","17","","25.0","","102.26","","","","-28","","Clear"
"-79.40","43.63","TORONTO ISLAND A","6158665","1993-02-06 11:00","1993","02","06","11:00","","-17.4","","-24.1","","56","","5","","17","","25.0","","102.30","","","","-26","","Clear"
"-79.40","43.63","TORONTO ISLAND A","6158665","1993-02-06 12:00","1993","02","06","12:00","","-16.1","","-22.4","","58","","5","","20","","16.1","","102.30","","","","-26","","Mainly Clear"
"-79.40","43.63","TORONTO ISLAND A","6158665","1993-02-06 13:00","1993","02","06","13:00","","-15.1","","-20.4","","64","","3","","19","","16.1","","102.23","","","","-24","","Mostly Cloudy"
"-79.40","43.63","TORONTO ISLAND A","6158665","1993-02-06 14:00","1993","02","06","14:00","","-14.5","","-20.6","","60","","8","","13","","19.3","","102.16","","","","-22","","Mainly Clear"
"-79.40","43.63","TORONTO ISLAND A","6158665","1993-02-06 15:00","1993","02","06","15:00","","-14.0","","-21.8","","52","","9","","19","","19.3","","102.10","","","","-23","","Clear"
"-79.40","43.63","TORONTO ISLAND A","6158665","1993-02-06 16:00","1993","02","06","16:00","","-14.0","","-22.5","","49","","11","","15","","19.3","","102.10","","","","-22","","Clear"
"-79.40","43.63","TORONTO ISLAND A","6158665","1993-02-06 17:00","1993","02","06","17:00","","-14.4","","-22.5","","50","","8","","15","","24.1","","102.10","","","","-22","","Clear"
"-79.40","43.63","TORONTO ISLAND A","6158665","1993-02-06 18:00","1993","02","06","18:00","","-14.5","","-21.0","","58","","4","","13","","19.3","","102.13","","","","-22","","Mainly Clear"
"-79.40","43.63","TORONTO ISLAND A","6158665","1993-02-06 19:00","1993","02","06","19:00","","-14.3","","-20.1","","61","","4","","13","","16.1","","102.16","","","","-21","","Snow Showers"
"-79.40","43.63","TORONTO ISLAND A","6158665","1993-02-06 20:00","1993","02","06","20:00","","-14.3","","-19.5","","64","","5","","15","","16.1","","102.10","","","","-22","","Snow Showers"
"-79.40","43.63","TORONTO ISLAND A","6158665","1993-02-06 21:00","1993","02","06","21:00","","-14.5","","-19.3","","67","","6","","19","","11.3","","102.06","","","","-23","","Snow Showers"
"-79.40","43.63","TORONTO ISLAND A","6158665","1993-02-06 22:00","1993","02","06","22:00","","-14.8","","-19.9","","65","","6","","19","","6.4","","102.00","","","","-24","","Snow Showers"
"-79.40","43.63","TORONTO ISLAND A","6158665","1993-02-06 23:00","1993","02","06","23:00","","","","","","","","4","","11","","","","","","","","","","NA"
"-79.40","43.63","TORONTO ISLAND A","6158665","1993-02-07 00:00","1993","02","07","00:00","","","","","","","","5","","17","","","","","","","","","","NA"
"-79.40","43.63","TORONTO ISLAND A","6158665","1993-02-07 01:00","1993","02","07","01:00","","","","","","","","7","","11","","","","","","","","","","NA"
"-79.40","43.63","TORONTO ISLAND A","6158665","1993-02-07 02:00","1993","02","07","02:00","","","","","","","","8","","7","","","","","","","","","","NA"
"-79.40","43.63","TORONTO ISLAND A","6158665","1993-02-07 03:00","1993","02","07","03:00","","","","","","","","7","","7","","","","","","","","","","NA"
"-79.40","43.63","TORONTO ISLAND A","6158665","1993-02-07 04:00","1993","02","07","04:00","","","","","","","","7","","4","","","","","","","","","","NA"
"-79.40","43.63","TORONTO ISLAND A","6158665","1993-02-07 05:00","1993","02","07","05:00","","","","","","","","7","","4","","","","","","","","","","NA"
"-79.40","43.63","TORONTO ISLAND A","6158665","1993-02-07 06:00","1993","02","07","06:00","","","","","","","","12","","11","","","","","","","","","","NA"
"-79.40","43.63","TORONTO ISLAND A","6158665","1993-02-07 07:00","1993","02","07","07:00","","-9.9","","-11.0","","92","","12","","20","","12.9","","101.26","","","","-18","","Snow Showers"
"-79.40","43.63","TORONTO ISLAND A","6158665","1993-02-07 08:00","1993","02","07","08:00","","-10.2","","-12.8","","81","","12","","17","","25.0","","101.26","","","","-17","","Mostly Cloudy"
"-79.40","43.63","TORONTO ISLAND A","6158665","1993-02-07 09:00","1993","02","07","09:00","","-10.2","","-12.8","","81","","8","","7","","25.0","","101.22","","","","-14","","Mainly Clear"
"-79.40","43.63","TORONTO ISLAND A","6158665","1993-02-07 10:00","1993","02","07","10:00","","-8.8","","-10.7","","86","","16","","7","","25.0","","101.15","","","","-13","","Mostly Cloudy"
"-79.40","43.63","TORONTO ISLAND A","6158665","1993-02-07 11:00","1993","02","07","11:00","","-8.1","","-13.0","","68","","20","","7","","25.0","","101.05","","","","-12","","Clear"
"-79.40","43.63","TORONTO ISLAND A","6158665","1993-02-07 12:00","1993","02","07","12:00","","-6.9","","-11.9","","67","","16","","6","","25.0","","100.92","","","","-10","","Mostly Cloudy"
"-79.40","43.63","TORONTO ISLAND A","6158665","1993-02-07 13:00","1993","02","07","13:00","","-6.1","","-10.6","","70","","23","","7","","25.0","","100.75","","","","-9","","Mostly Cloudy"
"-79.40","43.63","TORONTO ISLAND A","6158665","1993-02-07 14:00","1993","02","07","14:00","","-5.6","","-10.3","","69","","21","","11","","25.0","","100.62","","","","-10","","Mainly Clear"
"-79.40","43.63","TORONTO ISLAND A","6158665","1993-02-07 15:00","1993","02","07","15:00","","-5.2","","-9.9","","70","","22","","7","","19.3","","100.55","","","","-8","","Mainly Clear"
"-79.40","43.63","TORONTO ISLAND A","6158665","1993-02-07 16:00","1993","02","07","16:00","","-4.5","","-10.2","","64","","22","","7","","19.3","","100.48","","","","-8","","Mostly Cloudy"
"-79.40","43.63","TORONTO ISLAND A","6158665","1993-02-07 17:00","1993","02","07","17:00","","-3.6","","-9.8","","62","","23","","13","","19.3","","100.42","","","","-8","","Mainly Clear"
"-79.40","43.63","TORONTO ISLAND A","6158665","1993-02-07 18:00","1993","02","07","18:00","","-2.9","","-8.8","","64","","21","","19","","24.1","","100.38","","","","-9","","Mostly Cloudy"
"-79.40","43.63","TORONTO ISLAND A","6158665","1993-02-07 19:00","1993","02","07","19:00","","-1.7","","-6.2","","71","","23","","33","","24.1","","100.38","","","","-9","","Cloudy"
"-79.40","43.63","TORONTO ISLAND A","6158665","1993-02-07 20:00","1993","02","07","20:00","","-0.7","","-5.0","","73","","25","","37","","24.1","","100.31","","","","-8","","Cloudy"
"-79.40","43.63","TORONTO ISLAND A","6158665","1993-02-07 21:00","1993","02","07","21:00","","-0.6","","-5.5","","69","","25","","37","","24.1","","100.31","","","","-8","","Cloudy"
"-79.40","43.63","TORONTO ISLAND A","6158665","1993-02-07 22:00","1993","02","07","22:00","","-0.4","","-4.7","","72","","25","","30","","24.1","","100.31","","","","-7","","Cloudy"
"-79.40","43.63","TORONTO ISLAND A","6158665","1993-02-07 23:00","1993","02","07","23:00","","","","","","","","25","","28","","","","","","","","","","NA"
"-79.40","43.63","TORONTO ISLAND A","6158665","1993-02-08 00:00","1993","02","08","00:00","","","","","","","","25","","26","","","","","","","","","","NA"
"-79.40","43.63","TORONTO ISLAND A","6158665","1993-02-08 01:00","1993","02","08","01:00","","","","","","","","25","","28","","","","","","","","","","NA"
"-79.40","43.63","TORONTO ISLAND A","6158665","1993-02-08 02:00","1993","02","08","02:00","","","","","","","","25","","26","","","","","","","","","","NA"
"-79.40","43.63","TORONTO ISLAND A","6158665","1993-02-08 03:00","1993","02","08","03:00","","","","","","","","30","","24","","","","","","","","","","NA"
"-79.40","43.63","TORONTO ISLAND A","6158665","1993-02-08 04:00","1993","02","08","04:00","","","","","","","","32","","20","","","","","","","","","","NA"
"-79.40","43.63","TORONTO ISLAND A","6158665","1993-02-08 05:00","1993","02","08","05:00","","","","","","","","34","","30","","","","","","","","","","NA"
"-79.40","43.63","TORONTO ISLAND A","6158665","1993-02-08 06:00","1993","02","08","06:00","","","","","","","","35","","31","","","","","","","","","","NA"
"-79.40","43.63","TORONTO ISLAND A","6158665","1993-02-08 07:00","1993","02","08","07:00","","-3.9","","-8.6","","70","","34","","24","","24.1","","100.95","","","","-11","","Mostly Cloudy"
"-79.40","43.63","TORONTO ISLAND A","6158665","1993-02-08 08:00","1993","02","08","08:00","","-6.0","","-10.7","","69","","32","","24","","24.1","","101.12","","","","-13","","Mainly Clear"
"-79.40","43.63","TORONTO ISLAND A","6158665","1993-02-08 09:00","1993","02","08","09:00","","-6.6","","-11.1","","70","","34","","22","","24.1","","101.26","","","","-14","","Mainly Clear"
"-79.40","43.63","TORONTO ISLAND A","6158665","1993-02-08 10:00","1993","02","08","10:00","","-7.2","","-12.5","","66","","32","","22","","24.1","","101.32","","","","-15","","Mostly Cloudy"
"-79.40","43.63","TORONTO ISLAND A","6158665","1993-02-08 11:00","1993","02","08","11:00","","-7.5","","-14.6","","57","","34","","19","","24.1","","101.42","","","","-15","","Mainly Clear"
"-79.40","43.63","TORONTO ISLAND A","6158665","1993-02-08 12:00","1993","02","08","12:00","","-6.5","","-14.5","","53","","34","","20","","24.1","","101.46","","","","-13","","Clear"
"-79.40","43.63","TORONTO ISLAND A","6158665","1993-02-08 13:00","1993","02","08","13:00","","-6.3","","-14.7","","51","","33","","22","","24.1","","101.46","","","","-14","","Mainly Clear"
"-79.40","43.63","TORONTO ISLAND A","6158665","1993-02-08 14:00","1993","02","08","14:00","","-6.5","","-15.7","","48","","35","","13","","24.1","","101.46","","","","-12","","Mostly Cloudy"
"-79.40","43.63","TORONTO ISLAND A","6158665","1993-02-08 15:00","1993","02","08","15:00","","-5.8","","-15.6","","46","","34","","19","","24.1","","101.49","","","","-12","","Mostly Cloudy"
"-79.40","43.63","TORONTO ISLAND A","6158665","1993-02-08 16:00","1993","02","08","16:00","","-5.9","","-15.9","","45","","34","","19","","24.1","","101.56","","","","-13","","Mostly Cloudy"
"-79.40","43.63","TORONTO ISLAND A","6158665","1993-02-08 17:00","1993","02","08","17:00","","-6.2","","-15.9","","46","","33","","15","","24.1","","101.66","","","","-12","","Mainly Clear"
"-79.40","43.63","TORONTO ISLAND A","6158665","1993-02-08 18:00","1993","02","08","18:00","","-6.9","","-15.4","","51","","34","","11","","24.1","","101.69","","","","-12","","Clear"
"-79.40","43.63","TORONTO ISLAND A","6158665","1993-02-08 19:00","1993","02","08","19:00","","-7.7","","-15.9","","52","","32","","15","","24.1","","101.79","","","","-14","","Clear"
"-79.40","43.63","TORONTO ISLAND A","6158665","1993-02-08 20:00","1993","02","08","20:00","","-8.3","","-15.1","","58","","34","","15","","25.0","","101.79","","","","-15","","Clear"
"-79.40","43.63","TORONTO ISLAND A","6158665","1993-02-08 21:00","1993","02","08","21:00","","-9.0","","-14.2","","66","","33","","13","","25.0","","101.86","","","","-15","","Mostly Cloudy"
"-79.40","43.63","TORONTO ISLAND A","6158665","1993-02-08 22:00","1993","02","08","22:00","","-9.2","","-13.7","","70","","34","","11","","25.0","","101.86","","","","-15","","Mainly Clear"
"-79.40","43.63","TORONTO ISLAND A","6158665","1993-02-08 23:00","1993","02","08","23:00","","","","","","","","33","","11","","","","","","","","","","NA"
"-79.40","43.63","TORONTO ISLAND A","6158665","1993-02-09 00:00","1993","02","09","00:00","","","","","","","","1","","13","","","","","","","","","","NA"
"-79.40","43.63","TORONTO ISLAND A","6158665","1993-02-09 01:00","1993","02","09","01:00","","","","","","","","1","","11","","","","","","","","","","NA"
"-79.40","43.63","TORONTO ISLAND A","6158665","1993-02-09 02:00","1993","02","09","02:00","","","","","","","","35","","7","","","","","","","","","","NA"
"-79.40","43.63","TORONTO ISLAND A","6158665","1993-02-09 03:00","1993","02","09","03:00","","","","","","","","2","","15","","","","","","","","","","NA"
"-79.40","43.63","TORONTO ISLAND A","6158665","1993-02-09 04:00","1993","02","09","04:00","","","","","","","","3","","4","","","","","","","","","","NA"
"-79.40","43.63","TORONTO ISLAND A","6158665","1993-02-09 05:00","1993","02","09","05:00","","","","","","","","","","0","","","","","","","","","","NA"
"-79.40","43.63","TORONTO ISLAND A","6158665","1993-02-09 06:00","1993","02","09","06:00","","","","","","","","35","","6","","","","","","","","","","NA"
"-79.40","43.63","TORONTO ISLAND A","6158665","1993-02-09 07:00","1993","02","09","07:00","","-8.5","","-16.2","","54","","4","","9","","24.1","","101.96","","","","-13","","Mostly Cloudy"
"-79.40","43.63","TORONTO ISLAND A","6158665","1993-02-09 08:00","1993","02","09","08:00","","-8.3","","-11.0","","81","","6","","17","","19.3","","101.89","","","","-15","","Cloudy"
"-79.40","43.63","TORONTO ISLAND A","6158665","1993-02-09 09:00","1993","02","09","09:00","","-6.6","","-8.1","","89","","4","","17","","19.3","","101.93","","","","-13","","Mostly Cloudy"
"-79.40","43.63","TORONTO ISLAND A","6158665","1993-02-09 10:00","1993","02","09","10:00","","-5.2","","-7.5","","84","","6","","7","","19.3","","101.89","","","","-8","","Mostly Cloudy"
"-79.40","43.63","TORONTO ISLAND A","6158665","1993-02-09 11:00","1993","02","09","11:00","","-5.1","","-8.1","","79","","8","","13","","24.1","","101.86","","","","-10","","Mainly Clear"
"-79.40","43.63","TORONTO ISLAND A","6158665","1993-02-09 12:00","1993","02","09","12:00","","-3.6","","-7.2","","76","","7","","11","","24.1","","101.79","","","","-8","","Mainly Clear"
"-79.40","43.63","TORONTO ISLAND A","6158665","1993-02-09 13:00","1993","02","09","13:00","","-2.6","","-7.3","","70","","10","","19","","24.1","","101.66","","","","-8","","Mainly Clear"
"-79.40","43.63","TORONTO ISLAND A","6158665","1993-02-09 14:00","1993","02","09","14:00","","-2.7","","-7.1","","72","","7","","24","","24.1","","101.52","","","","-9","","Mostly Cloudy"
"-79.40","43.63","TORONTO ISLAND A","6158665","1993-02-09 15:00","1993","02","09","15:00","","-2.0","","-7.5","","66","","9","","26","","24.1","","101.42","","","","-9","","Mostly Cloudy"
"-79.40","43.63","TORONTO ISLAND A","6158665","1993-02-09 16:00","1993","02","09","16:00","","-1.8","","-7.2","","66","","10","","22","","24.1","","101.36","","","","-8","","Mostly Cloudy"
"-79.40","43.63","TORONTO ISLAND A","6158665","1993-02-09 17:00","1993","02","09","17:00","","-1.7","","-7.7","","63","","11","","19","","24.1","","101.36","","","","-7","","Mostly Cloudy"
"-79.40","43.63","TORONTO ISLAND A","6158665","1993-02-09 18:00","1993","02","09","18:00","","-1.7","","-8.1","","62","","9","","11","","24.1","","101.36","","","","-6","","Cloudy"
"-79.40","43.63","TORONTO ISLAND A","6158665","1993-02-09 19:00","1993","02","09","19:00","","-1.7","","-6.6","","69","","10","","7","","24.1","","101.32","","","","-4","","Cloudy"
"-79.40","43.63","TORONTO ISLAND A","6158665","1993-02-09 20:00","1993","02","09","20:00","","-1.2","","-5.9","","70","","12","","7","","24.1","","101.26","","","","-4","","Cloudy"
"-79.40","43.63","TORONTO ISLAND A","6158665","1993-02-09 21:00","1993","02","09","21:00","","-1.1","","-5.8","","70","","14","","4","","24.1","","101.19","","","","-2","","Cloudy"
"-79.40","43.63","TORONTO ISLAND A","6158665","1993-02-09 22:00","1993","02","09","22:00","","-0.6","","-5.8","","68","","18","","11","","24.1","","101.15","","","","-4","","Cloudy"
"-79.40","43.63","TORONTO ISLAND A","6158665","1993-02-09 23:00","1993","02","09","23:00","","","","","","","","20","","15","","","","","","","","","","NA"
"-79.40","43.63","TORONTO ISLAND A","6158665","1993-02-10 00:00","1993","02","10","00:00","","","","","","","","22","","17","","","","","","","","","","NA"
"-79.40","43.63","TORONTO ISLAND A","6158665","1993-02-10 01:00","1993","02","10","01:00","","","","","","","","23","","17","","","","","","","","","","NA"
"-79.40","43.63","TORONTO ISLAND A","6158665","1993-02-10 02:00","1993","02","10","02:00","","","","","","","","25","","9","","","","","","","","","","NA"
"-79.40","43.63","TORONTO ISLAND A","6158665","1993-02-10 03:00","1993","02","10","03:00","","","","","","","","26","","6","","","","","","","","","","NA"
"-79.40","43.63","TORONTO ISLAND A","6158665","1993-02-10 04:00","1993","02","10","04:00","","","","","","","","22","","7","","","","","","","","","","NA"
"-79.40","43.63","TORONTO ISLAND A","6158665","1993-02-10 05:00","1993","02","10","05:00","","","","","","","","24","","9","","","","","","","","","","NA"
"-79.40","43.63","TORONTO ISLAND A","6158665","1993-02-10 06:00","1993","02","10","06:00","","","","","","","","24","","7","","","","","","","","","","NA"
"-79.40","43.63","TORONTO ISLAND A","6158665","1993-02-10 07:00","1993","02","10","07:00","","0.7","","-1.2","","87","","25","","15","","16.1","","101.02","","","","","","Cloudy"
"-79.40","43.63","TORONTO ISLAND A","6158665","1993-02-10 08:00","1993","02","10","08:00","","0.5","","-1.9","","84","","24","","9","","8.0","","101.09","","","","","","Fog"
"-79.40","43.63","TORONTO ISLAND A","6158665","1993-02-10 09:00","1993","02","10","09:00","","0.8","","-1.5","","85","","25","","7","","6.4","","101.15","","","","","","Fog"
"-79.40","43.63","TORONTO ISLAND A","6158665","1993-02-10 10:00","1993","02","10","10:00","","1.3","","-0.9","","85","","23","","11","","4.8","","101.15","","","","","","Fog"
"-79.40","43.63","TORONTO ISLAND A","6158665","1993-02-10 11:00","1993","02","10","11:00","","1.6","","-0.1","","88","","24","","15","","4.8","","101.15","","","","","","Fog"
"-79.40","43.63","TORONTO ISLAND A","6158665","1993-02-10 12:00","1993","02","10","12:00","","2.7","","-0.4","","80","","28","","13","","4.8","","101.12","","","","","","Haze"
"-79.40","43.63","TORONTO ISLAND A","6158665","1993-02-10 13:00","1993","02","10","13:00","","3.0","","-0.4","","78","","27","","17","","4.8","","101.12","","","","","","Haze"
"-79.40","43.63","TORONTO ISLAND A","6158665","1993-02-10 14:00","1993","02","10","14:00","","3.3","","-0.3","","77","","27","","15","","6.4","","101.12","","","","","","Haze"
"-79.40","43.63","TORONTO ISLAND A","6158665","1993-02-10 15:00","1993","02","10","15:00","","3.7","","-0.6","","73","","30","","11","","8.0","","101.12","","","","","","Haze"
"-79.40","43.63","TORONTO ISLAND A","6158665","1993-02-10 16:00","1993","02","10","16:00","","3.5","","-0.3","","76","","28","","11","","8.0","","101.22","","","","","","Haze"
"-79.40","43.63","TORONTO ISLAND A","6158665","1993-02-10 17:00","1993","02","10","17:00","","3.1","","-0.2","","79","","29","","11","","8.0","","101.22","","","","","","Haze"
"-79.40","43.63","TORONTO ISLAND A","6158665","1993-02-10 18:00","1993","02","10","18:00","","2.9","","0.0","","81","","30","","11","","8.0","","101.32","","","","","","Haze"
"-79.40","43.63","TORONTO ISLAND A","6158665","1993-02-10 19:00","1993","02","10","19:00","","2.5","","0.4","","86","","30","","7","","8.0","","101.39","","","","","","Haze"
"-79.40","43.63","TORONTO ISLAND A","6158665","1993-02-10 20:00","1993","02","10","20:00","","2.1","","0.2","","87","","1","","22","","12.9","","101.42","","","","","","Rain"
"-79.40","43.63","TORONTO ISLAND A","6158665","1993-02-10 21:00","1993","02","10","21:00","","1.9","","-0.2","","86","","34","","15","","24.1","","101.46","","","","","","Cloudy"
"-79.40","43.63","TORONTO ISLAND A","6158665","1993-02-10 22:00","1993","02","10","22:00","","1.1","","-1.7","","81","","1","","11","","24.1","","101.59","","","","","","Cloudy"
"-79.40","43.63","TORONTO ISLAND A","6158665","1993-02-10 23:00","1993","02","10","23:00","","","","","","","","1","","17","","","","","","","","","","NA"
"-79.40","43.63","TORONTO ISLAND A","6158665","1993-02-11 00:00","1993","02","11","00:00","","","","","","","","2","","19","","","","","","","","","","NA"
"-79.40","43.63","TORONTO ISLAND A","6158665","1993-02-11 01:00","1993","02","11","01:00","","","","","","","","4","","22","","","","","","","","","","NA"
"-79.40","43.63","TORONTO ISLAND A","6158665","1993-02-11 02:00","1993","02","11","02:00","","","","","","","","2","","17","","","","","","","","","","NA"
"-79.40","43.63","TORONTO ISLAND A","6158665","1993-02-11 03:00","1993","02","11","03:00","","","","","","","","1","","24","","","","","","","","","","NA"
"-79.40","43.63","TORONTO ISLAND A","6158665","1993-02-11 04:00","1993","02","11","04:00","","","","","","","","3","","17","","","","","","","","","","NA"
"-79.40","43.63","TORONTO ISLAND A","6158665","1993-02-11 05:00","1993","02","11","05:00","","","","","","","","3","","28","","","","","","","","","","NA"
"-79.40","43.63","TORONTO ISLAND A","6158665","1993-02-11 06:00","1993","02","11","06:00","","","","","","","","6","","20","","","","","","","","","","NA"
"-79.40","43.63","TORONTO ISLAND A","6158665","1993-02-11 07:00","1993","02","11","07:00","","-8.9","","-17.1","","51","","4","","22","","24.1","","102.40","","","","-17","","Cloudy"
"-79.40","43.63","TORONTO ISLAND A","6158665","1993-02-11 08:00","1993","02","11","08:00","","-9.5","","-17.5","","52","","5","","19","","24.1","","102.50","","","","-17","","Mostly Cloudy"
"-79.40","43.63","TORONTO ISLAND A","6158665","1993-02-11 09:00","1993","02","11","09:00","","-9.7","","-18.2","","50","","4","","22","","24.1","","102.50","","","","-18","","Mostly Cloudy"
"-79.40","43.63","TORONTO ISLAND A","6158665","1993-02-11 10:00","1993","02","11","10:00","","-9.3","","-17.2","","52","","5","","20","","24.1","","102.50","","","","-17","","Mostly Cloudy"
"-79.40","43.63","TORONTO ISLAND A","6158665","1993-02-11 11:00","1993","02","11","11:00","","-8.3","","-16.6","","51","","6","","30","","24.1","","102.50","","","","-17","","Mostly Cloudy"
"-79.40","43.63","TORONTO ISLAND A","6158665","1993-02-11 12:00","1993","02","11","12:00","","-7.5","","-15.2","","54","","8","","31","","24.1","","102.50","","","","-16","","Mostly Cloudy"
"-79.40","43.63","TORONTO ISLAND A","6158665","1993-02-11 13:00","1993","02","11","13:00","","-6.9","","-16.1","","48","","7","","30","","24.1","","102.50","","","","-15","","Mostly Cloudy"
"-79.40","43.63","TORONTO ISLAND A","6158665","1993-02-11 14:00","1993","02","11","14:00","","-6.2","","-15.1","","49","","8","","31","","24.1","","102.43","","","","-15","","Mostly Cloudy"
"-79.40","43.63","TORONTO ISLAND A","6158665","1993-02-11 15:00","1993","02","11","15:00","","-6.1","","-15.5","","47","","7","","33","","24.1","","102.33","","","","-15","","Cloudy"
"-79.40","43.63","TORONTO ISLAND A","6158665","1993-02-11 16:00","1993","02","11","16:00","","-5.5","","-14.8","","48","","6","","37","","24.1","","102.30","","","","-14","","Cloudy"
"-79.40","43.63","TORONTO ISLAND A","6158665","1993-02-11 17:00","1993","02","11","17:00","","-5.7","","-15.7","","45","","7","","37","","24.1","","102.20","","","","-15","","Cloudy"
"-79.40","43.63","TORONTO ISLAND A","6158665","1993-02-11 18:00","1993","02","11","18:00","","-5.8","","-14.8","","49","","7","","33","","24.1","","102.30","","","","-14","","Cloudy"
"-79.40","43.63","TORONTO ISLAND A","6158665","1993-02-11 19:00","1993","02","11","19:00","","-5.9","","-14.8","","49","","7","","30","","24.1","","102.26","","","","-14","","Cloudy"
"-79.40","43.63","TORONTO ISLAND A","6158665","1993-02-11 20:00","1993","02","11","20:00","","-6.1","","-12.5","","60","","7","","41","","24.1","","102.23","","","","-16","","Cloudy"
"-79.40","43.63","TORONTO ISLAND A","6158665","1993-02-11 21:00","1993","02","11","21:00","","-6.2","","-11.4","","67","","7","","41","","24.1","","102.10","","","","-16","","Mostly Cloudy"
"-79.40","43.63","TORONTO ISLAND A","6158665","1993-02-11 22:00","1993","02","11","22:00","","-6.8","","-11.2","","70","","8","","44","","24.1","","102.06","","","","-17","","Cloudy"
"-79.40","43.63","TORONTO ISLAND A","6158665","1993-02-11 23:00","1993","02","11","23:00","","","","","","","","7","","43","","","","","","","","","","NA"
"-79.40","43.63","TORONTO ISLAND A","6158665","1993-02-12 00:00","1993","02","12","00:00","","","","","","","","7","","33","","","","","","","","","","NA"
"-79.40","43.63","TORONTO ISLAND A","6158665","1993-02-12 01:00","1993","02","12","01:00","","","","","","","","7","","37","","","","","","","","","","NA"
"-79.40","43.63","TORONTO ISLAND A","6158665","1993-02-12 02:00","1993","02","12","02:00","","","","","","","","7","","41","","","","","","","","","","NA"
"-79.40","43.63","TORONTO ISLAND A","6158665","1993-02-12 03:00","1993","02","12","03:00","","","","","","","","7","","44","","","","","","","","","","NA"
"-79.40","43.63","TORONTO ISLAND A","6158665","1993-02-12 04:00","1993","02","12","04:00","","","","","","","","8","","41","","","","","","","","","","NA"
"-79.40","43.63","TORONTO ISLAND A","6158665","1993-02-12 05:00","1993","02","12","05:00","","","","","","","","7","","46","","","","","","","","","","NA"
"-79.40","43.63","TORONTO ISLAND A","6158665","1993-02-12 06:00","1993","02","12","06:00","","","","","","","","7","","46","","","","","","","","","","NA"
"-79.40","43.63","TORONTO ISLAND A","6158665","1993-02-12 07:00","1993","02","12","07:00","","-5.9","","-7.0","","92","","6","","37","","2.4","","101.15","","","","-15","","Snow"
"-79.40","43.63","TORONTO ISLAND A","6158665","1993-02-12 08:00","1993","02","12","08:00","","-5.4","","-6.2","","94","","7","","37","","6.4","","101.05","","","","-14","","Snow"
"-79.40","43.63","TORONTO ISLAND A","6158665","1993-02-12 09:00","1993","02","12","09:00","","-3.8","","-4.5","","95","","7","","44","","1.2","","100.99","","","","-13","","Snow"
"-79.40","43.63","TORONTO ISLAND A","6158665","1993-02-12 10:00","1993","02","12","10:00","","-2.4","","-3.0","","96","","9","","48","","1.2","","100.92","","","","-11","","Snow"
"-79.40","43.63","TORONTO ISLAND A","6158665","1993-02-12 11:00","1993","02","12","11:00","","-1.7","","-2.6","","94","","10","","50","","4.8","","100.85","","","","-10","","Snow"
"-79.40","43.63","TORONTO ISLAND A","6158665","1993-02-12 12:00","1993","02","12","12:00","","-1.7","","-2.3","","96","","11","","46","","1.2","","100.75","","","","-10","","Snow"
"-79.40","43.63","TORONTO ISLAND A","6158665","1993-02-12 13:00","1993","02","12","13:00","","-1.7","","-2.6","","94","","10","","44","","16.1","","100.58","","","","-10","","Cloudy"
"-79.40","43.63","TORONTO ISLAND A","6158665","1993-02-12 14:00","1993","02","12","14:00","","-1.4","","-2.9","","89","","10","","39","","24.1","","100.48","","","","-9","","Cloudy"
"-79.40","43.63","TORONTO ISLAND A","6158665","1993-02-12 15:00","1993","02","12","15:00","","-0.8","","-3.2","","83","","10","","41","","24.1","","100.38","","","","-9","","Cloudy"
"-79.40","43.63","TORONTO ISLAND A","6158665","1993-02-12 16:00","1993","02","12","16:00","","-1.3","","-2.9","","89","","9","","46","","25.0","","100.31","","","","-10","","Cloudy"
"-79.40","43.63","TORONTO ISLAND A","6158665","1993-02-12 17:00","1993","02","12","17:00","","-1.1","","-2.8","","88","","10","","33","","25.0","","100.21","","","","-8","","Cloudy"
"-79.40","43.63","TORONTO ISLAND A","6158665","1993-02-12 18:00","1993","02","12","18:00","","-1.1","","-2.8","","88","","10","","30","","24.1","","100.21","","","","-8","","Cloudy"
"-79.40","43.63","TORONTO ISLAND A","6158665","1993-02-12 19:00","1993","02","12","19:00","","-0.8","","-2.5","","88","","9","","33","","24.1","","100.15","","","","-8","","Cloudy"
"-79.40","43.63","TORONTO ISLAND A","6158665","1993-02-12 20:00","1993","02","12","20:00","","-0.7","","-2.3","","89","","9","","37","","24.1","","100.01","","","","-8","","Cloudy"
"-79.40","43.63","TORONTO ISLAND A","6158665","1993-02-12 21:00","1993","02","12","21:00","","-0.5","","-2.0","","90","","9","","28","","24.1","","99.98","","","","-7","","Cloudy"
"-79.40","43.63","TORONTO ISLAND A","6158665","1993-02-12 22:00","1993","02","12","22:00","","-1.1","","-2.3","","92","","6","","26","","24.1","","99.88","","","","-7","","Snow"
"-79.40","43.63","TORONTO ISLAND A","6158665","1993-02-12 23:00","1993","02","12","23:00","","","","","","","","5","","30","","","","","","","","","","NA"
"-79.40","43.63","TORONTO ISLAND A","6158665","1993-02-13 00:00","1993","02","13","00:00","","","","","","","","5","","20","","","","","","","","","","NA"
"-79.40","43.63","TORONTO ISLAND A","6158665","1993-02-13 01:00","1993","02","13","01:00","","","","","","","","4","","15","","","","","","","","","","NA"
"-79.40","43.63","TORONTO ISLAND A","6158665","1993-02-13 02:00","1993","02","13","02:00","","","","","","","","2","","19","","","","","","","","","","NA"
"-79.40","43.63","TORONTO ISLAND A","6158665","1993-02-13 03:00","1993","02","13","03:00","","","","","","","","3","","11","","","","","","","","","","NA"
"-79.40","43.63","TORONTO ISLAND A","6158665","1993-02-13 04:00","1993","02","13","04:00","","","","","","","","35","","13","","","","","","","","","","NA"
"-79.40","43.63","TORONTO ISLAND A","6158665","1993-02-13 05:00","1993","02","13","05:00","","","","","","","","35","","15","","","","","","","","","","NA"
"-79.40","43.63","TORONTO ISLAND A","6158665","1993-02-13 06:00","1993","02","13","06:00","","","","","","","","34","","17","","","","","","","","","","NA"
"-79.40","43.63","TORONTO ISLAND A","6158665","1993-02-13 07:00","1993","02","13","07:00","","-4.9","","-7.2","","84","","34","","15","","25.0","","99.34","","","","-10","","Cloudy"
"-79.40","43.63","TORONTO ISLAND A","6158665","1993-02-13 08:00","1993","02","13","08:00","","-4.6","","-7.3","","82","","32","","19","","25.0","","99.27","","","","-11","","Cloudy"
"-79.40","43.63","TORONTO ISLAND A","6158665","1993-02-13 09:00","1993","02","13","09:00","","-4.4","","-6.7","","84","","33","","20","","25.0","","99.24","","","","-11","","Cloudy"
"-79.40","43.63","TORONTO ISLAND A","6158665","1993-02-13 10:00","1993","02","13","10:00","","-3.7","","-6.4","","82","","32","","22","","25.0","","99.17","","","","-10","","Cloudy"
"-79.40","43.63","TORONTO ISLAND A","6158665","1993-02-13 11:00","1993","02","13","11:00","","-3.0","","-6.2","","78","","30","","30","","25.0","","99.14","","","","-10","","Cloudy"
"-79.40","43.63","TORONTO ISLAND A","6158665","1993-02-13 12:00","1993","02","13","12:00","","-2.9","","-6.7","","75","","30","","30","","25.0","","99.07","","","","-10","","Cloudy"
"-79.40","43.63","TORONTO ISLAND A","6158665","1993-02-13 13:00","1993","02","13","13:00","","-3.5","","-7.2","","75","","33","","28","","24.1","","99.04","","","","-11","","Cloudy"
"-79.40","43.63","TORONTO ISLAND A","6158665","1993-02-13 14:00","1993","02","13","14:00","","-3.5","","-7.3","","75","","31","","24","","25.0","","99.00","","","","-10","","Cloudy"
"-79.40","43.63","TORONTO ISLAND A","6158665","1993-02-13 15:00","1993","02","13","15:00","","-3.4","","-7.5","","73","","32","","26","","25.0","","99.04","","","","-10","","Cloudy"
"-79.40","43.63","TORONTO ISLAND A","6158665","1993-02-13 16:00","1993","02","13","16:00","","-3.0","","-7.4","","72","","33","","31","","19.3","","99.04","","","","-11","","Snow"
"-79.40","43.63","TORONTO ISLAND A","6158665","1993-02-13 17:00","1993","02","13","17:00","","-2.9","","-7.1","","73","","31","","30","","25.0","","99.14","","","","-10","","Cloudy"
"-79.40","43.63","TORONTO ISLAND A","6158665","1993-02-13 18:00","1993","02","13","18:00","","-2.7","","-7.0","","72","","31","","28","","25.0","","99.24","","","","-10","","Cloudy"
"-79.40","43.63","TORONTO ISLAND A","6158665","1993-02-13 19:00","1993","02","13","19:00","","-2.7","","-7.0","","72","","30","","30","","25.0","","99.34","","","","-10","","Cloudy"
"-79.40","43.63","TORONTO ISLAND A","6158665","1993-02-13 20:00","1993","02","13","20:00","","-2.7","","-7.7","","68","","30","","26","","25.0","","99.37","","","","-10","","Cloudy"
"-79.40","43.63","TORONTO ISLAND A","6158665","1993-02-13 21:00","1993","02","13","21:00","","-2.7","","-8.7","","63","","30","","26","","25.0","","99.44","","","","-10","","Cloudy"
"-79.40","43.63","TORONTO ISLAND A","6158665","1993-02-13 22:00","1993","02","13","22:00","","-2.7","","-9.7","","58","","30","","22","","25.0","","99.47","","","","-9","","Cloudy"
"-79.40","43.63","TORONTO ISLAND A","6158665","1993-02-13 23:00","1993","02","13","23:00","","","","","","","","30","","22","","","","","","","","","","NA"
"-79.40","43.63","TORONTO ISLAND A","6158665","1993-02-14 00:00","1993","02","14","00:00","","","","","","","","30","","19","","","","","","","","","","NA"
"-79.40","43.63","TORONTO ISLAND A","6158665","1993-02-14 01:00","1993","02","14","01:00","","","","","","","","29","","20","","","","","","","","","","NA"
"-79.40","43.63","TORONTO ISLAND A","6158665","1993-02-14 02:00","1993","02","14","02:00","","","","","","","","31","","24","","","","","","","","","","NA"
"-79.40","43.63","TORONTO ISLAND A","6158665","1993-02-14 03:00","1993","02","14","03:00","","","","","","","","32","","20","","","","","","","","","","NA"
"-79.40","43.63","TORONTO ISLAND A","6158665","1993-02-14 04:00","1993","02","14","04:00","","","","","","","","32","","19","","","","","","","","","","NA"
"-79.40","43.63","TORONTO ISLAND A","6158665","1993-02-14 05:00","1993","02","14","05:00","","","","","","","","32","","17","","","","","","","","","","NA"
"-79.40","43.63","TORONTO ISLAND A","6158665","1993-02-14 06:00","1993","02","14","06:00","","","","","","","","32","","11","","","","","","","","","","NA"
"-79.40","43.63","TORONTO ISLAND A","6158665","1993-02-14 07:00","1993","02","14","07:00","","-6.3","","-15.7","","47","","32","","13","","25.0","","100.18","","","","-12","","Cloudy"
"-79.40","43.63","TORONTO ISLAND A","6158665","1993-02-14 08:00","1993","02","14","08:00","","-6.2","","-15.9","","46","","34","","9","","25.0","","100.28","","","","-10","","Mostly Cloudy"
"-79.40","43.63","TORONTO ISLAND A","6158665","1993-02-14 09:00","1993","02","14","09:00","","-6.0","","-14.8","","50","","33","","13","","25.0","","100.35","","","","-11","","Mostly Cloudy"
"-79.40","43.63","TORONTO ISLAND A","6158665","1993-02-14 10:00","1993","02","14","10:00","","-5.5","","-13.7","","52","","36","","13","","25.0","","100.38","","","","-11","","Mainly Clear"
"-79.40","43.63","TORONTO ISLAND A","6158665","1993-02-14 11:00","1993","02","14","11:00","","-4.6","","-12.9","","52","","30","","9","","25.0","","100.42","","","","-8","","Clear"
"-79.40","43.63","TORONTO ISLAND A","6158665","1993-02-14 12:00","1993","02","14","12:00","","-3.6","","-11.6","","54","","32","","15","","25.0","","100.45","","","","-9","","Clear"
"-79.40","43.63","TORONTO ISLAND A","6158665","1993-02-14 13:00","1993","02","14","13:00","","-2.2","","-10.8","","52","","28","","22","","25.0","","100.42","","","","-8","","Clear"
"-79.40","43.63","TORONTO ISLAND A","6158665","1993-02-14 14:00","1993","02","14","14:00","","-1.8","","-10.6","","51","","27","","15","","25.0","","100.45","","","","-7","","Mostly Cloudy"
"-79.40","43.63","TORONTO ISLAND A","6158665","1993-02-14 15:00","1993","02","14","15:00","","-1.2","","-10.8","","48","","31","","22","","25.0","","100.45","","","","-7","","Mostly Cloudy"
"-79.40","43.63","TORONTO ISLAND A","6158665","1993-02-14 16:00","1993","02","14","16:00","","-0.8","","-9.5","","51","","29","","22","","25.0","","100.48","","","","-7","","Mainly Clear"
"-79.40","43.63","TORONTO ISLAND A","6158665","1993-02-14 17:00","1993","02","14","17:00","","-0.8","","-10.5","","48","","27","","22","","25.0","","100.52","","","","-7","","Mainly Clear"
"-79.40","43.63","TORONTO ISLAND A","6158665","1993-02-14 18:00","1993","02","14","18:00","","-1.0","","-8.9","","55","","26","","26","","25.0","","100.65","","","","-7","","Mostly Cloudy"
"-79.40","43.63","TORONTO ISLAND A","6158665","1993-02-14 19:00","1993","02","14","19:00","","-1.2","","-7.1","","64","","25","","26","","25.0","","100.72","","","","-8","","Cloudy"
"-79.40","43.63","TORONTO ISLAND A","6158665","1993-02-14 20:00","1993","02","14","20:00","","-1.1","","-6.5","","67","","25","","31","","25.0","","100.79","","","","-8","","Mostly Cloudy"
"-79.40","43.63","TORONTO ISLAND A","6158665","1993-02-14 21:00","1993","02","14","21:00","","-1.4","","-5.8","","72","","25","","30","","25.0","","100.82","","","","-8","","Mostly Cloudy"
"-79.40","43.63","TORONTO ISLAND A","6158665","1993-02-14 22:00","1993","02","14","22:00","","-1.8","","-6.0","","73","","25","","26","","24.1","","100.85","","","","-8","","Cloudy"
"-79.40","43.63","TORONTO ISLAND A","6158665","1993-02-14 23:00","1993","02","14","23:00","","","","","","","","25","","28","","","","","","","","","","NA"
"-79.40","43.63","TORONTO ISLAND A","6158665","1993-02-15 00:00","1993","02","15","00:00","","","","","","","","24","","31","","","","","","","","","","NA"
"-79.40","43.63","TORONTO ISLAND A","6158665","1993-02-15 01:00","1993","02","15","01:00","","","","","","","","26","","19","","","","","","","","","","NA"
"-79.40","43.63","TORONTO ISLAND A","6158665","1993-02-15 02:00","1993","02","15","02:00","","","","","","","","25","","20","","","","","","","","","","NA"
"-79.40","43.63","TORONTO ISLAND A","6158665","1993-02-15 03:00","1993","02","15","03:00","","","","","","","","25","","22","","","","","","","","","","NA"
"-79.40","43.63","TORONTO ISLAND A","6158665","1993-02-15 04:00","1993","02","15","04:00","","","","","","","","25","","22","","","","","","","","","","NA"
"-79.40","43.63","TORONTO ISLAND A","6158665","1993-02-15 05:00","1993","02","15","05:00","","","","","","","","25","","22","","","","","","","","","","NA"
"-79.40","43.63","TORONTO ISLAND A","6158665","1993-02-15 06:00","1993","02","15","06:00","","","","","","","","25","","22","","","","","","","","","","NA"
"-79.40","43.63","TORONTO ISLAND A","6158665","1993-02-15 07:00","1993","02","15","07:00","","-1.2","","-4.0","","81","","27","","22","","16.1","","101.15","","","","-7","","Snow Showers"
"-79.40","43.63","TORONTO ISLAND A","6158665","1993-02-15 08:00","1993","02","15","08:00","","-1.0","","-4.0","","80","","26","","24","","12.9","","101.26","","","","-7","","Snow Showers"
"-79.40","43.63","TORONTO ISLAND A","6158665","1993-02-15 09:00","1993","02","15","09:00","","-1.1","","-4.1","","80","","25","","37","","12.9","","101.32","","","","-9","","Snow Showers"
"-79.40","43.63","TORONTO ISLAND A","6158665","1993-02-15 10:00","1993","02","15","10:00","","-0.6","","-5.0","","72","","26","","31","","16.1","","101.36","","","","-7","","Mainly Clear"
"-79.40","43.63","TORONTO ISLAND A","6158665","1993-02-15 11:00","1993","02","15","11:00","","-0.1","","-5.0","","70","","25","","30","","19.3","","101.42","","","","-7","","Mainly Clear"
"-79.40","43.63","TORONTO ISLAND A","6158665","1993-02-15 12:00","1993","02","15","12:00","","0.1","","-5.1","","68","","26","","26","","24.1","","101.42","","","","","","Mostly Cloudy"
"-79.40","43.63","TORONTO ISLAND A","6158665","1993-02-15 13:00","1993","02","15","13:00","","-0.3","","-4.5","","73","","25","","31","","11.3","","101.42","","","","-7","","Snow Showers"
"-79.40","43.63","TORONTO ISLAND A","6158665","1993-02-15 14:00","1993","02","15","14:00","","0.1","","-4.8","","70","","26","","22","","19.3","","101.36","","","","","","Mostly Cloudy"
"-79.40","43.63","TORONTO ISLAND A","6158665","1993-02-15 15:00","1993","02","15","15:00","","0.4","","-4.2","","71","","27","","22","","16.1","","101.42","","","","","","Mostly Cloudy"
"-79.40","43.63","TORONTO ISLAND A","6158665","1993-02-15 16:00","1993","02","15","16:00","","0.2","","-5.5","","65","","28","","22","","16.1","","101.46","","","","","","Mostly Cloudy"
"-79.40","43.63","TORONTO ISLAND A","6158665","1993-02-15 17:00","1993","02","15","17:00","","0.0","","-6.3","","63","","28","","19","","24.1","","101.49","","","","-5","","Cloudy"
"-79.40","43.63","TORONTO ISLAND A","6158665","1993-02-15 18:00","1993","02","15","18:00","","-0.2","","-6.5","","62","","28","","15","","19.3","","101.56","","","","-5","","Cloudy"
"-79.40","43.63","TORONTO ISLAND A","6158665","1993-02-15 19:00","1993","02","15","19:00","","-0.4","","-6.4","","64","","28","","15","","19.3","","101.63","","","","-5","","Cloudy"
"-79.40","43.63","TORONTO ISLAND A","6158665","1993-02-15 20:00","1993","02","15","20:00","","-0.6","","-6.1","","66","","29","","7","","19.3","","101.59","","","","-3","","Cloudy"
"-79.40","43.63","TORONTO ISLAND A","6158665","1993-02-15 21:00","1993","02","15","21:00","","-0.6","","-6.0","","67","","28","","4","","19.3","","101.63","","","","-2","","Cloudy"
"-79.40","43.63","TORONTO ISLAND A","6158665","1993-02-15 22:00","1993","02","15","22:00","","-0.7","","-6.0","","67","","","","0","","16.1","","101.59","","","","","","Cloudy"
"-79.40","43.63","TORONTO ISLAND A","6158665","1993-02-15 23:00","1993","02","15","23:00","","","","","","","","","","0","","","","","","","","","","NA"
"-79.40","43.63","TORONTO ISLAND A","6158665","1993-02-16 00:00","1993","02","16","00:00","","","","","","","","","","0","","","","","","","","","","NA"
"-79.40","43.63","TORONTO ISLAND A","6158665","1993-02-16 01:00","1993","02","16","01:00","","","","","","","","","","0","","","","","","","","","","NA"
"-79.40","43.63","TORONTO ISLAND A","6158665","1993-02-16 02:00","1993","02","16","02:00","","","","","","","","10","","11","","","","","","","","","","NA"
"-79.40","43.63","TORONTO ISLAND A","6158665","1993-02-16 03:00","1993","02","16","03:00","","","","","","","","8","","17","","","","","","","","","","NA"
"-79.40","43.63","TORONTO ISLAND A","6158665","1993-02-16 04:00","1993","02","16","04:00","","","","","","","","9","","13","","","","","","","","","","NA"
"-79.40","43.63","TORONTO ISLAND A","6158665","1993-02-16 05:00","1993","02","16","05:00","","","","","","","","13","","11","","","","","","","","","","NA"
"-79.40","43.63","TORONTO ISLAND A","6158665","1993-02-16 06:00","1993","02","16","06:00","","","","","","","","10","","19","","","","","","","","","","NA"
"-79.40","43.63","TORONTO ISLAND A","6158665","1993-02-16 07:00","1993","02","16","07:00","","-1.4","","-1.7","","98","","8","","24","","1.2","","100.95","","","","-8","","Snow"
"-79.40","43.63","TORONTO ISLAND A","6158665","1993-02-16 08:00","1993","02","16","08:00","","-1.4","","-2.0","","96","","7","","15","","1.2","","100.92","","","","-6","","Snow"
"-79.40","43.63","TORONTO ISLAND A","6158665","1993-02-16 09:00","1993","02","16","09:00","","-1.1","","-1.7","","96","","6","","19","","1.0","","100.82","","","","-6","","Snow"
"-79.40","43.63","TORONTO ISLAND A","6158665","1993-02-16 10:00","1993","02","16","10:00","","-1.2","","-2.1","","94","","6","","28","","0.6","","100.68","","","","-8","","Moderate Snow"
"-79.40","43.63","TORONTO ISLAND A","6158665","1993-02-16 11:00","1993","02","16","11:00","","-1.1","","-1.6","","96","","6","","28","","0.6","","100.52","","","","-8","","Moderate Snow"
"-79.40","43.63","TORONTO ISLAND A","6158665","1993-02-16 12:00","1993","02","16","12:00","","-0.7","","-1.4","","95","","5","","22","","1.0","","100.35","","","","-6","","Snow"
"-79.40","43.63","TORONTO ISLAND A","6158665","1993-02-16 13:00","1993","02","16","13:00","","-0.1","","-0.3","","99","","9","","26","","0.8","","100.18","","","","-6","","Moderate Snow"
"-79.40","43.63","TORONTO ISLAND A","6158665","1993-02-16 14:00","1993","02","16","14:00","","0.0","","-0.3","","98","","9","","28","","0.8","","99.98","","","","-6","","Moderate Snow"
"-79.40","43.63","TORONTO ISLAND A","6158665","1993-02-16 15:00","1993","02","16","15:00","","0.2","","-0.2","","97","","8","","30","","2.4","","99.88","","","","","","Snow"
"-79.40","43.63","TORONTO ISLAND A","6158665","1993-02-16 16:00","1993","02","16","16:00","","0.1","","-0.2","","98","","7","","28","","0.8","","99.88","","","","","","Moderate Snow"
"-79.40","43.63","TORONTO ISLAND A","6158665","1993-02-16 17:00","1993","02","16","17:00","","0.1","","-0.8","","94","","4","","28","","0.6","","99.84","","","","","","Moderate Snow"
"-79.40","43.63","TORONTO ISLAND A","6158665","1993-02-16 18:00","1993","02","16","18:00","","-0.6","","-1.6","","93","","4","","22","","0.8","","99.88","","","","-6","","Moderate Snow"
"-79.40","43.63","TORONTO ISLAND A","6158665","1993-02-16 19:00","1993","02","16","19:00","","-1.2","","-2.1","","94","","1","","22","","1.2","","99.91","","","","-7","","Snow"
"-79.40","43.63","TORONTO ISLAND A","6158665","1993-02-16 20:00","1993","02","16","20:00","","-1.6","","-3.7","","85","","1","","22","","3.2","","99.98","","","","-8","","Snow"
"-79.40","43.63","TORONTO ISLAND A","6158665","1993-02-16 21:00","1993","02","16","21:00","","-1.9","","-4.0","","85","","36","","22","","3.2","","100.11","","","","-8","","Snow"
"-79.40","43.63","TORONTO ISLAND A","6158665","1993-02-16 22:00","1993","02","16","22:00","","-2.5","","-4.7","","85","","35","","28","","4.0","","100.21","","","","-10","","Snow"
"-79.40","43.63","TORONTO ISLAND A","6158665","1993-02-16 23:00","1993","02","16","23:00","","","","","","","","34","","33","","","","","","","","","","NA"
"-79.40","43.63","TORONTO ISLAND A","6158665","1993-02-17 00:00","1993","02","17","00:00","","","","","","","","33","","24","","","","","","","","","","NA"
"-79.40","43.63","TORONTO ISLAND A","6158665","1993-02-17 01:00","1993","02","17","01:00","","","","","","","","33","","24","","","","","","","","","","NA"
"-79.40","43.63","TORONTO ISLAND A","6158665","1993-02-17 02:00","1993","02","17","02:00","","","","","","","","33","","30","","","","","","","","","","NA"
"-79.40","43.63","TORONTO ISLAND A","6158665","1993-02-17 03:00","1993","02","17","03:00","","","","","","","","31","","22","","","","","","","","","","NA"
"-79.40","43.63","TORONTO ISLAND A","6158665","1993-02-17 04:00","1993","02","17","04:00","","","","","","","","31","","31","","","","","","","","","","NA"
"-79.40","43.63","TORONTO ISLAND A","6158665","1993-02-17 05:00","1993","02","17","05:00","","","","","","","","32","","28","","","","","","","","","","NA"
"-79.40","43.63","TORONTO ISLAND A","6158665","1993-02-17 06:00","1993","02","17","06:00","","","","","","","","31","","28","","","","","","","","","","NA"
"-79.40","43.63","TORONTO ISLAND A","6158665","1993-02-17 07:00","1993","02","17","07:00","","-8.4","","-11.8","","76","","36","","22","","24.1","","101.02","","","","-16","","Mostly Cloudy"
"-79.40","43.63","TORONTO ISLAND A","6158665","1993-02-17 08:00","1993","02","17","08:00","","-9.0","","-13.7","","68","","33","","17","","25.0","","101.12","","","","-16","","Mostly Cloudy"
"-79.40","43.63","TORONTO ISLAND A","6158665","1993-02-17 09:00","1993","02","17","09:00","","-10.4","","-13.8","","76","","34","","7","","24.1","","101.15","","","","-14","","Mostly Cloudy"
"-79.40","43.63","TORONTO ISLAND A","6158665","1993-02-17 10:00","1993","02","17","10:00","","-9.5","","-15.6","","61","","33","","19","","24.1","","101.19","","","","-17","","Mostly Cloudy"
"-79.40","43.63","TORONTO ISLAND A","6158665","1993-02-17 11:00","1993","02","17","11:00","","-9.1","","-15.2","","61","","33","","11","","24.1","","101.22","","","","-15","","Mainly Clear"
"-79.40","43.63","TORONTO ISLAND A","6158665","1993-02-17 12:00","1993","02","17","12:00","","-8.2","","-13.8","","64","","29","","6","","24.1","","101.15","","","","-11","","Mainly Clear"
"-79.40","43.63","TORONTO ISLAND A","6158665","1993-02-17 13:00","1993","02","17","13:00","","-7.2","","-12.4","","66","","20","","6","","24.1","","101.12","","","","-10","","Mainly Clear"
"-79.40","43.63","TORONTO ISLAND A","6158665","1993-02-17 14:00","1993","02","17","14:00","","-5.9","","-12.7","","58","","18","","11","","24.1","","101.05","","","","-11","","Mostly Cloudy"
"-79.40","43.63","TORONTO ISLAND A","6158665","1993-02-17 15:00","1993","02","17","15:00","","-5.8","","-13.1","","56","","24","","11","","24.1","","100.95","","","","-11","","Mostly Cloudy"
"-79.40","43.63","TORONTO ISLAND A","6158665","1993-02-17 16:00","1993","02","17","16:00","","-5.0","","-11.7","","59","","27","","26","","24.1","","100.89","","","","-12","","Mostly Cloudy"
"-79.40","43.63","TORONTO ISLAND A","6158665","1993-02-17 17:00","1993","02","17","17:00","","-5.3","","-10.6","","66","","27","","22","","24.1","","100.85","","","","-12","","Cloudy"
"-79.40","43.63","TORONTO ISLAND A","6158665","1993-02-17 18:00","1993","02","17","18:00","","-6.0","","-8.8","","81","","27","","22","","16.1","","100.85","","","","-13","","Cloudy"
"-79.40","43.63","TORONTO ISLAND A","6158665","1993-02-17 19:00","1993","02","17","19:00","","-5.9","","-10.2","","71","","27","","22","","24.1","","100.82","","","","-13","","Mostly Cloudy"
"-79.40","43.63","TORONTO ISLAND A","6158665","1993-02-17 20:00","1993","02","17","20:00","","-6.3","","-10.3","","73","","27","","19","","24.1","","100.75","","","","-13","","Mainly Clear"
"-79.40","43.63","TORONTO ISLAND A","6158665","1993-02-17 21:00","1993","02","17","21:00","","-6.8","","-10.7","","73","","29","","11","","24.1","","100.75","","","","-12","","Mainly Clear"
"-79.40","43.63","TORONTO ISLAND A","6158665","1993-02-17 22:00","1993","02","17","22:00","","-7.0","","-10.6","","75","","28","","19","","24.1","","100.75","","","","-14","","Mostly Cloudy"
"-79.40","43.63","TORONTO ISLAND A","6158665","1993-02-17 23:00","1993","02","17","23:00","","","","","","","","30","","13","","","","","","","","","","NA"
"-79.40","43.63","TORONTO ISLAND A","6158665","1993-02-18 00:00","1993","02","18","00:00","","","","","","","","29","","15","","","","","","","","","","NA"
"-79.40","43.63","TORONTO ISLAND A","6158665","1993-02-18 01:00","1993","02","18","01:00","","","","","","","","29","","13","","","","","","","","","","NA"
"-79.40","43.63","TORONTO ISLAND A","6158665","1993-02-18 02:00","1993","02","18","02:00","","","","","","","","29","","19","","","","","","","","","","NA"
"-79.40","43.63","TORONTO ISLAND A","6158665","1993-02-18 03:00","1993","02","18","03:00","","","","","","","","28","","22","","","","","","","","","","NA"
"-79.40","43.63","TORONTO ISLAND A","6158665","1993-02-18 04:00","1993","02","18","04:00","","","","","","","","29","","26","","","","","","","","","","NA"
"-79.40","43.63","TORONTO ISLAND A","6158665","1993-02-18 05:00","1993","02","18","05:00","","","","","","","","28","","30","","","","","","","","","","NA"
"-79.40","43.63","TORONTO ISLAND A","6158665","1993-02-18 06:00","1993","02","18","06:00","","","","","","","","27","","33","","","","","","","","","","NA"
"-79.40","43.63","TORONTO ISLAND A","6158665","1993-02-18 07:00","1993","02","18","07:00","","-11.6","","-14.7","","78","","27","","28","","24.1","","100.75","","","","-21","","Mostly Cloudy"
"-79.40","43.63","TORONTO ISLAND A","6158665","1993-02-18 08:00","1993","02","18","08:00","","-12.4","","-15.4","","78","","27","","26","","24.1","","100.82","","","","-22","","Mainly Clear"
"-79.40","43.63","TORONTO ISLAND A","6158665","1993-02-18 09:00","1993","02","18","09:00","","-12.4","","-15.4","","78","","27","","24","","24.1","","100.82","","","","-22","","Mainly Clear"
"-79.40","43.63","TORONTO ISLAND A","6158665","1993-02-18 10:00","1993","02","18","10:00","","-11.3","","-15.8","","69","","27","","26","","24.1","","100.82","","","","-21","","Mostly Cloudy"
"-79.40","43.63","TORONTO ISLAND A","6158665","1993-02-18 11:00","1993","02","18","11:00","","-10.3","","-15.5","","65","","26","","26","","24.1","","100.82","","","","-19","","Mostly Cloudy"
"-79.40","43.63","TORONTO ISLAND A","6158665","1993-02-18 12:00","1993","02","18","12:00","","-9.9","","-15.2","","65","","26","","31","","24.1","","100.82","","","","-20","","Cloudy"
"-79.40","43.63","TORONTO ISLAND A","6158665","1993-02-18 13:00","1993","02","18","13:00","","-9.8","","-16.3","","59","","28","","30","","24.1","","100.79","","","","-19","","Cloudy"
"-79.40","43.63","TORONTO ISLAND A","6158665","1993-02-18 14:00","1993","02","18","14:00","","-9.7","","-16.1","","59","","26","","33","","24.1","","100.79","","","","-20","","Cloudy"
"-79.40","43.63","TORONTO ISLAND A","6158665","1993-02-18 15:00","1993","02","18","15:00","","-9.8","","-16.7","","57","","26","","33","","25.0","","100.75","","","","-20","","Cloudy"
"-79.40","43.63","TORONTO ISLAND A","6158665","1993-02-18 16:00","1993","02","18","16:00","","-9.9","","-15.6","","63","","28","","37","","25.0","","100.82","","","","-20","","Mostly Cloudy"
"-79.40","43.63","TORONTO ISLAND A","6158665","1993-02-18 17:00","1993","02","18","17:00","","-10.3","","-16.3","","61","","27","","37","","25.0","","100.82","","","","-21","","Mostly Cloudy"
"-79.40","43.63","TORONTO ISLAND A","6158665","1993-02-18 18:00","1993","02","18","18:00","","-10.4","","-17.0","","58","","26","","30","","25.0","","100.92","","","","-20","","Mostly Cloudy"
"-79.40","43.63","TORONTO ISLAND A","6158665","1993-02-18 19:00","1993","02","18","19:00","","-11.1","","-17.2","","60","","27","","30","","25.0","","101.02","","","","-21","","Mainly Clear"
"-79.40","43.63","TORONTO ISLAND A","6158665","1993-02-18 20:00","1993","02","18","20:00","","-11.7","","-16.9","","65","","28","","26","","25.0","","101.05","","","","-21","","Mainly Clear"
"-79.40","43.63","TORONTO ISLAND A","6158665","1993-02-18 21:00","1993","02","18","21:00","","-12.2","","-16.8","","69","","30","","22","","25.0","","101.12","","","","-21","","Mainly Clear"
"-79.40","43.63","TORONTO ISLAND A","6158665","1993-02-18 22:00","1993","02","18","22:00","","-12.4","","-16.6","","71","","28","","19","","25.0","","101.12","","","","-21","","Mainly Clear"
"-79.40","43.63","TORONTO ISLAND A","6158665","1993-02-18 23:00","1993","02","18","23:00","","","","","","","","29","","15","","","","","","","","","","NA"
"-79.40","43.63","TORONTO ISLAND A","6158665","1993-02-19 00:00","1993","02","19","00:00","","","","","","","","30","","20","","","","","","","","","","NA"
"-79.40","43.63","TORONTO ISLAND A","6158665","1993-02-19 01:00","1993","02","19","01:00","","","","","","","","30","","22","","","","","","","","","","NA"
"-79.40","43.63","TORONTO ISLAND A","6158665","1993-02-19 02:00","1993","02","19","02:00","","","","","","","","31","","24","","","","","","","","","","NA"
"-79.40","43.63","TORONTO ISLAND A","6158665","1993-02-19 03:00","1993","02","19","03:00","","","","","","","","31","","19","","","","","","","","","","NA"
"-79.40","43.63","TORONTO ISLAND A","6158665","1993-02-19 04:00","1993","02","19","04:00","","","","","","","","29","","26","","","","","","","","","","NA"
"-79.40","43.63","TORONTO ISLAND A","6158665","1993-02-19 05:00","1993","02","19","05:00","","","","","","","","29","","13","","","","","","","","","","NA"
"-79.40","43.63","TORONTO ISLAND A","6158665","1993-02-19 06:00","1993","02","19","06:00","","","","","","","","30","","15","","","","","","","","","","NA"
"-79.40","43.63","TORONTO ISLAND A","6158665","1993-02-19 07:00","1993","02","19","07:00","","-14.1","","-18.7","","68","","29","","15","","19.3","","101.32","","","","-22","","Clear"
"-79.40","43.63","TORONTO ISLAND A","6158665","1993-02-19 08:00","1993","02","19","08:00","","-13.7","","-18.3","","68","","27","","15","","19.3","","101.36","","","","-21","","Clear"
"-79.40","43.63","TORONTO ISLAND A","6158665","1993-02-19 09:00","1993","02","19","09:00","","-13.2","","-18.3","","66","","26","","13","","16.1","","101.42","","","","-20","","Clear"
"-79.40","43.63","TORONTO ISLAND A","6158665","1993-02-19 10:00","1993","02","19","10:00","","-12.0","","-18.0","","61","","26","","15","","24.1","","101.39","","","","-19","","Mostly Cloudy"
"-79.40","43.63","TORONTO ISLAND A","6158665","1993-02-19 11:00","1993","02","19","11:00","","-10.9","","-18.2","","55","","29","","19","","24.1","","101.36","","","","-19","","Mostly Cloudy"
"-79.40","43.63","TORONTO ISLAND A","6158665","1993-02-19 12:00","1993","02","19","12:00","","-9.7","","-17.5","","53","","28","","17","","24.1","","101.29","","","","-17","","Mainly Clear"
"-79.40","43.63","TORONTO ISLAND A","6158665","1993-02-19 13:00","1993","02","19","13:00","","-9.4","","-18.9","","46","","26","","19","","24.1","","101.15","","","","-17","","Mostly Cloudy"
"-79.40","43.63","TORONTO ISLAND A","6158665","1993-02-19 14:00","1993","02","19","14:00","","-8.9","","-18.3","","46","","24","","22","","24.1","","101.12","","","","-17","","Mostly Cloudy"
"-79.40","43.63","TORONTO ISLAND A","6158665","1993-02-19 15:00","1993","02","19","15:00","","-8.7","","-18.6","","45","","27","","15","","24.1","","101.02","","","","-15","","Mostly Cloudy"
"-79.40","43.63","TORONTO ISLAND A","6158665","1993-02-19 16:00","1993","02","19","16:00","","-7.7","","-18.6","","41","","24","","15","","24.1","","100.95","","","","-14","","Mostly Cloudy"
"-79.40","43.63","TORONTO ISLAND A","6158665","1993-02-19 17:00","1993","02","19","17:00","","-8.3","","-18.7","","43","","25","","19","","24.1","","100.92","","","","-16","","Mostly Cloudy"
"-79.40","43.63","TORONTO ISLAND A","6158665","1993-02-19 18:00","1993","02","19","18:00","","-8.4","","-17.3","","49","","27","","15","","24.1","","100.95","","","","-15","","Mostly Cloudy"
"-79.40","43.63","TORONTO ISLAND A","6158665","1993-02-19 19:00","1993","02","19","19:00","","-8.1","","-14.5","","60","","29","","11","","24.1","","100.95","","","","-13","","Mostly Cloudy"
"-79.40","43.63","TORONTO ISLAND A","6158665","1993-02-19 20:00","1993","02","19","20:00","","-8.3","","-12.2","","73","","27","","11","","8.0","","100.92","","","","-14","","Snow Showers"
"-79.40","43.63","TORONTO ISLAND A","6158665","1993-02-19 21:00","1993","02","19","21:00","","-7.9","","-11.3","","76","","26","","22","","19.3","","100.89","","","","-16","","Snow Showers"
"-79.40","43.63","TORONTO ISLAND A","6158665","1993-02-19 22:00","1993","02","19","22:00","","-8.3","","-11.9","","75","","25","","26","","24.1","","100.85","","","","-17","","Mostly Cloudy"
"-79.40","43.63","TORONTO ISLAND A","6158665","1993-02-19 23:00","1993","02","19","23:00","","","","","","","","29","","11","","","","","","","","","","NA"
"-79.40","43.63","TORONTO ISLAND A","6158665","1993-02-20 00:00","1993","02","20","00:00","","","","","","","","29","","7","","","","","","","","","","NA"
"-79.40","43.63","TORONTO ISLAND A","6158665","1993-02-20 01:00","1993","02","20","01:00","","","","","","","","29","","9","","","","","","","","","","NA"
"-79.40","43.63","TORONTO ISLAND A","6158665","1993-02-20 02:00","1993","02","20","02:00","","","","","","","","28","","4","","","","","","","","","","NA"
"-79.40","43.63","TORONTO ISLAND A","6158665","1993-02-20 03:00","1993","02","20","03:00","","","","","","","","28","","7","","","","","","","","","","NA"
"-79.40","43.63","TORONTO ISLAND A","6158665","1993-02-20 04:00","1993","02","20","04:00","","","","","","","","30","","6","","","","","","","","","","NA"
"-79.40","43.63","TORONTO ISLAND A","6158665","1993-02-20 05:00","1993","02","20","05:00","","","","","","","","36","","6","","","","","","","","","","NA"
"-79.40","43.63","TORONTO ISLAND A","6158665","1993-02-20 06:00","1993","02","20","06:00","","","","","","","","32","","4","","","","","","","","","","NA"
"-79.40","43.63","TORONTO ISLAND A","6158665","1993-02-20 07:00","1993","02","20","07:00","","-9.7","","-13.1","","76","","34","","6","","12.9","","100.75","","","","-13","","Mostly Cloudy"
"-79.40","43.63","TORONTO ISLAND A","6158665","1993-02-20 08:00","1993","02","20","08:00","","-9.4","","-12.7","","77","","29","","6","","12.9","","100.85","","","","-13","","Mostly Cloudy"
"-79.40","43.63","TORONTO ISLAND A","6158665","1993-02-20 09:00","1993","02","20","09:00","","-8.8","","-12.4","","75","","30","","4","","12.9","","100.89","","","","-11","","Mostly Cloudy"
"-79.40","43.63","TORONTO ISLAND A","6158665","1993-02-20 10:00","1993","02","20","10:00","","-7.1","","-11.8","","69","","","","0","","12.9","","100.85","","","","","","Clear"
"-79.40","43.63","TORONTO ISLAND A","6158665","1993-02-20 11:00","1993","02","20","11:00","","-5.9","","-11.7","","63","","","","0","","16.1","","100.85","","","","","","Mainly Clear"
"-79.40","43.63","TORONTO ISLAND A","6158665","1993-02-20 12:00","1993","02","20","12:00","","-5.8","","-10.7","","68","","20","","4","","19.3","","100.85","","","","-8","","Mainly Clear"
"-79.40","43.63","TORONTO ISLAND A","6158665","1993-02-20 13:00","1993","02","20","13:00","","-5.5","","-10.2","","69","","19","","6","","19.3","","100.82","","","","-8","","Mostly Cloudy"
"-79.40","43.63","TORONTO ISLAND A","6158665","1993-02-20 14:00","1993","02","20","14:00","","-4.9","","-9.8","","68","","18","","7","","16.1","","100.82","","","","-8","","Mostly Cloudy"
"-79.40","43.63","TORONTO ISLAND A","6158665","1993-02-20 15:00","1993","02","20","15:00","","-4.9","","-10.0","","67","","22","","15","","14.5","","100.82","","","","-10","","Mostly Cloudy"
"-79.40","43.63","TORONTO ISLAND A","6158665","1993-02-20 16:00","1993","02","20","16:00","","-4.7","","-10.5","","64","","22","","11","","12.9","","100.79","","","","-9","","Mainly Clear"
"-79.40","43.63","TORONTO ISLAND A","6158665","1993-02-20 17:00","1993","02","20","17:00","","-4.7","","-11.1","","61","","25","","7","","12.9","","100.82","","","","-8","","Mainly Clear"
"-79.40","43.63","TORONTO ISLAND A","6158665","1993-02-20 18:00","1993","02","20","18:00","","-5.0","","-11.6","","60","","23","","7","","16.1","","100.85","","","","-8","","Mostly Cloudy"
"-79.40","43.63","TORONTO ISLAND A","6158665","1993-02-20 19:00","1993","02","20","19:00","","-4.9","","-10.9","","63","","","","0","","24.1","","100.89","","","","","","Mostly Cloudy"
"-79.40","43.63","TORONTO ISLAND A","6158665","1993-02-20 20:00","1993","02","20","20:00","","-5.2","","-11.1","","63","","","","0","","24.1","","100.92","","","","","","Mostly Cloudy"
"-79.40","43.63","TORONTO ISLAND A","6158665","1993-02-20 21:00","1993","02","20","21:00","","-4.7","","-8.1","","77","","7","","11","","24.1","","100.85","","","","-9","","Cloudy"
"-79.40","43.63","TORONTO ISLAND A","6158665","1993-02-20 22:00","1993","02","20","22:00","","-5.9","","-9.0","","79","","7","","11","","16.1","","100.92","","","","-11","","Snow Showers"
"-79.40","43.63","TORONTO ISLAND A","6158665","1993-02-20 23:00","1993","02","20","23:00","","","","","","","","6","","7","","","","","","","","","","NA"
"-79.40","43.63","TORONTO ISLAND A","6158665","1993-02-21 00:00","1993","02","21","00:00","","","","","","","","1","","9","","","","","","","","","","NA"
"-79.40","43.63","TORONTO ISLAND A","6158665","1993-02-21 01:00","1993","02","21","01:00","","","","","","","","3","","7","","","","","","","","","","NA"
"-79.40","43.63","TORONTO ISLAND A","6158665","1993-02-21 02:00","1993","02","21","02:00","","","","","","","","3","","4","","","","","","","","","","NA"
"-79.40","43.63","TORONTO ISLAND A","6158665","1993-02-21 03:00","1993","02","21","03:00","","","","","","","","9","","4","","","","","","","","","","NA"
"-79.40","43.63","TORONTO ISLAND A","6158665","1993-02-21 04:00","1993","02","21","04:00","","","","","","","","13","","17","","","","","","","","","","NA"
"-79.40","43.63","TORONTO ISLAND A","6158665","1993-02-21 05:00","1993","02","21","05:00","","","","","","","","13","","24","","","","","","","","","","NA"
"-79.40","43.63","TORONTO ISLAND A","6158665","1993-02-21 06:00","1993","02","21","06:00","","","","","","","","11","","31","","","","","","","","","","NA"
"-79.40","43.63","TORONTO ISLAND A","6158665","1993-02-21 07:00","1993","02","21","07:00","","-4.8","","-10.1","","66","","11","","39","","24.1","","100.58","","","","-14","","Mostly Cloudy"
"-79.40","43.63","TORONTO ISLAND A","6158665","1993-02-21 08:00","1993","02","21","08:00","","-4.5","","-9.0","","71","","11","","46","","24.1","","100.52","","","","-14","","Cloudy"
"-79.40","43.63","TORONTO ISLAND A","6158665","1993-02-21 09:00","1993","02","21","09:00","","-3.6","","-8.5","","69","","11","","48","","24.1","","100.38","","","","-13","","Cloudy"
"-79.40","43.63","TORONTO ISLAND A","6158665","1993-02-21 10:00","1993","02","21","10:00","","-3.6","","-6.5","","80","","11","","56","","19.3","","100.18","","","","-13","","Cloudy"
"-79.40","43.63","TORONTO ISLAND A","6158665","1993-02-21 11:00","1993","02","21","11:00","","-3.9","","-6.2","","84","","11","","50","","3.2","","100.21","","","","-13","","Snow,Blowing Snow"
"-79.40","43.63","TORONTO ISLAND A","6158665","1993-02-21 12:00","1993","02","21","12:00","","-4.3","","-5.7","","90","","11","","52","","1.2","","99.98","","","","-14","","Snow,Blowing Snow"
"-79.40","43.63","TORONTO ISLAND A","6158665","1993-02-21 13:00","1993","02","21","13:00","","-4.3","","-5.2","","93","","11","","56","","1.2","","99.78","","","","-14","","Snow,Blowing Snow"
"-79.40","43.63","TORONTO ISLAND A","6158665","1993-02-21 14:00","1993","02","21","14:00","","-3.9","","-4.7","","94","","10","","57","","0.8","","99.68","","","","-14","","Moderate Snow,Blowing Snow"
"-79.40","43.63","TORONTO ISLAND A","6158665","1993-02-21 15:00","1993","02","21","15:00","","-3.9","","-4.6","","95","","10","","56","","0.6","","99.51","","","","-14","","Moderate Snow,Blowing Snow"
"-79.40","43.63","TORONTO ISLAND A","6158665","1993-02-21 16:00","1993","02","21","16:00","","-3.8","","-4.7","","93","","10","","59","","0.6","","99.37","","","","-14","","Moderate Snow,Blowing Snow"
"-79.40","43.63","TORONTO ISLAND A","6158665","1993-02-21 17:00","1993","02","21","17:00","","-3.6","","-4.2","","96","","10","","59","","0.6","","99.27","","","","-14","","Moderate Snow,Blowing Snow"
"-79.40","43.63","TORONTO ISLAND A","6158665","1993-02-21 18:00","1993","02","21","18:00","","-3.1","","-3.7","","96","","10","","63","","1.2","","99.17","","","","-13","","Snow,Blowing Snow"
"-79.40","43.63","TORONTO ISLAND A","6158665","1993-02-21 19:00","1993","02","21","19:00","","-3.6","","-4.2","","96","","8","","48","","1.2","","99.10","","","","-13","","Snow,Blowing Snow"
"-79.40","43.63","TORONTO ISLAND A","6158665","1993-02-21 20:00","1993","02","21","20:00","","-5.3","","-6.1","","94","","8","","56","","1.2","","99.00","","","","-16","","Snow,Blowing Snow"
"-79.40","43.63","TORONTO ISLAND A","6158665","1993-02-21 21:00","1993","02","21","21:00","","-4.8","","-5.6","","94","","7","","52","","2.0","","98.90","","","","-15","","Snow,Blowing Snow"
"-79.40","43.63","TORONTO ISLAND A","6158665","1993-02-21 22:00","1993","02","21","22:00","","-3.8","","-4.5","","95","","7","","48","","1.2","","98.77","","","","-13","","Snow,Blowing Snow"
"-79.40","43.63","TORONTO ISLAND A","6158665","1993-02-21 23:00","1993","02","21","23:00","","","","","","","","8","","44","","","","","","","","","","NA"
"-79.40","43.63","TORONTO ISLAND A","6158665","1993-02-22 00:00","1993","02","22","00:00","","","","","","","","8","","57","","","","","","","","","","NA"
"-79.40","43.63","TORONTO ISLAND A","6158665","1993-02-22 01:00","1993","02","22","01:00","","","","","","","","8","","48","","","","","","","","","","NA"
"-79.40","43.63","TORONTO ISLAND A","6158665","1993-02-22 02:00","1993","02","22","02:00","","","","","","","","8","","43","","","","","","","","","","NA"
"-79.40","43.63","TORONTO ISLAND A","6158665","1993-02-22 03:00","1993","02","22","03:00","","","","","","","","6","","35","","","","","","","","","","NA"
"-79.40","43.63","TORONTO ISLAND A","6158665","1993-02-22 04:00","1993","02","22","04:00","","","","","","","","4","","15","","","","","","","","","","NA"
"-79.40","43.63","TORONTO ISLAND A","6158665","1993-02-22 05:00","1993","02","22","05:00","","","","","","","","3","","17","","","","","","","","","","NA"
"-79.40","43.63","TORONTO ISLAND A","6158665","1993-02-22 06:00","1993","02","22","06:00","","","","","","","","36","","17","","","","","","","","","","NA"
"-79.40","43.63","TORONTO ISLAND A","6158665","1993-02-22 07:00","1993","02","22","07:00","","-8.1","","-9.9","","87","","35","","13","","2.0","","98.63","","","","-14","","Snow"
"-79.40","43.63","TORONTO ISLAND A","6158665","1993-02-22 08:00","1993","02","22","08:00","","-8.1","","-9.8","","88","","36","","9","","4.0","","98.73","","","","-13","","Snow"
"-79.40","43.63","TORONTO ISLAND A","6158665","1993-02-22 09:00","1993","02","22","09:00","","-7.9","","-9.9","","85","","31","","9","","6.4","","98.77","","","","-12","","Snow,Snow Grains"
"-79.40","43.63","TORONTO ISLAND A","6158665","1993-02-22 10:00","1993","02","22","10:00","","-7.6","","-9.9","","84","","33","","7","","8.0","","98.77","","","","-11","","Snow Grains,Fog"
"-79.40","43.63","TORONTO ISLAND A","6158665","1993-02-22 11:00","1993","02","22","11:00","","-7.1","","-9.7","","82","","34","","6","","8.0","","98.80","","","","-10","","Snow Grains,Fog"
"-79.40","43.63","TORONTO ISLAND A","6158665","1993-02-22 12:00","1993","02","22","12:00","","-6.6","","-9.5","","80","","30","","6","","4.8","","98.80","","","","-10","","Snow"
"-79.40","43.63","TORONTO ISLAND A","6158665","1993-02-22 13:00","1993","02","22","13:00","","-5.9","","-8.5","","82","","","","0","","3.2","","98.80","","","","","","Snow"
"-79.40","43.63","TORONTO ISLAND A","6158665","1993-02-22 14:00","1993","02","22","14:00","","-6.0","","-7.9","","86","","","","0","","3.6","","98.80","","","","","","Snow"
"-79.40","43.63","TORONTO ISLAND A","6158665","1993-02-22 15:00","1993","02","22","15:00","","-5.9","","-7.6","","88","","","","0","","2.0","","98.83","","","","","","Snow"
"-79.40","43.63","TORONTO ISLAND A","6158665","1993-02-22 16:00","1993","02","22","16:00","","-6.2","","-8.4","","85","","28","","15","","2.0","","98.94","","","","-12","","Snow"
"-79.40","43.63","TORONTO ISLAND A","6158665","1993-02-22 17:00","1993","02","22","17:00","","-6.5","","-8.5","","86","","29","","15","","4.8","","99.07","","","","-12","","Snow"
"-79.40","43.63","TORONTO ISLAND A","6158665","1993-02-22 18:00","1993","02","22","18:00","","-5.9","","-8.3","","83","","29","","22","","4.0","","99.24","","","","-13","","Snow"
"-79.40","43.63","TORONTO ISLAND A","6158665","1993-02-22 19:00","1993","02","22","19:00","","-5.6","","-9.1","","76","","28","","19","","12.9","","99.34","","","","-12","","Snow"
"-79.40","43.63","TORONTO ISLAND A","6158665","1993-02-22 20:00","1993","02","22","20:00","","-5.9","","-8.9","","79","","28","","22","","12.9","","99.37","","","","-13","","Snow"
"-79.40","43.63","TORONTO ISLAND A","6158665","1993-02-22 21:00","1993","02","22","21:00","","-5.9","","-8.6","","81","","27","","22","","12.9","","99.44","","","","-13","","Snow"
"-79.40","43.63","TORONTO ISLAND A","6158665","1993-02-22 22:00","1993","02","22","22:00","","-6.2","","-9.3","","79","","27","","19","","19.3","","99.44","","","","-13","","Snow"
"-79.40","43.63","TORONTO ISLAND A","6158665","1993-02-22 23:00","1993","02","22","23:00","","","","","","","","28","","19","","","","","","","","","","NA"
"-79.40","43.63","TORONTO ISLAND A","6158665","1993-02-23 00:00","1993","02","23","00:00","","","","","","","","28","","19","","","","","","","","","","NA"
"-79.40","43.63","TORONTO ISLAND A","6158665","1993-02-23 01:00","1993","02","23","01:00","","","","","","","","28","","19","","","","","","","","","","NA"
"-79.40","43.63","TORONTO ISLAND A","6158665","1993-02-23 02:00","1993","02","23","02:00","","","","","","","","29","","17","","","","","","","","","","NA"
"-79.40","43.63","TORONTO ISLAND A","6158665","1993-02-23 03:00","1993","02","23","03:00","","","","","","","","29","","15","","","","","","","","","","NA"
"-79.40","43.63","TORONTO ISLAND A","6158665","1993-02-23 04:00","1993","02","23","04:00","","","","","","","","31","","17","","","","","","","","","","NA"
"-79.40","43.63","TORONTO ISLAND A","6158665","1993-02-23 05:00","1993","02","23","05:00","","","","","","","","31","","19","","","","","","","","","","NA"
"-79.40","43.63","TORONTO ISLAND A","6158665","1993-02-23 06:00","1993","02","23","06:00","","","","","","","","30","","19","","","","","","","","","","NA"
"-79.40","43.63","TORONTO ISLAND A","6158665","1993-02-23 07:00","1993","02","23","07:00","","-9.8","","-12.8","","79","","31","","26","","16.1","","99.57","","","","-19","","Mostly Cloudy"
"-79.40","43.63","TORONTO ISLAND A","6158665","1993-02-23 08:00","1993","02","23","08:00","","-9.6","","-13.0","","76","","31","","22","","12.9","","99.68","","","","-18","","Cloudy"
"-79.40","43.63","TORONTO ISLAND A","6158665","1993-02-23 09:00","1993","02","23","09:00","","-9.8","","-13.0","","77","","30","","22","","16.1","","99.74","","","","-18","","Mainly Clear"
"-79.40","43.63","TORONTO ISLAND A","6158665","1993-02-23 10:00","1993","02","23","10:00","","-9.1","","-12.8","","75","","29","","22","","9.7","","99.74","","","","-17","","Snow Showers,Haze"
"-79.40","43.63","TORONTO ISLAND A","6158665","1993-02-23 11:00","1993","02","23","11:00","","-8.9","","-12.6","","74","","30","","22","","6.4","","99.78","","","","-17","","Snow Showers,Haze"
"-79.40","43.63","TORONTO ISLAND A","6158665","1993-02-23 12:00","1993","02","23","12:00","","-8.7","","-14.0","","65","","31","","24","","24.1","","99.81","","","","-17","","Mostly Cloudy"
"-79.40","43.63","TORONTO ISLAND A","6158665","1993-02-23 13:00","1993","02","23","13:00","","-8.2","","-13.5","","66","","29","","22","","24.1","","99.81","","","","-16","","Cloudy"
"-79.40","43.63","TORONTO ISLAND A","6158665","1993-02-23 14:00","1993","02","23","14:00","","-8.6","","-13.1","","70","","30","","24","","12.9","","99.84","","","","-17","","Cloudy"
"-79.40","43.63","TORONTO ISLAND A","6158665","1993-02-23 15:00","1993","02","23","15:00","","-8.7","","-12.0","","77","","30","","22","","2.4","","99.94","","","","-17","","Snow Showers"
"-79.40","43.63","TORONTO ISLAND A","6158665","1993-02-23 16:00","1993","02","23","16:00","","-9.1","","-12.8","","75","","29","","22","","11.3","","99.98","","","","-17","","Cloudy"
"-79.40","43.63","TORONTO ISLAND A","6158665","1993-02-23 17:00","1993","02","23","17:00","","-9.7","","-14.0","","71","","30","","22","","12.9","","100.08","","","","-18","","Mostly Cloudy"
"-79.40","43.63","TORONTO ISLAND A","6158665","1993-02-23 18:00","1993","02","23","18:00","","-10.4","","-14.4","","72","","31","","28","","12.9","","100.15","","","","-20","","Cloudy"
"-79.40","43.63","TORONTO ISLAND A","6158665","1993-02-23 19:00","1993","02","23","19:00","","-11.2","","-14.6","","76","","31","","22","","6.4","","100.28","","","","-20","","Snow Showers"
"-79.40","43.63","TORONTO ISLAND A","6158665","1993-02-23 20:00","1993","02","23","20:00","","-11.1","","-15.3","","71","","31","","22","","24.1","","100.31","","","","-20","","Cloudy"
"-79.40","43.63","TORONTO ISLAND A","6158665","1993-02-23 21:00","1993","02","23","21:00","","-11.2","","-15.6","","70","","31","","22","","24.1","","100.38","","","","-20","","Mostly Cloudy"
"-79.40","43.63","TORONTO ISLAND A","6158665","1993-02-23 22:00","1993","02","23","22:00","","-11.5","","-16.2","","68","","31","","28","","24.1","","100.42","","","","-21","","Mainly Clear"
"-79.40","43.63","TORONTO ISLAND A","6158665","1993-02-23 23:00","1993","02","23","23:00","","","","","","","","29","","15","","","","","","","","","","NA"
"-79.40","43.63","TORONTO ISLAND A","6158665","1993-02-24 00:00","1993","02","24","00:00","","","","","","","","29","","17","","","","","","","","","","NA"
"-79.40","43.63","TORONTO ISLAND A","6158665","1993-02-24 01:00","1993","02","24","01:00","","","","","","","","29","","17","","","","","","","","","","NA"
"-79.40","43.63","TORONTO ISLAND A","6158665","1993-02-24 02:00","1993","02","24","02:00","","","","","","","","30","","15","","","","","","","","","","NA"
"-79.40","43.63","TORONTO ISLAND A","6158665","1993-02-24 03:00","1993","02","24","03:00","","","","","","","","32","","13","","","","","","","","","","NA"
"-79.40","43.63","TORONTO ISLAND A","6158665","1993-02-24 04:00","1993","02","24","04:00","","","","","","","","33","","15","","","","","","","","","","NA"
"-79.40","43.63","TORONTO ISLAND A","6158665","1993-02-24 05:00","1993","02","24","05:00","","","","","","","","31","","11","","","","","","","","","","NA"
"-79.40","43.63","TORONTO ISLAND A","6158665","1993-02-24 06:00","1993","02","24","06:00","","","","","","","","32","","13","","","","","","","","","","NA"
"-79.40","43.63","TORONTO ISLAND A","6158665","1993-02-24 07:00","1993","02","24","07:00","","-14.5","","-18.9","","69","","31","","19","","24.1","","100.92","","","","-23","","Mostly Cloudy"
"-79.40","43.63","TORONTO ISLAND A","6158665","1993-02-24 08:00","1993","02","24","08:00","","-15.0","","-19.5","","68","","31","","15","","24.1","","101.02","","","","-23","","Mainly Clear"
"-79.40","43.63","TORONTO ISLAND A","6158665","1993-02-24 09:00","1993","02","24","09:00","","-14.0","","-19.5","","63","","32","","13","","24.1","","101.09","","","","-21","","Mainly Clear"
"-79.40","43.63","TORONTO ISLAND A","6158665","1993-02-24 10:00","1993","02","24","10:00","","-13.4","","-20.5","","55","","31","","17","","24.1","","101.15","","","","-21","","Mostly Cloudy"
"-79.40","43.63","TORONTO ISLAND A","6158665","1993-02-24 11:00","1993","02","24","11:00","","-12.3","","-19.8","","53","","31","","22","","24.1","","101.19","","","","-21","","Mainly Clear"
"-79.40","43.63","TORONTO ISLAND A","6158665","1993-02-24 12:00","1993","02","24","12:00","","-10.9","","-19.9","","47","","28","","17","","24.1","","101.26","","","","-18","","Mainly Clear"
"-79.40","43.63","TORONTO ISLAND A","6158665","1993-02-24 13:00","1993","02","24","13:00","","-9.6","","-18.0","","50","","30","","19","","24.1","","101.26","","","","-17","","Mainly Clear"
"-79.40","43.63","TORONTO ISLAND A","6158665","1993-02-24 14:00","1993","02","24","14:00","","-8.0","","-17.7","","45","","28","","33","","24.1","","101.26","","","","-17","","Mainly Clear"
"-79.40","43.63","TORONTO ISLAND A","6158665","1993-02-24 15:00","1993","02","24","15:00","","-8.0","","-17.7","","45","","28","","33","","24.1","","101.26","","","","-17","","Mainly Clear"
"-79.40","43.63","TORONTO ISLAND A","6158665","1993-02-24 16:00","1993","02","24","16:00","","-7.8","","-17.6","","45","","30","","30","","24.1","","101.32","","","","-17","","Mainly Clear"
"-79.40","43.63","TORONTO ISLAND A","6158665","1993-02-24 17:00","1993","02","24","17:00","","-7.8","","-17.6","","45","","28","","22","","24.1","","101.39","","","","-15","","Mainly Clear"
"-79.40","43.63","TORONTO ISLAND A","6158665","1993-02-24 18:00","1993","02","24","18:00","","-9.2","","-19.4","","43","","36","","11","","24.1","","101.42","","","","-15","","Mainly Clear"
"-79.40","43.63","TORONTO ISLAND A","6158665","1993-02-24 19:00","1993","02","24","19:00","","-9.8","","-19.9","","43","","35","","15","","24.1","","101.49","","","","-16","","Clear"
"-79.40","43.63","TORONTO ISLAND A","6158665","1993-02-24 20:00","1993","02","24","20:00","","-10.5","","-19.9","","46","","35","","15","","24.1","","101.59","","","","-17","","Mainly Clear"
"-79.40","43.63","TORONTO ISLAND A","6158665","1993-02-24 21:00","1993","02","24","21:00","","-10.8","","-19.5","","49","","35","","9","","24.1","","101.63","","","","-16","","Mainly Clear"
"-79.40","43.63","TORONTO ISLAND A","6158665","1993-02-24 22:00","1993","02","24","22:00","","-11.1","","-19.4","","50","","35","","9","","24.1","","101.69","","","","-16","","Mainly Clear"
"-79.40","43.63","TORONTO ISLAND A","6158665","1993-02-24 23:00","1993","02","24","23:00","","","","","","","","34","","6","","","","","","","","","","NA"
"-79.40","43.63","TORONTO ISLAND A","6158665","1993-02-25 00:00","1993","02","25","00:00","","","","","","","","34","","7","","","","","","","","","","NA"
"-79.40","43.63","TORONTO ISLAND A","6158665","1993-02-25 01:00","1993","02","25","01:00","","","","","","","","31","","4","","","","","","","","","","NA"
"-79.40","43.63","TORONTO ISLAND A","6158665","1993-02-25 02:00","1993","02","25","02:00","","","","","","","","35","","4","","","","","","","","","","NA"
"-79.40","43.63","TORONTO ISLAND A","6158665","1993-02-25 03:00","1993","02","25","03:00","","","","","","","","35","","6","","","","","","","","","","NA"
"-79.40","43.63","TORONTO ISLAND A","6158665","1993-02-25 04:00","1993","02","25","04:00","","","","","","","","35","","6","","","","","","","","","","NA"
"-79.40","43.63","TORONTO ISLAND A","6158665","1993-02-25 05:00","1993","02","25","05:00","","","","","","","","33","","4","","","","","","","","","","NA"
"-79.40","43.63","TORONTO ISLAND A","6158665","1993-02-25 06:00","1993","02","25","06:00","","","","","","","","30","","4","","","","","","","","","","NA"
"-79.40","43.63","TORONTO ISLAND A","6158665","1993-02-25 07:00","1993","02","25","07:00","","-11.7","","-16.0","","70","","30","","4","","16.1","","102.20","","","","-14","","Mostly Cloudy"
"-79.40","43.63","TORONTO ISLAND A","6158665","1993-02-25 08:00","1993","02","25","08:00","","-11.9","","-16.4","","69","","34","","13","","12.9","","102.26","","","","-19","","Mainly Clear"
"-79.40","43.63","TORONTO ISLAND A","6158665","1993-02-25 09:00","1993","02","25","09:00","","-9.6","","-17.3","","53","","31","","4","","12.9","","102.30","","","","-12","","Clear"
"-79.40","43.63","TORONTO ISLAND A","6158665","1993-02-25 10:00","1993","02","25","10:00","","-7.9","","-17.8","","45","","28","","7","","24.1","","102.30","","","","-12","","Clear"
"-79.40","43.63","TORONTO ISLAND A","6158665","1993-02-25 11:00","1993","02","25","11:00","","-7.2","","-17.9","","42","","26","","7","","24.1","","102.33","","","","-11","","Clear"
"-79.40","43.63","TORONTO ISLAND A","6158665","1993-02-25 12:00","1993","02","25","12:00","","-6.7","","-16.6","","45","","23","","11","","24.1","","102.33","","","","-12","","Clear"
"-79.40","43.63","TORONTO ISLAND A","6158665","1993-02-25 13:00","1993","02","25","13:00","","-6.2","","-17.7","","40","","22","","11","","24.1","","102.30","","","","-11","","Mainly Clear"
"-79.40","43.63","TORONTO ISLAND A","6158665","1993-02-25 14:00","1993","02","25","14:00","","-5.8","","-11.6","","63","","22","","9","","24.1","","102.20","","","","-10","","Mainly Clear"
"-79.40","43.63","TORONTO ISLAND A","6158665","1993-02-25 15:00","1993","02","25","15:00","","-5.7","","-11.1","","66","","18","","11","","24.1","","102.16","","","","-10","","Mainly Clear"
"-79.40","43.63","TORONTO ISLAND A","6158665","1993-02-25 16:00","1993","02","25","16:00","","-5.7","","-11.3","","65","","20","","9","","24.1","","102.16","","","","-10","","Mostly Cloudy"
"-79.40","43.63","TORONTO ISLAND A","6158665","1993-02-25 17:00","1993","02","25","17:00","","-5.9","","-12.7","","58","","21","","13","","24.1","","102.16","","","","-11","","Mostly Cloudy"
"-79.40","43.63","TORONTO ISLAND A","6158665","1993-02-25 18:00","1993","02","25","18:00","","-6.7","","-13.6","","58","","22","","7","","24.1","","102.06","","","","-10","","Mostly Cloudy"
"-79.40","43.63","TORONTO ISLAND A","6158665","1993-02-25 19:00","1993","02","25","19:00","","-7.2","","-14.2","","57","","21","","4","","24.1","","102.03","","","","-9","","Mostly Cloudy"
"-79.40","43.63","TORONTO ISLAND A","6158665","1993-02-25 20:00","1993","02","25","20:00","","-7.4","","-14.0","","59","","14","","4","","24.1","","101.96","","","","-9","","Mostly Cloudy"
"-79.40","43.63","TORONTO ISLAND A","6158665","1993-02-25 21:00","1993","02","25","21:00","","-6.2","","-12.3","","62","","18","","4","","24.1","","101.89","","","","-8","","Mostly Cloudy"
"-79.40","43.63","TORONTO ISLAND A","6158665","1993-02-25 22:00","1993","02","25","22:00","","-6.8","","-13.0","","61","","12","","4","","24.1","","101.86","","","","-9","","Mostly Cloudy"
"-79.40","43.63","TORONTO ISLAND A","6158665","1993-02-25 23:00","1993","02","25","23:00","","","","","","","","12","","7","","","","","","","","","","NA"
"-79.40","43.63","TORONTO ISLAND A","6158665","1993-02-26 00:00","1993","02","26","00:00","","","","","","","","12","","9","","","","","","","","","","NA"
"-79.40","43.63","TORONTO ISLAND A","6158665","1993-02-26 01:00","1993","02","26","01:00","","","","","","","","10","","15","","","","","","","","","","NA"
"-79.40","43.63","TORONTO ISLAND A","6158665","1993-02-26 02:00","1993","02","26","02:00","","","","","","","","2","","11","","","","","","","","","","NA"
"-79.40","43.63","TORONTO ISLAND A","6158665","1993-02-26 03:00","1993","02","26","03:00","","","","","","","","2","","15","","","","","","","","","","NA"
"-79.40","43.63","TORONTO ISLAND A","6158665","1993-02-26 04:00","1993","02","26","04:00","","","","","","","","3","","15","","","","","","","","","","NA"
"-79.40","43.63","TORONTO ISLAND A","6158665","1993-02-26 05:00","1993","02","26","05:00","","","","","","","","5","","22","","","","","","","","","","NA"
"-79.40","43.63","TORONTO ISLAND A","6158665","1993-02-26 06:00","1993","02","26","06:00","","","","","","","","3","","24","","","","","","","","","","NA"
"-79.40","43.63","TORONTO ISLAND A","6158665","1993-02-26 07:00","1993","02","26","07:00","","-6.9","","-9.4","","82","","4","","22","","16.1","","101.69","","","","-14","","Clear"
"-79.40","43.63","TORONTO ISLAND A","6158665","1993-02-26 08:00","1993","02","26","08:00","","-7.0","","-10.3","","77","","2","","13","","14.5","","101.76","","","","-13","","Clear"
"-79.40","43.63","TORONTO ISLAND A","6158665","1993-02-26 09:00","1993","02","26","09:00","","-6.5","","-10.7","","72","","5","","22","","16.1","","101.79","","","","-14","","Clear"
"-79.40","43.63","TORONTO ISLAND A","6158665","1993-02-26 10:00","1993","02","26","10:00","","-5.3","","-10.0","","69","","6","","28","","24.1","","101.79","","","","-13","","Mainly Clear"
"-79.40","43.63","TORONTO ISLAND A","6158665","1993-02-26 11:00","1993","02","26","11:00","","-4.6","","-9.4","","69","","7","","22","","24.1","","101.83","","","","-11","","Mainly Clear"
"-79.40","43.63","TORONTO ISLAND A","6158665","1993-02-26 12:00","1993","02","26","12:00","","-4.4","","-10.1","","64","","7","","26","","24.1","","101.83","","","","-12","","Mainly Clear"
"-79.40","43.63","TORONTO ISLAND A","6158665","1993-02-26 13:00","1993","02","26","13:00","","-4.2","","-9.7","","65","","10","","26","","24.1","","101.79","","","","-11","","Mainly Clear"
"-79.40","43.63","TORONTO ISLAND A","6158665","1993-02-26 14:00","1993","02","26","14:00","","-4.2","","-9.8","","65","","10","","26","","24.1","","101.76","","","","-11","","Mainly Clear"
"-79.40","43.63","TORONTO ISLAND A","6158665","1993-02-26 15:00","1993","02","26","15:00","","-4.2","","-10.1","","63","","9","","22","","24.1","","101.79","","","","-11","","Mainly Clear"
"-79.40","43.63","TORONTO ISLAND A","6158665","1993-02-26 16:00","1993","02","26","16:00","","-4.3","","-10.6","","61","","10","","19","","24.1","","101.79","","","","-10","","Mainly Clear"
"-79.40","43.63","TORONTO ISLAND A","6158665","1993-02-26 17:00","1993","02","26","17:00","","-4.6","","-10.4","","64","","10","","19","","24.1","","101.79","","","","-11","","Mainly Clear"
"-79.40","43.63","TORONTO ISLAND A","6158665","1993-02-26 18:00","1993","02","26","18:00","","-5.1","","-10.6","","65","","5","","7","","24.1","","101.86","","","","-8","","Mainly Clear"
"-79.40","43.63","TORONTO ISLAND A","6158665","1993-02-26 19:00","1993","02","26","19:00","","-5.2","","-11.0","","64","","4","","9","","24.1","","101.89","","","","-9","","Clear"
"-79.40","43.63","TORONTO ISLAND A","6158665","1993-02-26 20:00","1993","02","26","20:00","","-5.0","","-13.4","","52","","5","","11","","24.1","","101.89","","","","-10","","Clear"
"-79.40","43.63","TORONTO ISLAND A","6158665","1993-02-26 21:00","1993","02","26","21:00","","-5.4","","-12.5","","57","","1","","9","","24.1","","101.89","","","","-9","","Clear"
"-79.40","43.63","TORONTO ISLAND A","6158665","1993-02-26 22:00","1993","02","26","22:00","","-6.1","","-12.3","","61","","35","","13","","24.1","","101.93","","","","-11","","Clear"
"-79.40","43.63","TORONTO ISLAND A","6158665","1993-02-26 23:00","1993","02","26","23:00"
"-79.40","43.63","TORONTO ISLAND A","6158665","1993-02-27 00:00","1993","02","27","00:00"
"-79.40","43.63","TORONTO ISLAND A","6158665","1993-02-27 01:00","1993","02","27","01:00"
"-79.40","43.63","TORONTO ISLAND A","6158665","1993-02-27 02:00","1993","02","27","02:00"
"-79.40","43.63","TORONTO ISLAND A","6158665","1993-02-27 03:00","1993","02","27","03:00"
"-79.40","43.63","TORONTO ISLAND A","6158665","1993-02-27 04:00","1993","02","27","04:00"
"-79.40","43.63","TORONTO ISLAND A","6158665","1993-02-27 05:00","1993","02","27","05:00"
"-79.40","43.63","TORONTO ISLAND A","6158665","1993-02-27 06:00","1993","02","27","06:00"
"-79.40","43.63","TORONTO ISLAND A","6158665","1993-02-27 07:00","1993","02","27","07:00","","-6.7","","-13.8","","57","","7","","17","","24.1","","101.96","","","","-13","","Mainly Clear"
"-79.40","43.63","TORONTO ISLAND A","6158665","1993-02-27 08:00","1993","02","27","08:00","","-6.9","","-13.2","","60","","6","","15","","19.3","","102.00","","","","-13","","Mainly Clear"
"-79.40","43.63","TORONTO ISLAND A","6158665","1993-02-27 09:00","1993","02","27","09:00","","-6.1","","-11.1","","68","","8","","17","","19.3","","102.00","","","","-12","","Clear"
"-79.40","43.63","TORONTO ISLAND A","6158665","1993-02-27 10:00","1993","02","27","10:00","","-5.1","","-8.7","","76","","9","","19","","19.3","","102.00","","","","-12","","Clear"
"-79.40","43.63","TORONTO ISLAND A","6158665","1993-02-27 11:00","1993","02","27","11:00","","-4.4","","-8.2","","74","","9","","19","","19.3","","102.00","","","","-11","","Mainly Clear"
"-79.40","43.63","TORONTO ISLAND A","6158665","1993-02-27 12:00","1993","02","27","12:00","","-3.9","","-8.3","","71","","11","","17","","24.1","","102.00","","","","-10","","Mostly Cloudy"
"-79.40","43.63","TORONTO ISLAND A","6158665","1993-02-27 13:00","1993","02","27","13:00","","-3.9","","-9.0","","67","","10","","19","","25.0","","101.89","","","","-10","","Mainly Clear"
"-79.40","43.63","TORONTO ISLAND A","6158665","1993-02-27 14:00","1993","02","27","14:00","","-3.8","","-9.9","","62","","11","","17","","25.0","","101.86","","","","-10","","Mainly Clear"
"-79.40","43.63","TORONTO ISLAND A","6158665","1993-02-27 15:00","1993","02","27","15:00","","-3.9","","-10.2","","61","","11","","17","","25.0","","101.83","","","","-10","","Mostly Cloudy"
"-79.40","43.63","TORONTO ISLAND A","6158665","1993-02-27 16:00","1993","02","27","16:00","","-3.6","","-11.4","","55","","13","","13","","25.0","","101.79","","","","-8","","Cloudy"
"-79.40","43.63","TORONTO ISLAND A","6158665","1993-02-27 17:00","1993","02","27","17:00","","-4.0","","-11.2","","57","","12","","13","","25.0","","101.79","","","","-9","","Cloudy"
"-79.40","43.63","TORONTO ISLAND A","6158665","1993-02-27 18:00","1993","02","27","18:00","","-4.8","","-12.5","","55","","10","","7","","25.0","","101.79","","","","-8","","Mostly Cloudy"
"-79.40","43.63","TORONTO ISLAND A","6158665","1993-02-27 19:00","1993","02","27","19:00","","-5.1","","-11.8","","59","","11","","4","","25.0","","101.79","","","","-7","","Mostly Cloudy"
"-79.40","43.63","TORONTO ISLAND A","6158665","1993-02-27 20:00","1993","02","27","20:00","","-5.4","","-11.9","","60","","","","0","","25.0","","101.79","","","","","","Mostly Cloudy"
"-79.40","43.63","TORONTO ISLAND A","6158665","1993-02-27 21:00","1993","02","27","21:00","","-6.5","","-12.7","","61","","","","0","","25.0","","101.79","","","","","","Mostly Cloudy"
"-79.40","43.63","TORONTO ISLAND A","6158665","1993-02-27 22:00","1993","02","27","22:00","","-6.5","","-12.0","","65","","","","0","","25.0","","101.76","","","","","","Mainly Clear"
"-79.40","43.63","TORONTO ISLAND A","6158665","1993-02-27 23:00","1993","02","27","23:00","","","","","","","","35","","9","","","","","","","","","","NA"
"-79.40","43.63","TORONTO ISLAND A","6158665","1993-02-28 00:00","1993","02","28","00:00","","","","","","","","35","","13","","","","","","","","","","NA"
"-79.40","43.63","TORONTO ISLAND A","6158665","1993-02-28 01:00","1993","02","28","01:00","","","","","","","","35","","11","","","","","","","","","","NA"
"-79.40","43.63","TORONTO ISLAND A","6158665","1993-02-28 02:00","1993","02","28","02:00","","","","","","","","35","","9","","","","","","","","","","NA"
"-79.40","43.63","TORONTO ISLAND A","6158665","1993-02-28 03:00","1993","02","28","03:00","","","","","","","","35","","9","","","","","","","","","","NA"
"-79.40","43.63","TORONTO ISLAND A","6158665","1993-02-28 04:00","1993","02","28","04:00","","","","","","","","34","","11","","","","","","","","","","NA"
"-79.40","43.63","TORONTO ISLAND A","6158665","1993-02-28 05:00","1993","02","28","05:00","","","","","","","","33","","9","","","","","","","","","","NA"
"-79.40","43.63","TORONTO ISLAND A","6158665","1993-02-28 06:00","1993","02","28","06:00","","","","","","","","34","","11","","","","","","","","","","NA"
"-79.40","43.63","TORONTO ISLAND A","6158665","1993-02-28 07:00","1993","02","28","07:00","","-9.7","","-13.2","","75","","35","","13","","19.3","","101.86","","","","-16","","Clear"
"-79.40","43.63","TORONTO ISLAND A","6158665","1993-02-28 08:00","1993","02","28","08:00","","-8.2","","-12.6","","70","","34","","11","","19.3","","101.83","","","","-13","","Clear"
"-79.40","43.63","TORONTO ISLAND A","6158665","1993-02-28 09:00","1993","02","28","09:00","","-5.6","","-11.9","","61","","29","","4","","24.1","","101.86","","","","-7","","Clear"
"-79.40","43.63","TORONTO ISLAND A","6158665","1993-02-28 10:00","1993","02","28","10:00","","-4.6","","-11.7","","57","","27","","6","","24.1","","101.83","","","","-7","","Clear"
"-79.40","43.63","TORONTO ISLAND A","6158665","1993-02-28 11:00","1993","02","28","11:00","","-3.6","","-11.7","","53","","25","","9","","25.0","","101.86","","","","-7","","Clear"
"-79.40","43.63","TORONTO ISLAND A","6158665","1993-02-28 12:00","1993","02","28","12:00","","-3.4","","-11.6","","53","","23","","13","","25.0","","101.86","","","","-8","","Clear"
"-79.40","43.63","TORONTO ISLAND A","6158665","1993-02-28 13:00","1993","02","28","13:00","","-2.7","","-10.2","","56","","19","","13","","25.0","","101.76","","","","-7","","Clear"
"-79.40","43.63","TORONTO ISLAND A","6158665","1993-02-28 14:00","1993","02","28","14:00","","-2.9","","-9.7","","59","","20","","19","","25.0","","101.66","","","","-9","","Mostly Cloudy"
"-79.40","43.63","TORONTO ISLAND A","6158665","1993-02-28 15:00","1993","02","28","15:00","","-3.2","","-9.7","","61","","21","","22","","25.0","","101.59","","","","-10","","Mostly Cloudy"
"-79.40","43.63","TORONTO ISLAND A","6158665","1993-02-28 16:00","1993","02","28","16:00","","-2.5","","-8.9","","61","","22","","22","","25.0","","101.59","","","","-9","","Mostly Cloudy"
"-79.40","43.63","TORONTO ISLAND A","6158665","1993-02-28 17:00","1993","02","28","17:00","","-2.3","","-8.5","","62","","24","","22","","24.1","","101.56","","","","-8","","Cloudy"
"-79.40","43.63","TORONTO ISLAND A","6158665","1993-02-28 18:00","1993","02","28","18:00","","-2.5","","-10.7","","53","","23","","22","","24.1","","101.46","","","","-9","","Cloudy"
"-79.40","43.63","TORONTO ISLAND A","6158665","1993-02-28 19:00","1993","02","28","19:00","","-2.9","","-10.1","","57","","24","","26","","24.1","","101.49","","","","-10","","Mostly Cloudy"
"-79.40","43.63","TORONTO ISLAND A","6158665","1993-02-28 20:00","1993","02","28","20:00","","-3.0","","-9.0","","63","","25","","28","","24.1","","101.46","","","","-10","","Mostly Cloudy"
"-79.40","43.63","TORONTO ISLAND A","6158665","1993-02-28 21:00","1993","02","28","21:00","","-3.2","","-8.8","","65","","24","","30","","24.1","","101.36","","","","-11","","Cloudy"
"-79.40","43.63","TORONTO ISLAND A","6158665","1993-02-28 22:00","1993","02","28","22:00","","-3.2","","-7.9","","70","","24","","33","","24.1","","101.29","","","","-11","","Cloudy"
"-79.40","43.63","TORONTO ISLAND A","6158665","1993-02-28 23:00","1993","02","28","23:00","","","","","","","","25","","35","","","","","","","","","","NA"
