"Longitude (x)","Latitude (y)","Station Name","Climate ID","Date/Time (LST)","Year","Month","Day","Time (LST)","Flag","Temp (°C)","Temp Flag","Dew Point Temp (°C)","Dew Point Temp Flag","Rel Hum (%)","Rel Hum Flag","Wind Dir (10s deg)","Wind Dir Flag","Wind Spd (km/h)","Wind Spd Flag","Visibility (km)","Visibility Flag","Stn Press (kPa)","Stn Press Flag","Hmdx","Hmdx Flag","Wind Chill","Wind Chill Flag","Weather"
"-79.40","43.63","TORONTO ISLAND A","6158665","1990-03-01 00:00","1990","03","01","00:00"
"-79.40","43.63","TORONTO ISLAND A","6158665","1990-03-01 01:00","1990","03","01","01:00"
"-79.40","43.63","TORONTO ISLAND A","6158665","1990-03-01 02:00","1990","03","01","02:00","","","","","","","","28","","19","","","","","","","","","","NA"
"-79.40","43.63","TORONTO ISLAND A","6158665","1990-03-01 03:00","1990","03","01","03:00","","","","","","","","28","","15","","","","","","","","","","NA"
"-79.40","43.63","TORONTO ISLAND A","6158665","1990-03-01 04:00","1990","03","01","04:00","","","","","","","","27","","15","","","","","","","","","","NA"
"-79.40","43.63","TORONTO ISLAND A","6158665","1990-03-01 05:00","1990","03","01","05:00","","","","","","","","29","","15","","","","","","","","","","NA"
"-79.40","43.63","TORONTO ISLAND A","6158665","1990-03-01 06:00","1990","03","01","06:00","","","","","","","","27","","13","","","","","","","","","","NA"
"-79.40","43.63","TORONTO ISLAND A","6158665","1990-03-01 07:00","1990","03","01","07:00","","-6.0","","-10.6","","70","","27","","13","","25.0","","101.86","","","","-11","","Mainly Clear"
"-79.40","43.63","TORONTO ISLAND A","6158665","1990-03-01 08:00","1990","03","01","08:00","","-4.8","","-9.7","","68","","24","","20","","25.0","","101.79","","","","-11","","Clear"
"-79.40","43.63","TORONTO ISLAND A","6158665","1990-03-01 09:00","1990","03","01","09:00","","-4.1","","-8.3","","73","","23","","28","","25.0","","101.79","","","","-12","","Clear"
"-79.40","43.63","TORONTO ISLAND A","6158665","1990-03-01 10:00","1990","03","01","10:00","","-3.2","","-7.4","","73","","23","","31","","25.0","","101.73","","","","-11","","Clear"
"-79.40","43.63","TORONTO ISLAND A","6158665","1990-03-01 11:00","1990","03","01","11:00","","-2.0","","-7.4","","66","","24","","37","","24.1","","101.63","","","","-10","","Mainly Clear"
"-79.40","43.63","TORONTO ISLAND A","6158665","1990-03-01 12:00","1990","03","01","12:00","","-0.2","","-5.2","","69","","22","","37","","25.0","","101.52","","","","-7","","Mainly Clear"
"-79.40","43.63","TORONTO ISLAND A","6158665","1990-03-01 13:00","1990","03","01","13:00","","1.3","","-2.9","","74","","23","","41","","25.0","","101.32","","","","","","Mainly Clear"
"-79.40","43.63","TORONTO ISLAND A","6158665","1990-03-01 14:00","1990","03","01","14:00","","2.0","","-3.2","","68","","23","","41","","25.0","","101.22","","","","","","Mainly Clear"
"-79.40","43.63","TORONTO ISLAND A","6158665","1990-03-01 15:00","1990","03","01","15:00","","2.4","","-3.2","","66","","23","","44","","25.0","","101.12","","","","","","Mainly Clear"
"-79.40","43.63","TORONTO ISLAND A","6158665","1990-03-01 16:00","1990","03","01","16:00","","2.3","","-2.6","","70","","23","","48","","25.0","","101.02","","","","","","Mainly Clear"
"-79.40","43.63","TORONTO ISLAND A","6158665","1990-03-01 17:00","1990","03","01","17:00","","1.9","","-2.1","","75","","23","","46","","25.0","","100.92","","","","","","Mostly Cloudy"
"-79.40","43.63","TORONTO ISLAND A","6158665","1990-03-01 18:00","1990","03","01","18:00","","1.5","","-2.4","","75","","22","","37","","24.1","","100.89","","","","","","Mostly Cloudy"
"-79.40","43.63","TORONTO ISLAND A","6158665","1990-03-01 19:00","1990","03","01","19:00","","1.3","","-2.4","","76","","22","","43","","25.0","","100.75","","","","","","Mostly Cloudy"
"-79.40","43.63","TORONTO ISLAND A","6158665","1990-03-01 20:00","1990","03","01","20:00","","1.6","","-2.4","","75","","24","","52","","25.0","","100.58","","","","","","Mostly Cloudy"
"-79.40","43.63","TORONTO ISLAND A","6158665","1990-03-01 21:00","1990","03","01","21:00","","1.9","","-3.2","","69","","24","","59","","25.0","","100.48","","","","","","Mostly Cloudy"
"-79.40","43.63","TORONTO ISLAND A","6158665","1990-03-01 22:00","1990","03","01","22:00","","1.9","","-3.2","","69","","24","","57","","25.0","","100.45","","","","","","Clear"
"-79.40","43.63","TORONTO ISLAND A","6158665","1990-03-01 23:00","1990","03","01","23:00","","1.9","","-3.2","","69","","25","","50","","25.0","","100.45","","","","","","Clear"
"-79.40","43.63","TORONTO ISLAND A","6158665","1990-03-02 00:00","1990","03","02","00:00","","","","","","","","25","","52","","","","","","","","","","NA"
"-79.40","43.63","TORONTO ISLAND A","6158665","1990-03-02 01:00","1990","03","02","01:00","","","","","","","","24","","44","","","","","","","","","","NA"
"-79.40","43.63","TORONTO ISLAND A","6158665","1990-03-02 02:00","1990","03","02","02:00","","","","","","","","24","","39","","","","","","","","","","NA"
"-79.40","43.63","TORONTO ISLAND A","6158665","1990-03-02 03:00","1990","03","02","03:00","","","","","","","","23","","37","","","","","","","","","","NA"
"-79.40","43.63","TORONTO ISLAND A","6158665","1990-03-02 04:00","1990","03","02","04:00","","","","","","","","23","","31","","","","","","","","","","NA"
"-79.40","43.63","TORONTO ISLAND A","6158665","1990-03-02 05:00","1990","03","02","05:00","","","","","","","","24","","30","","","","","","","","","","NA"
"-79.40","43.63","TORONTO ISLAND A","6158665","1990-03-02 06:00","1990","03","02","06:00","","","","","","","","24","","35","","","","","","","","","","NA"
"-79.40","43.63","TORONTO ISLAND A","6158665","1990-03-02 07:00","1990","03","02","07:00","","0.5","","-4.9","","67","","25","","37","","12.9","","99.98","","","","","","Mainly Clear"
"-79.40","43.63","TORONTO ISLAND A","6158665","1990-03-02 08:00","1990","03","02","08:00","","1.0","","-4.2","","68","","25","","39","","12.9","","99.98","","","","","","Mostly Cloudy"
"-79.40","43.63","TORONTO ISLAND A","6158665","1990-03-02 09:00","1990","03","02","09:00","","1.5","","-2.9","","73","","25","","28","","12.9","","99.94","","","","","","Mostly Cloudy"
"-79.40","43.63","TORONTO ISLAND A","6158665","1990-03-02 10:00","1990","03","02","10:00","","2.0","","-3.2","","68","","24","","30","","12.9","","99.94","","","","","","Mostly Cloudy"
"-79.40","43.63","TORONTO ISLAND A","6158665","1990-03-02 11:00","1990","03","02","11:00","","2.6","","-2.6","","68","","24","","28","","12.9","","99.88","","","","","","Mainly Clear"
"-79.40","43.63","TORONTO ISLAND A","6158665","1990-03-02 12:00","1990","03","02","12:00","","3.5","","-1.4","","70","","24","","22","","24.1","","99.84","","","","","","Mainly Clear"
"-79.40","43.63","TORONTO ISLAND A","6158665","1990-03-02 13:00","1990","03","02","13:00","","4.4","","-1.3","","67","","24","","30","","16.1","","99.78","","","","","","Clear"
"-79.40","43.63","TORONTO ISLAND A","6158665","1990-03-02 14:00","1990","03","02","14:00","","4.6","","-0.8","","68","","24","","28","","16.1","","99.74","","","","","","Mainly Clear"
"-79.40","43.63","TORONTO ISLAND A","6158665","1990-03-02 15:00","1990","03","02","15:00","","5.1","","-0.7","","66","","24","","26","","19.3","","99.74","","","","","","Mainly Clear"
"-79.40","43.63","TORONTO ISLAND A","6158665","1990-03-02 16:00","1990","03","02","16:00","","6.2","","-1.7","","57","","26","","28","","16.1","","99.74","","","","","","Mainly Clear"
"-79.40","43.63","TORONTO ISLAND A","6158665","1990-03-02 17:00","1990","03","02","17:00","","5.0","","-0.2","","69","","27","","26","","16.1","","99.78","","","","","","Mainly Clear"
"-79.40","43.63","TORONTO ISLAND A","6158665","1990-03-02 18:00","1990","03","02","18:00","","5.2","","-1.8","","61","","26","","17","","16.1","","99.84","","","","","","Clear"
"-79.40","43.63","TORONTO ISLAND A","6158665","1990-03-02 19:00","1990","03","02","19:00","","3.3","","-0.3","","77","","25","","13","","16.1","","99.94","","","","","","Mostly Cloudy"
"-79.40","43.63","TORONTO ISLAND A","6158665","1990-03-02 20:00","1990","03","02","20:00","","3.8","","-1.9","","66","","36","","17","","25.0","","100.01","","","","","","Mostly Cloudy"
"-79.40","43.63","TORONTO ISLAND A","6158665","1990-03-02 21:00","1990","03","02","21:00","","2.8","","-4.5","","59","","33","","19","","25.0","","100.11","","","","","","Mostly Cloudy"
"-79.40","43.63","TORONTO ISLAND A","6158665","1990-03-02 22:00","1990","03","02","22:00","","2.2","","-6.7","","51","","32","","22","","25.0","","100.18","","","","","","Mostly Cloudy"
"-79.40","43.63","TORONTO ISLAND A","6158665","1990-03-02 23:00","1990","03","02","23:00","","1.3","","-8.3","","49","","33","","30","","25.0","","100.18","","","","","","Mainly Clear"
"-79.40","43.63","TORONTO ISLAND A","6158665","1990-03-03 00:00","1990","03","03","00:00","","","","","","","","33","","11","","","","","","","","","","NA"
"-79.40","43.63","TORONTO ISLAND A","6158665","1990-03-03 01:00","1990","03","03","01:00","","","","","","","","32","","11","","","","","","","","","","NA"
"-79.40","43.63","TORONTO ISLAND A","6158665","1990-03-03 02:00","1990","03","03","02:00","","","","","","","","31","","19","","","","","","","","","","NA"
"-79.40","43.63","TORONTO ISLAND A","6158665","1990-03-03 03:00","1990","03","03","03:00","","","","","","","","30","","15","","","","","","","","","","NA"
"-79.40","43.63","TORONTO ISLAND A","6158665","1990-03-03 04:00","1990","03","03","04:00","","","","","","","","32","","19","","","","","","","","","","NA"
"-79.40","43.63","TORONTO ISLAND A","6158665","1990-03-03 05:00","1990","03","03","05:00","","","","","","","","32","","11","","","","","","","","","","NA"
"-79.40","43.63","TORONTO ISLAND A","6158665","1990-03-03 06:00","1990","03","03","06:00","","","","","","","","33","","17","","","","","","","","","","NA"
"-79.40","43.63","TORONTO ISLAND A","6158665","1990-03-03 07:00","1990","03","03","07:00","","-4.7","","-11.4","","59","","33","","17","","25.0","","100.38","","","","-11","","Mainly Clear"
"-79.40","43.63","TORONTO ISLAND A","6158665","1990-03-03 08:00","1990","03","03","08:00","","-4.6","","-11.4","","59","","32","","13","","25.0","","100.48","","","","-10","","Mainly Clear"
"-79.40","43.63","TORONTO ISLAND A","6158665","1990-03-03 09:00","1990","03","03","09:00","","-4.0","","-11.1","","58","","30","","26","","25.0","","100.52","","","","-11","","Mainly Clear"
"-79.40","43.63","TORONTO ISLAND A","6158665","1990-03-03 10:00","1990","03","03","10:00","","-3.2","","-10.4","","57","","30","","28","","25.0","","100.58","","","","-10","","Mainly Clear"
"-79.40","43.63","TORONTO ISLAND A","6158665","1990-03-03 11:00","1990","03","03","11:00","","-3.5","","-12.1","","51","","33","","30","","25.0","","100.58","","","","-11","","Mainly Clear"
"-79.40","43.63","TORONTO ISLAND A","6158665","1990-03-03 12:00","1990","03","03","12:00","","-3.0","","-11.7","","51","","30","","20","","25.0","","100.58","","","","-9","","Mostly Cloudy"
"-79.40","43.63","TORONTO ISLAND A","6158665","1990-03-03 13:00","1990","03","03","13:00","","-4.0","","-11.5","","56","","31","","20","","25.0","","100.58","","","","-10","","Mostly Cloudy"
"-79.40","43.63","TORONTO ISLAND A","6158665","1990-03-03 14:00","1990","03","03","14:00","","-5.1","","-12.6","","55","","34","","19","","25.0","","100.62","","","","-12","","Mostly Cloudy"
"-79.40","43.63","TORONTO ISLAND A","6158665","1990-03-03 15:00","1990","03","03","15:00","","-4.6","","-12.3","","55","","33","","24","","25.0","","100.68","","","","-12","","Mainly Clear"
"-79.40","43.63","TORONTO ISLAND A","6158665","1990-03-03 16:00","1990","03","03","16:00","","-5.3","","-11.6","","61","","28","","24","","25.0","","100.72","","","","-13","","Mainly Clear"
"-79.40","43.63","TORONTO ISLAND A","6158665","1990-03-03 17:00","1990","03","03","17:00","","-5.8","","-14.8","","49","","33","","26","","25.0","","100.82","","","","-14","","Mainly Clear"
"-79.40","43.63","TORONTO ISLAND A","6158665","1990-03-03 18:00","1990","03","03","18:00","","-7.2","","-14.3","","57","","33","","24","","25.0","","100.92","","","","-15","","Mainly Clear"
"-79.40","43.63","TORONTO ISLAND A","6158665","1990-03-03 19:00","1990","03","03","19:00","","-7.8","","-15.4","","54","","30","","22","","25.0","","101.02","","","","-15","","Clear"
"-79.40","43.63","TORONTO ISLAND A","6158665","1990-03-03 20:00","1990","03","03","20:00","","-7.8","","-16.5","","49","","29","","22","","25.0","","101.09","","","","-15","","Clear"
"-79.40","43.63","TORONTO ISLAND A","6158665","1990-03-03 21:00","1990","03","03","21:00","","-8.1","","-13.9","","63","","29","","22","","25.0","","101.12","","","","-16","","Mainly Clear"
"-79.40","43.63","TORONTO ISLAND A","6158665","1990-03-03 22:00","1990","03","03","22:00","","-8.2","","-17.7","","46","","31","","13","","25.0","","101.15","","","","-14","","Mainly Clear"
"-79.40","43.63","TORONTO ISLAND A","6158665","1990-03-03 23:00","1990","03","03","23:00","","-9.2","","-15.8","","59","","25","","11","","25.0","","101.15","","","","-15","","Clear"
"-79.40","43.63","TORONTO ISLAND A","6158665","1990-03-04 00:00","1990","03","04","00:00","","","","","","","","33","","9","","","","","","","","","","NA"
"-79.40","43.63","TORONTO ISLAND A","6158665","1990-03-04 01:00","1990","03","04","01:00","","","","","","","","32","","7","","","","","","","","","","NA"
"-79.40","43.63","TORONTO ISLAND A","6158665","1990-03-04 02:00","1990","03","04","02:00","","","","","","","","34","","9","","","","","","","","","","NA"
"-79.40","43.63","TORONTO ISLAND A","6158665","1990-03-04 03:00","1990","03","04","03:00","","","","","","","","31","","6","","","","","","","","","","NA"
"-79.40","43.63","TORONTO ISLAND A","6158665","1990-03-04 04:00","1990","03","04","04:00","","","","","","","","29","","7","","","","","","","","","","NA"
"-79.40","43.63","TORONTO ISLAND A","6158665","1990-03-04 05:00","1990","03","04","05:00","","","","","","","","34","","7","","","","","","","","","","NA"
"-79.40","43.63","TORONTO ISLAND A","6158665","1990-03-04 06:00","1990","03","04","06:00","","","","","","","","31","","9","","","","","","","","","","NA"
"-79.40","43.63","TORONTO ISLAND A","6158665","1990-03-04 07:00","1990","03","04","07:00","","-9.5","","-15.0","","64","","34","","7","","25.0","","101.36","","","","-13","","Mostly Cloudy"
"-79.40","43.63","TORONTO ISLAND A","6158665","1990-03-04 08:00","1990","03","04","08:00","","-9.5","","-15.0","","64","","32","","7","","25.0","","101.42","","","","-13","","Cloudy"
"-79.40","43.63","TORONTO ISLAND A","6158665","1990-03-04 09:00","1990","03","04","09:00","","-8.8","","-15.3","","59","","35","","6","","25.0","","101.46","","","","-12","","Cloudy"
"-79.40","43.63","TORONTO ISLAND A","6158665","1990-03-04 10:00","1990","03","04","10:00","","-8.0","","-15.4","","55","","13","","7","","25.0","","101.46","","","","-12","","Cloudy"
"-79.40","43.63","TORONTO ISLAND A","6158665","1990-03-04 11:00","1990","03","04","11:00","","-7.5","","-12.7","","66","","18","","6","","25.0","","101.46","","","","-11","","Cloudy"
"-79.40","43.63","TORONTO ISLAND A","6158665","1990-03-04 12:00","1990","03","04","12:00","","-6.7","","-12.2","","65","","20","","7","","19.3","","101.46","","","","-10","","Mostly Cloudy"
"-79.40","43.63","TORONTO ISLAND A","6158665","1990-03-04 13:00","1990","03","04","13:00","","-6.0","","-12.3","","61","","18","","11","","12.9","","101.46","","","","-11","","Cloudy"
"-79.40","43.63","TORONTO ISLAND A","6158665","1990-03-04 14:00","1990","03","04","14:00","","-5.5","","-9.6","","73","","20","","9","","16.1","","101.39","","","","-10","","Cloudy"
"-79.40","43.63","TORONTO ISLAND A","6158665","1990-03-04 15:00","1990","03","04","15:00","","-5.4","","-11.6","","61","","18","","7","","12.9","","101.42","","","","-9","","Snow Showers"
"-79.40","43.63","TORONTO ISLAND A","6158665","1990-03-04 16:00","1990","03","04","16:00","","-5.4","","-11.2","","63","","21","","7","","11.3","","101.42","","","","-9","","Snow Showers"
"-79.40","43.63","TORONTO ISLAND A","6158665","1990-03-04 17:00","1990","03","04","17:00","","-5.4","","-11.2","","63","","22","","9","","6.4","","101.42","","","","-9","","Snow"
"-79.40","43.63","TORONTO ISLAND A","6158665","1990-03-04 18:00","1990","03","04","18:00","","-5.4","","-9.6","","72","","22","","6","","19.3","","101.49","","","","-8","","Snow Showers"
"-79.40","43.63","TORONTO ISLAND A","6158665","1990-03-04 19:00","1990","03","04","19:00","","-6.0","","-10.3","","72","","","","0","","19.3","","101.52","","","","","","Snow Showers"
"-79.40","43.63","TORONTO ISLAND A","6158665","1990-03-04 20:00","1990","03","04","20:00","","-5.3","","-8.9","","76","","34","","15","","6.4","","101.59","","","","-11","","Snow Showers"
"-79.40","43.63","TORONTO ISLAND A","6158665","1990-03-04 21:00","1990","03","04","21:00","","-6.5","","-12.2","","64","","36","","19","","24.1","","101.69","","","","-13","","Snow Showers"
"-79.40","43.63","TORONTO ISLAND A","6158665","1990-03-04 22:00","1990","03","04","22:00","","-7.5","","-13.6","","61","","2","","15","","25.0","","101.79","","","","-14","","Mainly Clear"
"-79.40","43.63","TORONTO ISLAND A","6158665","1990-03-04 23:00","1990","03","04","23:00","","-8.1","","-14.8","","59","","33","","15","","25.0","","101.86","","","","-14","","Mostly Cloudy"
"-79.40","43.63","TORONTO ISLAND A","6158665","1990-03-05 00:00","1990","03","05","00:00","","","","","","","","36","","15","","","","","","","","","","NA"
"-79.40","43.63","TORONTO ISLAND A","6158665","1990-03-05 01:00","1990","03","05","01:00","","","","","","","","34","","20","","","","","","","","","","NA"
"-79.40","43.63","TORONTO ISLAND A","6158665","1990-03-05 02:00","1990","03","05","02:00","","","","","","","","35","","17","","","","","","","","","","NA"
"-79.40","43.63","TORONTO ISLAND A","6158665","1990-03-05 03:00","1990","03","05","03:00","","","","","","","","36","","19","","","","","","","","","","NA"
"-79.40","43.63","TORONTO ISLAND A","6158665","1990-03-05 04:00","1990","03","05","04:00","","","","","","","","2","","17","","","","","","","","","","NA"
"-79.40","43.63","TORONTO ISLAND A","6158665","1990-03-05 05:00","1990","03","05","05:00","","","","","","","","2","","15","","","","","","","","","","NA"
"-79.40","43.63","TORONTO ISLAND A","6158665","1990-03-05 06:00","1990","03","05","06:00","","","","","","","","6","","7","","","","","","","","","","NA"
"-79.40","43.63","TORONTO ISLAND A","6158665","1990-03-05 07:00","1990","03","05","07:00","","-10.9","","-18.3","","54","","2","","7","","24.1","","102.33","","","","-15","","Clear"
"-79.40","43.63","TORONTO ISLAND A","6158665","1990-03-05 08:00","1990","03","05","08:00","","-9.8","","-16.8","","56","","6","","15","","24.1","","102.37","","","","-16","","Clear"
"-79.40","43.63","TORONTO ISLAND A","6158665","1990-03-05 09:00","1990","03","05","09:00","","-8.5","","-19.3","","41","","4","","17","","25.0","","102.43","","","","-15","","Mainly Clear"
"-79.40","43.63","TORONTO ISLAND A","6158665","1990-03-05 10:00","1990","03","05","10:00","","-7.5","","-17.4","","45","","5","","15","","25.0","","102.47","","","","-14","","Mainly Clear"
"-79.40","43.63","TORONTO ISLAND A","6158665","1990-03-05 11:00","1990","03","05","11:00","","-6.5","","-14.5","","53","","8","","19","","25.0","","102.47","","","","-13","","Mainly Clear"
"-79.40","43.63","TORONTO ISLAND A","6158665","1990-03-05 12:00","1990","03","05","12:00","","-6.4","","-13.3","","58","","8","","19","","25.0","","102.50","","","","-13","","Mainly Clear"
"-79.40","43.63","TORONTO ISLAND A","6158665","1990-03-05 13:00","1990","03","05","13:00","","-6.5","","-14.0","","55","","9","","19","","25.0","","102.43","","","","-13","","Mainly Clear"
"-79.40","43.63","TORONTO ISLAND A","6158665","1990-03-05 14:00","1990","03","05","14:00","","-6.2","","-13.3","","57","","9","","20","","25.0","","102.40","","","","-13","","Mainly Clear"
"-79.40","43.63","TORONTO ISLAND A","6158665","1990-03-05 15:00","1990","03","05","15:00","","-6.3","","-16.2","","45","","9","","22","","25.0","","102.40","","","","-14","","Clear"
"-79.40","43.63","TORONTO ISLAND A","6158665","1990-03-05 16:00","1990","03","05","16:00","","-6.0","","-15.8","","46","","9","","22","","25.0","","102.40","","","","-13","","Clear"
"-79.40","43.63","TORONTO ISLAND A","6158665","1990-03-05 17:00","1990","03","05","17:00","","-6.0","","-14.8","","50","","9","","17","","25.0","","102.40","","","","-12","","Mainly Clear"
"-79.40","43.63","TORONTO ISLAND A","6158665","1990-03-05 18:00","1990","03","05","18:00","","-6.2","","-14.8","","51","","8","","19","","25.0","","102.40","","","","-13","","Mainly Clear"
"-79.40","43.63","TORONTO ISLAND A","6158665","1990-03-05 19:00","1990","03","05","19:00","","-6.2","","-15.3","","49","","6","","9","","25.0","","102.43","","","","-10","","Clear"
"-79.40","43.63","TORONTO ISLAND A","6158665","1990-03-05 20:00","1990","03","05","20:00","","-6.0","","-16.4","","43","","7","","13","","25.0","","102.47","","","","-11","","Clear"
"-79.40","43.63","TORONTO ISLAND A","6158665","1990-03-05 21:00","1990","03","05","21:00","","-6.3","","-16.2","","45","","3","","15","","25.0","","102.50","","","","-12","","Clear"
"-79.40","43.63","TORONTO ISLAND A","6158665","1990-03-05 22:00","1990","03","05","22:00","","-6.6","","-15.6","","49","","2","","11","","25.0","","102.53","","","","-12","","Clear"
"-79.40","43.63","TORONTO ISLAND A","6158665","1990-03-05 23:00","1990","03","05","23:00","","-6.9","","-15.4","","51","","2","","19","","25.0","","102.57","","","","-14","","Clear"
"-79.40","43.63","TORONTO ISLAND A","6158665","1990-03-06 00:00","1990","03","06","00:00"
"-79.40","43.63","TORONTO ISLAND A","6158665","1990-03-06 01:00","1990","03","06","01:00"
"-79.40","43.63","TORONTO ISLAND A","6158665","1990-03-06 02:00","1990","03","06","02:00"
"-79.40","43.63","TORONTO ISLAND A","6158665","1990-03-06 03:00","1990","03","06","03:00"
"-79.40","43.63","TORONTO ISLAND A","6158665","1990-03-06 04:00","1990","03","06","04:00"
"-79.40","43.63","TORONTO ISLAND A","6158665","1990-03-06 05:00","1990","03","06","05:00"
"-79.40","43.63","TORONTO ISLAND A","6158665","1990-03-06 06:00","1990","03","06","06:00"
"-79.40","43.63","TORONTO ISLAND A","6158665","1990-03-06 07:00","1990","03","06","07:00","","-9.2","","-17.0","","53","","6","","24","","25.0","","102.94","","","","-18","","Clear"
"-79.40","43.63","TORONTO ISLAND A","6158665","1990-03-06 08:00","1990","03","06","08:00","","-8.5","","-19.3","","41","","3","","20","","25.0","","103.07","","","","-16","","Clear"
"-79.40","43.63","TORONTO ISLAND A","6158665","1990-03-06 09:00","1990","03","06","09:00","","-7.8","","-17.7","","45","","4","","19","","25.0","","103.14","","","","-15","","Clear"
"-79.40","43.63","TORONTO ISLAND A","6158665","1990-03-06 10:00","1990","03","06","10:00","","-7.4","","-20.9","","33","","7","","26","","25.0","","103.17","","","","-16","","Clear"
"-79.40","43.63","TORONTO ISLAND A","6158665","1990-03-06 11:00","1990","03","06","11:00","","-6.4","","-16.2","","45","","6","","17","","25.0","","103.27","","","","-13","","Clear"
"-79.40","43.63","TORONTO ISLAND A","6158665","1990-03-06 12:00","1990","03","06","12:00","","-6.1","","-15.8","","46","","3","","11","","25.0","","103.27","","","","-11","","Clear"
"-79.40","43.63","TORONTO ISLAND A","6158665","1990-03-06 13:00","1990","03","06","13:00","","-5.8","","-17.0","","41","","8","","20","","25.0","","103.17","","","","-13","","Mainly Clear"
"-79.40","43.63","TORONTO ISLAND A","6158665","1990-03-06 14:00","1990","03","06","14:00","","-5.3","","-20.1","","30","","2","","22","","25.0","","103.24","","","","-12","","Clear"
"-79.40","43.63","TORONTO ISLAND A","6158665","1990-03-06 15:00","1990","03","06","15:00","","-5.0","","-18.9","","33","","3","","11","","25.0","","103.21","","","","-10","","Clear"
"-79.40","43.63","TORONTO ISLAND A","6158665","1990-03-06 16:00","1990","03","06","16:00","","-5.0","","-17.5","","37","","33","","9","","25.0","","103.24","","","","-9","","Clear"
"-79.40","43.63","TORONTO ISLAND A","6158665","1990-03-06 17:00","1990","03","06","17:00","","-4.9","","-18.9","","32","","35","","15","","25.0","","103.27","","","","-10","","Clear"
"-79.40","43.63","TORONTO ISLAND A","6158665","1990-03-06 18:00","1990","03","06","18:00","","-5.5","","-15.6","","45","","5","","19","","25.0","","103.34","","","","-12","","Clear"
"-79.40","43.63","TORONTO ISLAND A","6158665","1990-03-06 19:00","1990","03","06","19:00","","-5.7","","-18.4","","36","","2","","11","","25.0","","103.41","","","","-10","","Clear"
"-79.40","43.63","TORONTO ISLAND A","6158665","1990-03-06 20:00","1990","03","06","20:00","","-5.8","","-18.7","","35","","2","","15","","25.0","","103.48","","","","-12","","Clear"
"-79.40","43.63","TORONTO ISLAND A","6158665","1990-03-06 21:00","1990","03","06","21:00","","-5.8","","-18.2","","37","","2","","15","","25.0","","103.51","","","","-12","","Clear"
"-79.40","43.63","TORONTO ISLAND A","6158665","1990-03-06 22:00","1990","03","06","22:00","","-6.0","","-18.2","","37","","2","","15","","25.0","","103.54","","","","-12","","Clear"
"-79.40","43.63","TORONTO ISLAND A","6158665","1990-03-06 23:00","1990","03","06","23:00","","-6.1","","-19.2","","34","","4","","15","","25.0","","103.58","","","","-12","","Clear"
"-79.40","43.63","TORONTO ISLAND A","6158665","1990-03-07 00:00","1990","03","07","00:00"
"-79.40","43.63","TORONTO ISLAND A","6158665","1990-03-07 01:00","1990","03","07","01:00"
"-79.40","43.63","TORONTO ISLAND A","6158665","1990-03-07 02:00","1990","03","07","02:00"
"-79.40","43.63","TORONTO ISLAND A","6158665","1990-03-07 03:00","1990","03","07","03:00"
"-79.40","43.63","TORONTO ISLAND A","6158665","1990-03-07 04:00","1990","03","07","04:00"
"-79.40","43.63","TORONTO ISLAND A","6158665","1990-03-07 05:00","1990","03","07","05:00"
"-79.40","43.63","TORONTO ISLAND A","6158665","1990-03-07 06:00","1990","03","07","06:00"
"-79.40","43.63","TORONTO ISLAND A","6158665","1990-03-07 07:00","1990","03","07","07:00","","-8.2","","-15.4","","56","","3","","15","","25.0","","103.74","","","","-15","","Clear"
"-79.40","43.63","TORONTO ISLAND A","6158665","1990-03-07 08:00","1990","03","07","08:00","","-7.6","","-15.0","","55","","5","","11","","25.0","","103.85","","","","-13","","Clear"
"-79.40","43.63","TORONTO ISLAND A","6158665","1990-03-07 09:00","1990","03","07","09:00","","-6.1","","-12.8","","59","","5","","17","","25.0","","103.85","","","","-12","","Mainly Clear"
"-79.40","43.63","TORONTO ISLAND A","6158665","1990-03-07 10:00","1990","03","07","10:00","","-4.9","","-12.3","","56","","11","","17","","25.0","","103.85","","","","-11","","Clear"
"-79.40","43.63","TORONTO ISLAND A","6158665","1990-03-07 11:00","1990","03","07","11:00","","-5.1","","-13.1","","53","","8","","17","","25.0","","103.85","","","","-11","","Clear"
"-79.40","43.63","TORONTO ISLAND A","6158665","1990-03-07 12:00","1990","03","07","12:00","","-4.6","","-10.7","","62","","8","","20","","25.0","","103.81","","","","-11","","Clear"
"-79.40","43.63","TORONTO ISLAND A","6158665","1990-03-07 13:00","1990","03","07","13:00","","-4.9","","-10.9","","63","","7","","22","","25.0","","103.74","","","","-12","","Clear"
"-79.40","43.63","TORONTO ISLAND A","6158665","1990-03-07 14:00","1990","03","07","14:00","","-4.4","","-10.7","","61","","8","","22","","25.0","","103.61","","","","-11","","Clear"
"-79.40","43.63","TORONTO ISLAND A","6158665","1990-03-07 15:00","1990","03","07","15:00","","-4.3","","-11.9","","55","","9","","19","","25.0","","103.64","","","","-10","","Clear"
"-79.40","43.63","TORONTO ISLAND A","6158665","1990-03-07 16:00","1990","03","07","16:00","","-4.4","","-11.3","","58","","9","","19","","25.0","","103.54","","","","-11","","Mainly Clear"
"-79.40","43.63","TORONTO ISLAND A","6158665","1990-03-07 17:00","1990","03","07","17:00","","-4.5","","-11.9","","56","","9","","17","","25.0","","103.51","","","","-10","","Mainly Clear"
"-79.40","43.63","TORONTO ISLAND A","6158665","1990-03-07 18:00","1990","03","07","18:00","","-4.7","","-10.8","","62","","8","","17","","25.0","","103.44","","","","-11","","Mainly Clear"
"-79.40","43.63","TORONTO ISLAND A","6158665","1990-03-07 19:00","1990","03","07","19:00","","-4.7","","-11.0","","61","","6","","15","","25.0","","103.41","","","","-10","","Mainly Clear"
"-79.40","43.63","TORONTO ISLAND A","6158665","1990-03-07 20:00","1990","03","07","20:00","","-4.5","","-10.8","","61","","7","","19","","25.0","","103.31","","","","-11","","Clear"
"-79.40","43.63","TORONTO ISLAND A","6158665","1990-03-07 21:00","1990","03","07","21:00","","-4.3","","-10.0","","64","","8","","15","","25.0","","103.31","","","","-10","","Clear"
"-79.40","43.63","TORONTO ISLAND A","6158665","1990-03-07 22:00","1990","03","07","22:00","","-4.2","","-9.8","","65","","8","","17","","25.0","","103.34","","","","-10","","Clear"
"-79.40","43.63","TORONTO ISLAND A","6158665","1990-03-07 23:00","1990","03","07","23:00","","-4.3","","-9.0","","69","","8","","15","","25.0","","103.24","","","","-10","","Mainly Clear"
"-79.40","43.63","TORONTO ISLAND A","6158665","1990-03-08 00:00","1990","03","08","00:00","","","","","","","","9","","17","","","","","","","","","","NA"
"-79.40","43.63","TORONTO ISLAND A","6158665","1990-03-08 01:00","1990","03","08","01:00","","","","","","","","7","","7","","","","","","","","","","NA"
"-79.40","43.63","TORONTO ISLAND A","6158665","1990-03-08 02:00","1990","03","08","02:00","","","","","","","","3","","4","","","","","","","","","","NA"
"-79.40","43.63","TORONTO ISLAND A","6158665","1990-03-08 03:00","1990","03","08","03:00","","","","","","","","5","","7","","","","","","","","","","NA"
"-79.40","43.63","TORONTO ISLAND A","6158665","1990-03-08 04:00","1990","03","08","04:00","","","","","","","","36","","4","","","","","","","","","","NA"
"-79.40","43.63","TORONTO ISLAND A","6158665","1990-03-08 05:00","1990","03","08","05:00","","","","","","","","5","","11","","","","","","","","","","NA"
"-79.40","43.63","TORONTO ISLAND A","6158665","1990-03-08 06:00","1990","03","08","06:00","","","","","","","","36","","2","","","","","","","","","","NA"
"-79.40","43.63","TORONTO ISLAND A","6158665","1990-03-08 07:00","1990","03","08","07:00","","-4.2","","-7.2","","79","","6","","11","","24.1","","102.87","","","","-9","","Clear"
"-79.40","43.63","TORONTO ISLAND A","6158665","1990-03-08 08:00","1990","03","08","08:00","","-3.3","","-7.1","","75","","5","","13","","24.1","","102.84","","","","-8","","Clear"
"-79.40","43.63","TORONTO ISLAND A","6158665","1990-03-08 09:00","1990","03","08","09:00","","-2.0","","-6.3","","72","","7","","17","","25.0","","102.84","","","","-7","","Clear"
"-79.40","43.63","TORONTO ISLAND A","6158665","1990-03-08 10:00","1990","03","08","10:00","","-0.7","","-6.8","","63","","9","","20","","25.0","","102.77","","","","-6","","Clear"
"-79.40","43.63","TORONTO ISLAND A","6158665","1990-03-08 11:00","1990","03","08","11:00","","-0.3","","-6.6","","62","","8","","30","","25.0","","102.70","","","","-7","","Clear"
"-79.40","43.63","TORONTO ISLAND A","6158665","1990-03-08 12:00","1990","03","08","12:00","","-0.2","","-7.2","","59","","8","","22","","25.0","","102.70","","","","-6","","Mainly Clear"
"-79.40","43.63","TORONTO ISLAND A","6158665","1990-03-08 13:00","1990","03","08","13:00","","0.3","","-6.1","","62","","8","","22","","25.0","","102.53","","","","","","Mainly Clear"
"-79.40","43.63","TORONTO ISLAND A","6158665","1990-03-08 14:00","1990","03","08","14:00","","0.4","","-5.7","","63","","9","","22","","25.0","","102.43","","","","","","Mostly Cloudy"
"-79.40","43.63","TORONTO ISLAND A","6158665","1990-03-08 15:00","1990","03","08","15:00","","0.4","","-5.4","","65","","9","","24","","25.0","","102.33","","","","","","Mainly Clear"
"-79.40","43.63","TORONTO ISLAND A","6158665","1990-03-08 16:00","1990","03","08","16:00","","0.4","","-5.5","","65","","9","","28","","25.0","","102.26","","","","","","Clear"
"-79.40","43.63","TORONTO ISLAND A","6158665","1990-03-08 17:00","1990","03","08","17:00","","0.1","","-4.6","","70","","9","","22","","25.0","","102.20","","","","","","Mainly Clear"
"-79.40","43.63","TORONTO ISLAND A","6158665","1990-03-08 18:00","1990","03","08","18:00","","-0.3","","-4.4","","74","","8","","20","","25.0","","102.10","","","","-6","","Mainly Clear"
"-79.40","43.63","TORONTO ISLAND A","6158665","1990-03-08 19:00","1990","03","08","19:00","","-0.3","","-3.7","","77","","8","","22","","25.0","","102.03","","","","-6","","Mostly Cloudy"
"-79.40","43.63","TORONTO ISLAND A","6158665","1990-03-08 20:00","1990","03","08","20:00","","-0.2","","-3.3","","80","","8","","15","","25.0","","101.96","","","","-5","","Cloudy"
"-79.40","43.63","TORONTO ISLAND A","6158665","1990-03-08 21:00","1990","03","08","21:00","","-0.2","","-3.5","","78","","7","","13","","25.0","","101.89","","","","-4","","Mostly Cloudy"
"-79.40","43.63","TORONTO ISLAND A","6158665","1990-03-08 22:00","1990","03","08","22:00","","0.0","","-3.7","","76","","6","","19","","25.0","","101.76","","","","-5","","Mostly Cloudy"
"-79.40","43.63","TORONTO ISLAND A","6158665","1990-03-08 23:00","1990","03","08","23:00","","-0.1","","-4.3","","73","","7","","19","","25.0","","101.66","","","","-5","","Mostly Cloudy"
"-79.40","43.63","TORONTO ISLAND A","6158665","1990-03-09 00:00","1990","03","09","00:00","","","","","","","","8","","15","","","","","","","","","","NA"
"-79.40","43.63","TORONTO ISLAND A","6158665","1990-03-09 01:00","1990","03","09","01:00","","","","","","","","5","","2","","","","","","","","","","NA"
"-79.40","43.63","TORONTO ISLAND A","6158665","1990-03-09 02:00","1990","03","09","02:00","","","","","","","","6","","7","","","","","","","","","","NA"
"-79.40","43.63","TORONTO ISLAND A","6158665","1990-03-09 03:00","1990","03","09","03:00","","","","","","","","8","","15","","","","","","","","","","NA"
"-79.40","43.63","TORONTO ISLAND A","6158665","1990-03-09 04:00","1990","03","09","04:00","","","","","","","","7","","20","","","","","","","","","","NA"
"-79.40","43.63","TORONTO ISLAND A","6158665","1990-03-09 05:00","1990","03","09","05:00","","","","","","","","9","","24","","","","","","","","","","NA"
"-79.40","43.63","TORONTO ISLAND A","6158665","1990-03-09 06:00","1990","03","09","06:00","","","","","","","","8","","20","","","","","","","","","","NA"
"-79.40","43.63","TORONTO ISLAND A","6158665","1990-03-09 07:00","1990","03","09","07:00","","0.7","","-1.0","","88","","8","","17","","24.1","","101.22","","","","","","Cloudy"
"-79.40","43.63","TORONTO ISLAND A","6158665","1990-03-09 08:00","1990","03","09","08:00","","0.8","","-1.1","","87","","9","","20","","9.7","","101.22","","","","","","Rain"
"-79.40","43.63","TORONTO ISLAND A","6158665","1990-03-09 09:00","1990","03","09","09:00","","0.8","","-0.7","","90","","8","","24","","9.7","","101.22","","","","","","Rain"
"-79.40","43.63","TORONTO ISLAND A","6158665","1990-03-09 10:00","1990","03","09","10:00","","0.8","","-0.2","","93","","8","","13","","8.0","","101.19","","","","","","Drizzle,Fog"
"-79.40","43.63","TORONTO ISLAND A","6158665","1990-03-09 11:00","1990","03","09","11:00","","0.9","","0.1","","95","","9","","24","","9.7","","101.12","","","","","","Fog"
"-79.40","43.63","TORONTO ISLAND A","6158665","1990-03-09 12:00","1990","03","09","12:00","","1.1","","-0.2","","91","","9","","24","","12.9","","101.12","","","","","","Cloudy"
"-79.40","43.63","TORONTO ISLAND A","6158665","1990-03-09 13:00","1990","03","09","13:00","","1.3","","0.3","","93","","9","","20","","12.9","","101.09","","","","","","Cloudy"
"-79.40","43.63","TORONTO ISLAND A","6158665","1990-03-09 14:00","1990","03","09","14:00","","1.1","","0.0","","92","","9","","24","","9.7","","101.02","","","","","","Fog"
"-79.40","43.63","TORONTO ISLAND A","6158665","1990-03-09 15:00","1990","03","09","15:00","","1.2","","-0.5","","88","","8","","24","","12.9","","101.02","","","","","","Cloudy"
"-79.40","43.63","TORONTO ISLAND A","6158665","1990-03-09 16:00","1990","03","09","16:00","","1.5","","-0.1","","89","","7","","15","","11.3","","101.02","","","","","","Cloudy"
"-79.40","43.63","TORONTO ISLAND A","6158665","1990-03-09 17:00","1990","03","09","17:00","","1.8","","-0.3","","86","","6","","15","","11.3","","101.02","","","","","","Cloudy"
"-79.40","43.63","TORONTO ISLAND A","6158665","1990-03-09 18:00","1990","03","09","18:00","","1.6","","-0.6","","85","","8","","15","","9.7","","101.05","","","","","","Fog"
"-79.40","43.63","TORONTO ISLAND A","6158665","1990-03-09 19:00","1990","03","09","19:00","","1.3","","-0.8","","86","","8","","17","","16.1","","101.09","","","","","","Cloudy"
"-79.40","43.63","TORONTO ISLAND A","6158665","1990-03-09 20:00","1990","03","09","20:00","","1.6","","-1.0","","83","","8","","6","","16.1","","101.12","","","","","","Cloudy"
"-79.40","43.63","TORONTO ISLAND A","6158665","1990-03-09 21:00","1990","03","09","21:00","","1.8","","-1.3","","80","","10","","6","","12.9","","101.15","","","","","","Cloudy"
"-79.40","43.63","TORONTO ISLAND A","6158665","1990-03-09 22:00","1990","03","09","22:00","","1.6","","-1.4","","80","","11","","7","","12.9","","101.15","","","","","","Cloudy"
"-79.40","43.63","TORONTO ISLAND A","6158665","1990-03-09 23:00","1990","03","09","23:00","","1.8","","-0.6","","84","","27","","7","","12.9","","101.22","","","","","","Cloudy"
"-79.40","43.63","TORONTO ISLAND A","6158665","1990-03-10 00:00","1990","03","10","00:00","","","","","","","","26","","6","","","","","","","","","","NA"
"-79.40","43.63","TORONTO ISLAND A","6158665","1990-03-10 01:00","1990","03","10","01:00","","","","","","","","25","","13","","","","","","","","","","NA"
"-79.40","43.63","TORONTO ISLAND A","6158665","1990-03-10 02:00","1990","03","10","02:00","","","","","","","","25","","9","","","","","","","","","","NA"
"-79.40","43.63","TORONTO ISLAND A","6158665","1990-03-10 03:00","1990","03","10","03:00","","","","","","","","","","0","","","","","","","","","","NA"
"-79.40","43.63","TORONTO ISLAND A","6158665","1990-03-10 04:00","1990","03","10","04:00","","","","","","","","27","","2","","","","","","","","","","NA"
"-79.40","43.63","TORONTO ISLAND A","6158665","1990-03-10 05:00","1990","03","10","05:00","","","","","","","","28","","2","","","","","","","","","","NA"
"-79.40","43.63","TORONTO ISLAND A","6158665","1990-03-10 06:00","1990","03","10","06:00","","","","","","","","28","","2","","","","","","","","","","NA"
"-79.40","43.63","TORONTO ISLAND A","6158665","1990-03-10 07:00","1990","03","10","07:00","","1.5","","1.5","","100","","24","","6","","2.0","","101.42","","","","","","Fog"
"-79.40","43.63","TORONTO ISLAND A","6158665","1990-03-10 08:00","1990","03","10","08:00","","2.2","","1.5","","95","","26","","4","","1.6","","101.42","","","","","","Fog"
"-79.40","43.63","TORONTO ISLAND A","6158665","1990-03-10 09:00","1990","03","10","09:00","","2.7","","1.6","","92","","24","","15","","2.4","","101.46","","","","","","Fog"
"-79.40","43.63","TORONTO ISLAND A","6158665","1990-03-10 10:00","1990","03","10","10:00","","2.7","","1.6","","92","","23","","9","","1.2","","101.46","","","","","","Fog"
"-79.40","43.63","TORONTO ISLAND A","6158665","1990-03-10 11:00","1990","03","10","11:00","","3.0","","2.1","","94","","23","","13","","6.4","","101.46","","","","","","Fog"
"-79.40","43.63","TORONTO ISLAND A","6158665","1990-03-10 12:00","1990","03","10","12:00","","3.3","","2.6","","95","","22","","17","","9.7","","101.39","","","","","","Fog"
"-79.40","43.63","TORONTO ISLAND A","6158665","1990-03-10 13:00","1990","03","10","13:00","","3.8","","3.3","","97","","23","","17","","11.3","","101.29","","","","","","Cloudy"
"-79.40","43.63","TORONTO ISLAND A","6158665","1990-03-10 14:00","1990","03","10","14:00","","3.6","","3.1","","97","","22","","17","","11.3","","101.32","","","","","","Cloudy"
"-79.40","43.63","TORONTO ISLAND A","6158665","1990-03-10 15:00","1990","03","10","15:00","","3.0","","2.7","","98","","24","","6","","11.3","","101.26","","","","","","Cloudy"
"-79.40","43.63","TORONTO ISLAND A","6158665","1990-03-10 16:00","1990","03","10","16:00","","4.0","","3.1","","94","","","","0","","11.3","","101.15","","","","","","Cloudy"
"-79.40","43.63","TORONTO ISLAND A","6158665","1990-03-10 17:00","1990","03","10","17:00","","4.8","","3.3","","90","","","","0","","11.3","","101.12","","","","","","Cloudy"
"-79.40","43.63","TORONTO ISLAND A","6158665","1990-03-10 18:00","1990","03","10","18:00","","3.6","","2.8","","94","","","","0","","9.7","","101.12","","","","","","Fog"
"-79.40","43.63","TORONTO ISLAND A","6158665","1990-03-10 19:00","1990","03","10","19:00","","2.7","","2.5","","98","","","","0","","3.2","","101.15","","","","","","Drizzle,Fog"
"-79.40","43.63","TORONTO ISLAND A","6158665","1990-03-10 20:00","1990","03","10","20:00","","3.0","","2.5","","97","","12","","4","","1.0","","101.22","","","","","","Drizzle,Fog"
"-79.40","43.63","TORONTO ISLAND A","6158665","1990-03-10 21:00","1990","03","10","21:00","","3.1","","2.6","","97","","","","0","","0.2","","101.22","","","","","","Drizzle,Fog"
"-79.40","43.63","TORONTO ISLAND A","6158665","1990-03-10 22:00","1990","03","10","22:00","","3.2","","2.7","","97","","11","","4","","0.2","","101.19","","","","","","Drizzle,Fog"
"-79.40","43.63","TORONTO ISLAND A","6158665","1990-03-10 23:00","1990","03","10","23:00","","3.0","","2.5","","97","","8","","9","","0.8","","101.15","","","","","","Drizzle,Fog"
"-79.40","43.63","TORONTO ISLAND A","6158665","1990-03-11 00:00","1990","03","11","00:00","","","","","","","","7","","7","","","","","","","","","","NA"
"-79.40","43.63","TORONTO ISLAND A","6158665","1990-03-11 01:00","1990","03","11","01:00","","","","","","","","","","0","","","","","","","","","","NA"
"-79.40","43.63","TORONTO ISLAND A","6158665","1990-03-11 02:00","1990","03","11","02:00","","","","","","","","9","","6","","","","","","","","","","NA"
"-79.40","43.63","TORONTO ISLAND A","6158665","1990-03-11 03:00","1990","03","11","03:00","","","","","","","","8","","4","","","","","","","","","","NA"
"-79.40","43.63","TORONTO ISLAND A","6158665","1990-03-11 04:00","1990","03","11","04:00","","","","","","","","10","","4","","","","","","","","","","NA"
"-79.40","43.63","TORONTO ISLAND A","6158665","1990-03-11 05:00","1990","03","11","05:00","","","","","","","","","","0","","","","","","","","","","NA"
"-79.40","43.63","TORONTO ISLAND A","6158665","1990-03-11 06:00","1990","03","11","06:00","","","","","","","","4","","15","","","","","","","","","","NA"
"-79.40","43.63","TORONTO ISLAND A","6158665","1990-03-11 07:00","1990","03","11","07:00","","5.1","","3.6","","90","","3","","9","","12.9","","101.39","","","","","","Cloudy"
"-79.40","43.63","TORONTO ISLAND A","6158665","1990-03-11 08:00","1990","03","11","08:00","","5.1","","2.4","","83","","4","","9","","11.3","","101.46","","","","","","Cloudy"
"-79.40","43.63","TORONTO ISLAND A","6158665","1990-03-11 09:00","1990","03","11","09:00","","5.4","","1.7","","77","","6","","13","","16.1","","101.52","","","","","","Mostly Cloudy"
"-79.40","43.63","TORONTO ISLAND A","6158665","1990-03-11 10:00","1990","03","11","10:00","","6.1","","1.2","","71","","7","","22","","24.1","","101.52","","","","","","Mostly Cloudy"
"-79.40","43.63","TORONTO ISLAND A","6158665","1990-03-11 11:00","1990","03","11","11:00","","5.3","","0.5","","71","","8","","26","","24.1","","101.56","","","","","","Cloudy"
"-79.40","43.63","TORONTO ISLAND A","6158665","1990-03-11 12:00","1990","03","11","12:00","","5.6","","1.4","","74","","7","","22","","12.9","","101.52","","","","","","Cloudy"
"-79.40","43.63","TORONTO ISLAND A","6158665","1990-03-11 13:00","1990","03","11","13:00","","5.5","","0.7","","71","","8","","26","","19.3","","101.52","","","","","","Cloudy"
"-79.40","43.63","TORONTO ISLAND A","6158665","1990-03-11 14:00","1990","03","11","14:00","","5.1","","1.3","","76","","8","","24","","24.1","","101.46","","","","","","Cloudy"
"-79.40","43.63","TORONTO ISLAND A","6158665","1990-03-11 15:00","1990","03","11","15:00","","4.8","","1.4","","79","","8","","19","","16.1","","101.39","","","","","","Cloudy"
"-79.40","43.63","TORONTO ISLAND A","6158665","1990-03-11 16:00","1990","03","11","16:00","","4.2","","1.7","","84","","9","","19","","12.9","","101.32","","","","","","Cloudy"
"-79.40","43.63","TORONTO ISLAND A","6158665","1990-03-11 17:00","1990","03","11","17:00","","3.5","","2.0","","90","","8","","22","","9.7","","101.26","","","","","","Rain Showers,Fog"
"-79.40","43.63","TORONTO ISLAND A","6158665","1990-03-11 18:00","1990","03","11","18:00","","3.3","","1.1","","86","","7","","19","","11.3","","101.32","","","","","","Rain Showers"
"-79.40","43.63","TORONTO ISLAND A","6158665","1990-03-11 19:00","1990","03","11","19:00","","3.2","","1.5","","88","","8","","19","","4.8","","101.36","","","","","","Rain Showers,Fog"
"-79.40","43.63","TORONTO ISLAND A","6158665","1990-03-11 20:00","1990","03","11","20:00","","2.7","","1.7","","93","","8","","28","","16.1","","101.22","","","","","","Rain Showers"
"-79.40","43.63","TORONTO ISLAND A","6158665","1990-03-11 21:00","1990","03","11","21:00","","2.8","","1.4","","91","","9","","37","","16.1","","101.12","","","","","","Cloudy"
"-79.40","43.63","TORONTO ISLAND A","6158665","1990-03-11 22:00","1990","03","11","22:00","","3.2","","1.5","","88","","7","","28","","9.7","","101.09","","","","","","Rain Showers,Fog"
"-79.40","43.63","TORONTO ISLAND A","6158665","1990-03-11 23:00","1990","03","11","23:00","","2.7","","2.1","","96","","7","","33","","3.2","","101.02","","","","","","Rain,Fog"
"-79.40","43.63","TORONTO ISLAND A","6158665","1990-03-12 00:00","1990","03","12","00:00","","","","","","","","8","","39","","","","","","","","","","NA"
"-79.40","43.63","TORONTO ISLAND A","6158665","1990-03-12 01:00","1990","03","12","01:00","","","","","","","","9","","41","","","","","","","","","","NA"
"-79.40","43.63","TORONTO ISLAND A","6158665","1990-03-12 02:00","1990","03","12","02:00","","","","","","","","7","","24","","","","","","","","","","NA"
"-79.40","43.63","TORONTO ISLAND A","6158665","1990-03-12 03:00","1990","03","12","03:00","","","","","","","","10","","26","","","","","","","","","","NA"
"-79.40","43.63","TORONTO ISLAND A","6158665","1990-03-12 04:00","1990","03","12","04:00","","","","","","","","11","","20","","","","","","","","","","NA"
"-79.40","43.63","TORONTO ISLAND A","6158665","1990-03-12 05:00","1990","03","12","05:00","","","","","","","","9","","19","","","","","","","","","","NA"
"-79.40","43.63","TORONTO ISLAND A","6158665","1990-03-12 06:00","1990","03","12","06:00","","","","","","","","9","","13","","","","","","","","","","NA"
"-79.40","43.63","TORONTO ISLAND A","6158665","1990-03-12 07:00","1990","03","12","07:00","","3.0","","1.1","","87","","8","","13","","3.2","","100.95","","","","","","Rain Showers,Fog"
"-79.40","43.63","TORONTO ISLAND A","6158665","1990-03-12 08:00","1990","03","12","08:00","","2.4","","2.0","","97","","7","","22","","2.4","","100.95","","","","","","Rain Showers,Fog"
"-79.40","43.63","TORONTO ISLAND A","6158665","1990-03-12 09:00","1990","03","12","09:00","","2.6","","1.6","","93","","9","","19","","4.8","","100.99","","","","","","Rain Showers,Fog"
"-79.40","43.63","TORONTO ISLAND A","6158665","1990-03-12 10:00","1990","03","12","10:00","","2.4","","1.6","","95","","8","","15","","2.8","","100.99","","","","","","Rain Showers,Fog"
"-79.40","43.63","TORONTO ISLAND A","6158665","1990-03-12 11:00","1990","03","12","11:00","","2.4","","2.0","","97","","8","","13","","2.8","","100.95","","","","","","Rain,Fog"
"-79.40","43.63","TORONTO ISLAND A","6158665","1990-03-12 12:00","1990","03","12","12:00","","2.7","","1.6","","92","","8","","19","","4.0","","100.85","","","","","","Fog"
"-79.40","43.63","TORONTO ISLAND A","6158665","1990-03-12 13:00","1990","03","12","13:00","","3.5","","2.6","","94","","9","","15","","4.0","","100.82","","","","","","Fog"
"-79.40","43.63","TORONTO ISLAND A","6158665","1990-03-12 14:00","1990","03","12","14:00","","3.1","","2.6","","97","","9","","17","","2.4","","100.68","","","","","","Fog"
"-79.40","43.63","TORONTO ISLAND A","6158665","1990-03-12 15:00","1990","03","12","15:00","","3.2","","2.6","","96","","10","","17","","0.4","","100.68","","","","","","Fog"
"-79.40","43.63","TORONTO ISLAND A","6158665","1990-03-12 16:00","1990","03","12","16:00","","3.0","","2.6","","97","","10","","17","","0.4","","100.62","","","","","","Fog"
"-79.40","43.63","TORONTO ISLAND A","6158665","1990-03-12 17:00","1990","03","12","17:00","","2.5","","2.0","","96","","10","","17","","0.4","","100.58","","","","","","Fog"
"-79.40","43.63","TORONTO ISLAND A","6158665","1990-03-12 18:00","1990","03","12","18:00","","1.7","","1.0","","95","","9","","19","","0.4","","100.58","","","","","","Fog"
"-79.40","43.63","TORONTO ISLAND A","6158665","1990-03-12 19:00","1990","03","12","19:00","","1.4","","1.0","","97","","9","","19","","0.4","","100.58","","","","","","Fog"
"-79.40","43.63","TORONTO ISLAND A","6158665","1990-03-12 20:00","1990","03","12","20:00","","1.3","","1.0","","98","","9","","19","","0.4","","100.62","","","","","","Fog"
"-79.40","43.63","TORONTO ISLAND A","6158665","1990-03-12 21:00","1990","03","12","21:00","","1.3","","1.0","","98","","10","","11","","0.6","","100.65","","","","","","Fog"
"-79.40","43.63","TORONTO ISLAND A","6158665","1990-03-12 22:00","1990","03","12","22:00","","1.6","","1.0","","96","","10","","15","","0.6","","100.62","","","","","","Fog"
"-79.40","43.63","TORONTO ISLAND A","6158665","1990-03-12 23:00","1990","03","12","23:00","","1.5","","1.0","","96","","10","","11","","1.2","","100.58","","","","","","Fog"
"-79.40","43.63","TORONTO ISLAND A","6158665","1990-03-13 00:00","1990","03","13","00:00","","","","","","","","26","","6","","","","","","","","","","NA"
"-79.40","43.63","TORONTO ISLAND A","6158665","1990-03-13 01:00","1990","03","13","01:00","","","","","","","","27","","6","","","","","","","","","","NA"
"-79.40","43.63","TORONTO ISLAND A","6158665","1990-03-13 02:00","1990","03","13","02:00","","","","","","","","26","","9","","","","","","","","","","NA"
"-79.40","43.63","TORONTO ISLAND A","6158665","1990-03-13 03:00","1990","03","13","03:00","","","","","","","","25","","6","","","","","","","","","","NA"
"-79.40","43.63","TORONTO ISLAND A","6158665","1990-03-13 04:00","1990","03","13","04:00","","","","","","","","27","","4","","","","","","","","","","NA"
"-79.40","43.63","TORONTO ISLAND A","6158665","1990-03-13 05:00","1990","03","13","05:00","","","","","","","","28","","2","","","","","","","","","","NA"
"-79.40","43.63","TORONTO ISLAND A","6158665","1990-03-13 06:00","1990","03","13","06:00","","","","","","","","26","","7","","","","","","","","","","NA"
"-79.40","43.63","TORONTO ISLAND A","6158665","1990-03-13 07:00","1990","03","13","07:00","","4.0","","4.0","","100","","32","","4","","0.0","","100.62","","","","","","Fog"
"-79.40","43.63","TORONTO ISLAND A","6158665","1990-03-13 08:00","1990","03","13","08:00","","6.9","","6.9","","100","","25","","9","","0.0","","100.72","","","","","","Fog"
"-79.40","43.63","TORONTO ISLAND A","6158665","1990-03-13 09:00","1990","03","13","09:00","","8.5","","8.5","","100","","24","","15","","0.2","","100.75","","","","","","Fog"
"-79.40","43.63","TORONTO ISLAND A","6158665","1990-03-13 10:00","1990","03","13","10:00","","14.7","","12.8","","88","","27","","28","","9.7","","100.75","","","","","","Fog"
"-79.40","43.63","TORONTO ISLAND A","6158665","1990-03-13 11:00","1990","03","13","11:00","","16.8","","13.1","","79","","27","","28","","6.4","","100.75","","","","","","Haze"
"-79.40","43.63","TORONTO ISLAND A","6158665","1990-03-13 12:00","1990","03","13","12:00","","17.1","","12.0","","72","","28","","19","","8.0","","100.79","","","","","","Haze"
"-79.40","43.63","TORONTO ISLAND A","6158665","1990-03-13 13:00","1990","03","13","13:00","","17.7","","11.8","","68","","27","","19","","11.3","","100.72","","","","","","Mostly Cloudy"
"-79.40","43.63","TORONTO ISLAND A","6158665","1990-03-13 14:00","1990","03","13","14:00","","9.4","","9.1","","98","","21","","4","","0.4","","100.72","","","","","","Fog"
"-79.40","43.63","TORONTO ISLAND A","6158665","1990-03-13 15:00","1990","03","13","15:00","","10.9","","9.9","","94","","22","","4","","1.2","","100.72","","","","","","Fog"
"-79.40","43.63","TORONTO ISLAND A","6158665","1990-03-13 16:00","1990","03","13","16:00","","10.9","","9.9","","94","","27","","2","","4.8","","100.72","","","","","","Fog"
"-79.40","43.63","TORONTO ISLAND A","6158665","1990-03-13 17:00","1990","03","13","17:00","","12.1","","10.2","","88","","7","","2","","2.4","","100.68","","","","","","Fog"
"-79.40","43.63","TORONTO ISLAND A","6158665","1990-03-13 18:00","1990","03","13","18:00","","9.9","","9.6","","98","","10","","7","","0.6","","100.68","","","","","","Fog"
"-79.40","43.63","TORONTO ISLAND A","6158665","1990-03-13 19:00","1990","03","13","19:00","","10.7","","9.4","","91","","18","","6","","4.0","","100.72","","","","","","Fog"
"-79.40","43.63","TORONTO ISLAND A","6158665","1990-03-13 20:00","1990","03","13","20:00","","8.3","","7.7","","96","","","","0","","2.0","","100.72","","","","","","Fog"
"-79.40","43.63","TORONTO ISLAND A","6158665","1990-03-13 21:00","1990","03","13","21:00","","9.6","","9.1","","97","","","","0","","0.8","","100.72","","","","","","Fog"
"-79.40","43.63","TORONTO ISLAND A","6158665","1990-03-13 22:00","1990","03","13","22:00","","7.0","","6.6","","97","","33","","6","","0.0","","100.68","","","","","","Fog"
"-79.40","43.63","TORONTO ISLAND A","6158665","1990-03-13 23:00","1990","03","13","23:00","","6.8","","6.6","","99","","7","","7","","0.0","","100.72","","","","","","Fog"
"-79.40","43.63","TORONTO ISLAND A","6158665","1990-03-14 00:00","1990","03","14","00:00","","","","","","","","10","","11","","","","","","","","","","NA"
"-79.40","43.63","TORONTO ISLAND A","6158665","1990-03-14 01:00","1990","03","14","01:00","","","","","","","","7","","6","","","","","","","","","","NA"
"-79.40","43.63","TORONTO ISLAND A","6158665","1990-03-14 02:00","1990","03","14","02:00","","","","","","","","12","","11","","","","","","","","","","NA"
"-79.40","43.63","TORONTO ISLAND A","6158665","1990-03-14 03:00","1990","03","14","03:00","","","","","","","","8","","7","","","","","","","","","","NA"
"-79.40","43.63","TORONTO ISLAND A","6158665","1990-03-14 04:00","1990","03","14","04:00","","","","","","","","7","","7","","","","","","","","","","NA"
"-79.40","43.63","TORONTO ISLAND A","6158665","1990-03-14 05:00","1990","03","14","05:00","","","","","","","","17","","4","","","","","","","","","","NA"
"-79.40","43.63","TORONTO ISLAND A","6158665","1990-03-14 06:00","1990","03","14","06:00","","","","","","","","8","","13","","","","","","","","","","NA"
"-79.40","43.63","TORONTO ISLAND A","6158665","1990-03-14 07:00","1990","03","14","07:00","","4.5","","4.5","","100","","8","","19","","0.0","","100.68","","","","","","Fog"
"-79.40","43.63","TORONTO ISLAND A","6158665","1990-03-14 08:00","1990","03","14","08:00","","5.5","","5.1","","97","","10","","11","","0.0","","100.72","","","","","","Fog"
"-79.40","43.63","TORONTO ISLAND A","6158665","1990-03-14 09:00","1990","03","14","09:00","","6.3","","6.1","","99","","9","","15","","0.0","","100.68","","","","","","Fog"
"-79.40","43.63","TORONTO ISLAND A","6158665","1990-03-14 10:00","1990","03","14","10:00","","7.0","","6.6","","97","","9","","17","","0.0","","100.65","","","","","","Fog"
"-79.40","43.63","TORONTO ISLAND A","6158665","1990-03-14 11:00","1990","03","14","11:00","","7.7","","6.7","","93","","9","","15","","0.2","","100.65","","","","","","Fog"
"-79.40","43.63","TORONTO ISLAND A","6158665","1990-03-14 12:00","1990","03","14","12:00","","8.0","","6.8","","92","","9","","19","","2.4","","100.58","","","","","","Fog"
"-79.40","43.63","TORONTO ISLAND A","6158665","1990-03-14 13:00","1990","03","14","13:00","","8.4","","7.4","","93","","9","","19","","9.7","","100.45","","","","","","Fog"
"-79.40","43.63","TORONTO ISLAND A","6158665","1990-03-14 14:00","1990","03","14","14:00","","7.4","","6.7","","96","","9","","20","","2.8","","100.38","","","","","","Fog"
"-79.40","43.63","TORONTO ISLAND A","6158665","1990-03-14 15:00","1990","03","14","15:00","","6.7","","5.3","","90","","10","","19","","8.0","","100.38","","","","","","Fog"
"-79.40","43.63","TORONTO ISLAND A","6158665","1990-03-14 16:00","1990","03","14","16:00","","6.4","","5.3","","93","","10","","19","","8.0","","100.38","","","","","","Fog"
"-79.40","43.63","TORONTO ISLAND A","6158665","1990-03-14 17:00","1990","03","14","17:00","","6.5","","5.3","","92","","10","","22","","8.0","","100.31","","","","","","Fog"
"-79.40","43.63","TORONTO ISLAND A","6158665","1990-03-14 18:00","1990","03","14","18:00","","6.3","","5.7","","96","","10","","17","","8.0","","100.35","","","","","","Fog"
"-79.40","43.63","TORONTO ISLAND A","6158665","1990-03-14 19:00","1990","03","14","19:00","","4.9","","4.6","","98","","10","","15","","0.4","","100.38","","","","","","Fog"
"-79.40","43.63","TORONTO ISLAND A","6158665","1990-03-14 20:00","1990","03","14","20:00","","5.3","","5.1","","99","","11","","11","","0.4","","100.45","","","","","","Fog"
"-79.40","43.63","TORONTO ISLAND A","6158665","1990-03-14 21:00","1990","03","14","21:00","","4.9","","4.6","","98","","","","0","","0.2","","100.48","","","","","","Fog"
"-79.40","43.63","TORONTO ISLAND A","6158665","1990-03-14 22:00","1990","03","14","22:00","","4.7","","4.1","","96","","","","0","","2.4","","100.52","","","","","","Fog"
"-79.40","43.63","TORONTO ISLAND A","6158665","1990-03-14 23:00","1990","03","14","23:00","","3.8","","3.6","","99","","9","","7","","0.6","","100.52","","","","","","Fog"
"-79.40","43.63","TORONTO ISLAND A","6158665","1990-03-15 00:00","1990","03","15","00:00","","","","","","","","","","0","","","","","","","","","","NA"
"-79.40","43.63","TORONTO ISLAND A","6158665","1990-03-15 01:00","1990","03","15","01:00","","","","","","","","","","0","","","","","","","","","","NA"
"-79.40","43.63","TORONTO ISLAND A","6158665","1990-03-15 02:00","1990","03","15","02:00","","","","","","","","","","0","","","","","","","","","","NA"
"-79.40","43.63","TORONTO ISLAND A","6158665","1990-03-15 03:00","1990","03","15","03:00","","","","","","","","18","","4","","","","","","","","","","NA"
"-79.40","43.63","TORONTO ISLAND A","6158665","1990-03-15 04:00","1990","03","15","04:00","","","","","","","","9","","9","","","","","","","","","","NA"
"-79.40","43.63","TORONTO ISLAND A","6158665","1990-03-15 05:00","1990","03","15","05:00","","","","","","","","","","0","","","","","","","","","","NA"
"-79.40","43.63","TORONTO ISLAND A","6158665","1990-03-15 06:00","1990","03","15","06:00","","","","","","","","5","","9","","","","","","","","","","NA"
"-79.40","43.63","TORONTO ISLAND A","6158665","1990-03-15 07:00","1990","03","15","07:00","","5.7","","4.7","","93","","","","0","","1.2","","100.58","","","","","","Fog"
"-79.40","43.63","TORONTO ISLAND A","6158665","1990-03-15 08:00","1990","03","15","08:00","","5.6","","4.7","","94","","24","","4","","2.8","","100.62","","","","","","Fog"
"-79.40","43.63","TORONTO ISLAND A","6158665","1990-03-15 09:00","1990","03","15","09:00","","6.3","","6.1","","99","","25","","6","","1.0","","100.68","","","","","","Fog"
"-79.40","43.63","TORONTO ISLAND A","6158665","1990-03-15 10:00","1990","03","15","10:00","","6.7","","5.7","","93","","22","","4","","1.6","","100.65","","","","","","Fog"
"-79.40","43.63","TORONTO ISLAND A","6158665","1990-03-15 11:00","1990","03","15","11:00","","10.0","","8.1","","88","","9","","22","","3.2","","100.58","","","","","","Fog"
"-79.40","43.63","TORONTO ISLAND A","6158665","1990-03-15 12:00","1990","03","15","12:00","","9.2","","7.5","","89","","9","","20","","1.6","","100.62","","","","","","Fog"
"-79.40","43.63","TORONTO ISLAND A","6158665","1990-03-15 13:00","1990","03","15","13:00","","9.0","","5.9","","81","","9","","19","","8.0","","100.55","","","","","","Haze"
"-79.40","43.63","TORONTO ISLAND A","6158665","1990-03-15 14:00","1990","03","15","14:00","","9.3","","6.8","","84","","10","","17","","9.7","","100.45","","","","","","Haze"
"-79.40","43.63","TORONTO ISLAND A","6158665","1990-03-15 15:00","1990","03","15","15:00","","7.6","","4.6","","81","","10","","24","","9.7","","100.42","","","","","","Haze"
"-79.40","43.63","TORONTO ISLAND A","6158665","1990-03-15 16:00","1990","03","15","16:00","","9.2","","6.3","","82","","10","","19","","9.7","","100.42","","","","","","Haze"
"-79.40","43.63","TORONTO ISLAND A","6158665","1990-03-15 17:00","1990","03","15","17:00","","9.3","","6.8","","84","","10","","24","","9.7","","100.42","","","","","","Haze"
"-79.40","43.63","TORONTO ISLAND A","6158665","1990-03-15 18:00","1990","03","15","18:00","","9.1","","6.3","","82","","10","","26","","11.3","","100.38","","","","","","Cloudy"
"-79.40","43.63","TORONTO ISLAND A","6158665","1990-03-15 19:00","1990","03","15","19:00","","8.0","","6.8","","92","","9","","22","","9.7","","100.45","","","","","","Fog"
"-79.40","43.63","TORONTO ISLAND A","6158665","1990-03-15 20:00","1990","03","15","20:00","","8.7","","7.0","","89","","9","","11","","9.7","","100.48","","","","","","Fog"
"-79.40","43.63","TORONTO ISLAND A","6158665","1990-03-15 21:00","1990","03","15","21:00","","6.4","","4.4","","87","","26","","11","","8.0","","100.48","","","","","","Fog"
"-79.40","43.63","TORONTO ISLAND A","6158665","1990-03-15 22:00","1990","03","15","22:00","","6.1","","4.8","","91","","","","0","","8.0","","100.45","","","","","","Fog"
"-79.40","43.63","TORONTO ISLAND A","6158665","1990-03-15 23:00","1990","03","15","23:00","","9.4","","7.6","","89","","9","","15","","9.7","","100.31","","","","","","Fog"
"-79.40","43.63","TORONTO ISLAND A","6158665","1990-03-16 00:00","1990","03","16","00:00","","","","","","","","7","","4","","","","","","","","","","NA"
"-79.40","43.63","TORONTO ISLAND A","6158665","1990-03-16 01:00","1990","03","16","01:00","","","","","","","","29","","4","","","","","","","","","","NA"
"-79.40","43.63","TORONTO ISLAND A","6158665","1990-03-16 02:00","1990","03","16","02:00","","","","","","","","","","0","","","","","","","","","","NA"
"-79.40","43.63","TORONTO ISLAND A","6158665","1990-03-16 03:00","1990","03","16","03:00","","","","","","","","","","0","","","","","","","","","","NA"
"-79.40","43.63","TORONTO ISLAND A","6158665","1990-03-16 04:00","1990","03","16","04:00","","","","","","","","11","","13","","","","","","","","","","NA"
"-79.40","43.63","TORONTO ISLAND A","6158665","1990-03-16 05:00","1990","03","16","05:00","","","","","","","","","","0","","","","","","","","","","NA"
"-79.40","43.63","TORONTO ISLAND A","6158665","1990-03-16 06:00","1990","03","16","06:00","","","","","","","","","","0","","","","","","","","","","NA"
"-79.40","43.63","TORONTO ISLAND A","6158665","1990-03-16 07:00","1990","03","16","07:00","","5.9","","4.3","","89","","","","0","","3.2","","100.25","","","","","","Fog"
"-79.40","43.63","TORONTO ISLAND A","6158665","1990-03-16 08:00","1990","03","16","08:00","","6.3","","4.9","","91","","","","0","","3.6","","100.21","","","","","","Rain Showers,Fog"
"-79.40","43.63","TORONTO ISLAND A","6158665","1990-03-16 09:00","1990","03","16","09:00","","6.2","","4.3","","87","","21","","7","","6.4","","100.25","","","","","","Fog"
"-79.40","43.63","TORONTO ISLAND A","6158665","1990-03-16 10:00","1990","03","16","10:00","","6.3","","5.3","","93","","19","","4","","6.4","","100.28","","","","","","Fog"
"-79.40","43.63","TORONTO ISLAND A","6158665","1990-03-16 11:00","1990","03","16","11:00","","7.8","","6.0","","89","","","","0","","6.4","","100.21","","","","","","Rain Showers,Fog"
"-79.40","43.63","TORONTO ISLAND A","6158665","1990-03-16 12:00","1990","03","16","12:00","","6.9","","5.8","","93","","","","0","","6.4","","100.18","","","","","","Rain Showers,Fog"
"-79.40","43.63","TORONTO ISLAND A","6158665","1990-03-16 13:00","1990","03","16","13:00","","7.6","","5.1","","84","","14","","7","","4.0","","100.08","","","","","","Rain Showers,Fog"
"-79.40","43.63","TORONTO ISLAND A","6158665","1990-03-16 14:00","1990","03","16","14:00","","6.0","","5.2","","95","","27","","7","","2.8","","100.08","","","","","","Rain Showers,Drizzle,Fog"
"-79.40","43.63","TORONTO ISLAND A","6158665","1990-03-16 15:00","1990","03","16","15:00","","7.7","","7.1","","96","","24","","6","","0.0","","100.05","","","","","","Drizzle,Fog"
"-79.40","43.63","TORONTO ISLAND A","6158665","1990-03-16 16:00","1990","03","16","16:00","","8.0","","7.6","","97","","24","","7","","0.8","","100.08","","","","","","Fog"
"-79.40","43.63","TORONTO ISLAND A","6158665","1990-03-16 17:00","1990","03","16","17:00","","6.7","","6.7","","100","","18","","6","","0.0","","100.01","","","","","","Fog"
"-79.40","43.63","TORONTO ISLAND A","6158665","1990-03-16 18:00","1990","03","16","18:00","","7.8","","7.8","","100","","","","0","","2.4","","100.01","","","","","","Fog"
"-79.40","43.63","TORONTO ISLAND A","6158665","1990-03-16 19:00","1990","03","16","19:00","","7.2","","6.6","","96","","28","","6","","4.0","","100.01","","","","","","Fog"
"-79.40","43.63","TORONTO ISLAND A","6158665","1990-03-16 20:00","1990","03","16","20:00","","8.5","","7.7","","95","","","","0","","6.4","","99.98","","","","","","Fog"
"-79.40","43.63","TORONTO ISLAND A","6158665","1990-03-16 21:00","1990","03","16","21:00","","7.5","","7.5","","100","","17","","4","","0.8","","100.01","","","","","","Fog"
"-79.40","43.63","TORONTO ISLAND A","6158665","1990-03-16 22:00","1990","03","16","22:00","","7.4","","7.4","","100","","16","","7","","6.4","","99.98","","","","","","Fog"
"-79.40","43.63","TORONTO ISLAND A","6158665","1990-03-16 23:00","1990","03","16","23:00","","6.4","","6.1","","98","","","","0","","12.9","","99.91","","","","","","Cloudy"
"-79.40","43.63","TORONTO ISLAND A","6158665","1990-03-17 00:00","1990","03","17","00:00","","","","","","","","","","0","","","","","","","","","","NA"
"-79.40","43.63","TORONTO ISLAND A","6158665","1990-03-17 01:00","1990","03","17","01:00","","","","","","","","","","0","","","","","","","","","","NA"
"-79.40","43.63","TORONTO ISLAND A","6158665","1990-03-17 02:00","1990","03","17","02:00","","","","","","","","18","","4","","","","","","","","","","NA"
"-79.40","43.63","TORONTO ISLAND A","6158665","1990-03-17 03:00","1990","03","17","03:00","","","","","","","","26","","4","","","","","","","","","","NA"
"-79.40","43.63","TORONTO ISLAND A","6158665","1990-03-17 04:00","1990","03","17","04:00","","","","","","","","24","","4","","","","","","","","","","NA"
"-79.40","43.63","TORONTO ISLAND A","6158665","1990-03-17 05:00","1990","03","17","05:00","","","","","","","","","","0","","","","","","","","","","NA"
"-79.40","43.63","TORONTO ISLAND A","6158665","1990-03-17 06:00","1990","03","17","06:00","","","","","","","","30","","4","","","","","","","","","","NA"
"-79.40","43.63","TORONTO ISLAND A","6158665","1990-03-17 07:00","1990","03","17","07:00","","5.8","","5.6","","99","","","","0","","0.4","","99.44","","","","","","Rain Showers,Fog"
"-79.40","43.63","TORONTO ISLAND A","6158665","1990-03-17 08:00","1990","03","17","08:00","","5.3","","5.1","","99","","","","0","","0.6","","99.44","","","","","","Rain Showers,Fog"
"-79.40","43.63","TORONTO ISLAND A","6158665","1990-03-17 09:00","1990","03","17","09:00","","5.7","","4.7","","93","","","","0","","2.0","","99.34","","","","","","Fog"
"-79.40","43.63","TORONTO ISLAND A","6158665","1990-03-17 10:00","1990","03","17","10:00","","5.5","","5.2","","98","","24","","6","","2.4","","99.24","","","","","","Fog"
"-79.40","43.63","TORONTO ISLAND A","6158665","1990-03-17 11:00","1990","03","17","11:00","","6.1","","5.6","","97","","21","","22","","6.4","","99.20","","","","","","Fog"
"-79.40","43.63","TORONTO ISLAND A","6158665","1990-03-17 12:00","1990","03","17","12:00","","6.5","","5.2","","92","","21","","26","","6.4","","99.17","","","","","","Fog"
"-79.40","43.63","TORONTO ISLAND A","6158665","1990-03-17 13:00","1990","03","17","13:00","","7.3","","4.5","","83","","21","","28","","16.1","","99.10","","","","","","Cloudy"
"-79.40","43.63","TORONTO ISLAND A","6158665","1990-03-17 14:00","1990","03","17","14:00","","9.5","","2.8","","63","","23","","35","","25.0","","99.04","","","","","","Mostly Cloudy"
"-79.40","43.63","TORONTO ISLAND A","6158665","1990-03-17 15:00","1990","03","17","15:00","","10.9","","1.5","","52","","24","","48","","25.0","","99.04","","","","","","Mostly Cloudy"
"-79.40","43.63","TORONTO ISLAND A","6158665","1990-03-17 16:00","1990","03","17","16:00","","10.1","","2.0","","57","","26","","37","","25.0","","99.07","","","","","","Mostly Cloudy"
"-79.40","43.63","TORONTO ISLAND A","6158665","1990-03-17 17:00","1990","03","17","17:00","","8.6","","1.4","","60","","25","","35","","25.0","","99.14","","","","","","Mostly Cloudy"
"-79.40","43.63","TORONTO ISLAND A","6158665","1990-03-17 18:00","1990","03","17","18:00","","7.1","","1.8","","69","","25","","30","","25.0","","99.24","","","","","","Mostly Cloudy"
"-79.40","43.63","TORONTO ISLAND A","6158665","1990-03-17 19:00","1990","03","17","19:00","","5.8","","2.4","","79","","25","","22","","25.0","","99.34","","","","","","Rain Showers"
"-79.40","43.63","TORONTO ISLAND A","6158665","1990-03-17 20:00","1990","03","17","20:00","","7.0","","1.4","","67","","29","","28","","25.0","","99.44","","","","","","Rain Showers"
"-79.40","43.63","TORONTO ISLAND A","6158665","1990-03-17 21:00","1990","03","17","21:00","","6.3","","-2.7","","52","","27","","28","","25.0","","99.54","","","","","","Mostly Cloudy"
"-79.40","43.63","TORONTO ISLAND A","6158665","1990-03-17 22:00","1990","03","17","22:00","","5.7","","-2.8","","54","","27","","20","","25.0","","99.54","","","","","","Cloudy"
"-79.40","43.63","TORONTO ISLAND A","6158665","1990-03-17 23:00","1990","03","17","23:00","","4.1","","-0.4","","72","","24","","11","","25.0","","99.54","","","","","","Rain Showers"
"-79.40","43.63","TORONTO ISLAND A","6158665","1990-03-18 00:00","1990","03","18","00:00"
"-79.40","43.63","TORONTO ISLAND A","6158665","1990-03-18 01:00","1990","03","18","01:00"
"-79.40","43.63","TORONTO ISLAND A","6158665","1990-03-18 02:00","1990","03","18","02:00","","","","","","","","27","","19","","","","","","","","","","NA"
"-79.40","43.63","TORONTO ISLAND A","6158665","1990-03-18 03:00","1990","03","18","03:00","","","","","","","","27","","37","","","","","","","","","","NA"
"-79.40","43.63","TORONTO ISLAND A","6158665","1990-03-18 04:00","1990","03","18","04:00","","","","","","","","28","","37","","","","","","","","","","NA"
"-79.40","43.63","TORONTO ISLAND A","6158665","1990-03-18 05:00","1990","03","18","05:00","","","","","","","","28","","31","","","","","","","","","","NA"
"-79.40","43.63","TORONTO ISLAND A","6158665","1990-03-18 06:00","1990","03","18","06:00","","","","","","","","27","","35","","","","","","","","","","NA"
"-79.40","43.63","TORONTO ISLAND A","6158665","1990-03-18 07:00","1990","03","18","07:00","","1.7","","-3.6","","68","","26","","28","","25.0","","99.81","","","","","","Mainly Clear"
"-79.40","43.63","TORONTO ISLAND A","6158665","1990-03-18 08:00","1990","03","18","08:00","","2.3","","-3.2","","67","","26","","22","","25.0","","99.84","","","","","","Mainly Clear"
"-79.40","43.63","TORONTO ISLAND A","6158665","1990-03-18 09:00","1990","03","18","09:00","","2.6","","-3.8","","63","","27","","33","","25.0","","99.94","","","","","","Cloudy"
"-79.40","43.63","TORONTO ISLAND A","6158665","1990-03-18 10:00","1990","03","18","10:00","","3.5","","-3.1","","62","","27","","37","","25.0","","100.01","","","","","","Cloudy"
"-79.40","43.63","TORONTO ISLAND A","6158665","1990-03-18 11:00","1990","03","18","11:00","","3.2","","-5.4","","53","","27","","37","","25.0","","100.01","","","","","","Mostly Cloudy"
"-79.40","43.63","TORONTO ISLAND A","6158665","1990-03-18 12:00","1990","03","18","12:00","","3.8","","-5.9","","49","","29","","37","","25.0","","100.15","","","","","","Cloudy"
"-79.40","43.63","TORONTO ISLAND A","6158665","1990-03-18 13:00","1990","03","18","13:00","","3.2","","-5.2","","54","","27","","33","","25.0","","100.25","","","","","","Cloudy"
"-79.40","43.63","TORONTO ISLAND A","6158665","1990-03-18 14:00","1990","03","18","14:00","","3.8","","-5.7","","50","","28","","28","","25.0","","100.31","","","","","","Cloudy"
"-79.40","43.63","TORONTO ISLAND A","6158665","1990-03-18 15:00","1990","03","18","15:00","","4.7","","-5.0","","49","","26","","22","","25.0","","100.31","","","","","","Mostly Cloudy"
"-79.40","43.63","TORONTO ISLAND A","6158665","1990-03-18 16:00","1990","03","18","16:00","","3.7","","-2.9","","62","","25","","33","","25.0","","100.45","","","","","","Snow Showers"
"-79.40","43.63","TORONTO ISLAND A","6158665","1990-03-18 17:00","1990","03","18","17:00","","4.1","","-4.6","","53","","25","","30","","25.0","","100.48","","","","","","Mostly Cloudy"
"-79.40","43.63","TORONTO ISLAND A","6158665","1990-03-18 18:00","1990","03","18","18:00","","4.0","","-5.8","","49","","28","","24","","25.0","","100.58","","","","","","Mainly Clear"
"-79.40","43.63","TORONTO ISLAND A","6158665","1990-03-18 19:00","1990","03","18","19:00","","3.7","","-5.8","","50","","27","","19","","25.0","","100.68","","","","","","Mainly Clear"
"-79.40","43.63","TORONTO ISLAND A","6158665","1990-03-18 20:00","1990","03","18","20:00","","2.4","","-2.8","","69","","26","","9","","25.0","","100.79","","","","","","Mainly Clear"
"-79.40","43.63","TORONTO ISLAND A","6158665","1990-03-18 21:00","1990","03","18","21:00","","2.3","","0.1","","86","","24","","15","","25.0","","100.85","","","","","","Mostly Cloudy"
"-79.40","43.63","TORONTO ISLAND A","6158665","1990-03-18 22:00","1990","03","18","22:00","","3.0","","-3.3","","63","","25","","19","","25.0","","100.92","","","","","","Mostly Cloudy"
"-79.40","43.63","TORONTO ISLAND A","6158665","1990-03-18 23:00","1990","03","18","23:00","","1.5","","-2.1","","77","","23","","11","","25.0","","100.92","","","","","","Clear"
"-79.40","43.63","TORONTO ISLAND A","6158665","1990-03-19 00:00","1990","03","19","00:00","","","","","","","","27","","9","","","","","","","","","","NA"
"-79.40","43.63","TORONTO ISLAND A","6158665","1990-03-19 01:00","1990","03","19","01:00","","","","","","","","27","","7","","","","","","","","","","NA"
"-79.40","43.63","TORONTO ISLAND A","6158665","1990-03-19 02:00","1990","03","19","02:00","","","","","","","","","","0","","","","","","","","","","NA"
"-79.40","43.63","TORONTO ISLAND A","6158665","1990-03-19 03:00","1990","03","19","03:00","","","","","","","","","","0","","","","","","","","","","NA"
"-79.40","43.63","TORONTO ISLAND A","6158665","1990-03-19 04:00","1990","03","19","04:00","","","","","","","","5","","4","","","","","","","","","","NA"
"-79.40","43.63","TORONTO ISLAND A","6158665","1990-03-19 05:00","1990","03","19","05:00","","","","","","","","7","","11","","","","","","","","","","NA"
"-79.40","43.63","TORONTO ISLAND A","6158665","1990-03-19 06:00","1990","03","19","06:00","","","","","","","","2","","13","","","","","","","","","","NA"
"-79.40","43.63","TORONTO ISLAND A","6158665","1990-03-19 07:00","1990","03","19","07:00","","0.0","","-2.3","","85","","1","","13","","1.2","","101.05","","","","-4","","Snow"
"-79.40","43.63","TORONTO ISLAND A","6158665","1990-03-19 08:00","1990","03","19","08:00","","-0.5","","-1.7","","91","","2","","15","","2.0","","101.05","","","","-5","","Snow"
"-79.40","43.63","TORONTO ISLAND A","6158665","1990-03-19 09:00","1990","03","19","09:00","","-0.4","","-2.1","","88","","2","","24","","1.6","","101.12","","","","-6","","Snow"
"-79.40","43.63","TORONTO ISLAND A","6158665","1990-03-19 10:00","1990","03","19","10:00","","-0.3","","-2.4","","86","","1","","33","","2.4","","101.12","","","","-7","","Snow"
"-79.40","43.63","TORONTO ISLAND A","6158665","1990-03-19 11:00","1990","03","19","11:00","","0.0","","-2.0","","86","","1","","30","","2.0","","101.12","","","","-6","","Snow"
"-79.40","43.63","TORONTO ISLAND A","6158665","1990-03-19 12:00","1990","03","19","12:00","","0.2","","-2.4","","83","","1","","24","","4.0","","101.15","","","","","","Snow"
"-79.40","43.63","TORONTO ISLAND A","6158665","1990-03-19 13:00","1990","03","19","13:00","","0.6","","-2.4","","80","","1","","26","","3.6","","101.15","","","","","","Snow"
"-79.40","43.63","TORONTO ISLAND A","6158665","1990-03-19 14:00","1990","03","19","14:00","","0.9","","-2.8","","76","","2","","19","","11.3","","101.15","","","","","","Cloudy"
"-79.40","43.63","TORONTO ISLAND A","6158665","1990-03-19 15:00","1990","03","19","15:00","","0.9","","-2.6","","77","","1","","19","","12.9","","101.15","","","","","","Snow Showers"
"-79.40","43.63","TORONTO ISLAND A","6158665","1990-03-19 16:00","1990","03","19","16:00","","0.2","","-2.4","","83","","33","","22","","6.4","","101.26","","","","","","Snow Showers"
"-79.40","43.63","TORONTO ISLAND A","6158665","1990-03-19 17:00","1990","03","19","17:00","","-0.3","","-3.5","","79","","34","","19","","1.6","","101.32","","","","-5","","Snow Showers"
"-79.40","43.63","TORONTO ISLAND A","6158665","1990-03-19 18:00","1990","03","19","18:00","","-1.0","","-4.2","","79","","34","","19","","4.8","","101.39","","","","-6","","Snow Showers"
"-79.40","43.63","TORONTO ISLAND A","6158665","1990-03-19 19:00","1990","03","19","19:00","","-1.4","","-5.9","","71","","34","","22","","24.1","","101.46","","","","-7","","Snow Showers"
"-79.40","43.63","TORONTO ISLAND A","6158665","1990-03-19 20:00","1990","03","19","20:00","","-0.8","","-8.7","","55","","35","","22","","25.0","","101.52","","","","-7","","Snow Showers"
"-79.40","43.63","TORONTO ISLAND A","6158665","1990-03-19 21:00","1990","03","19","21:00","","-0.7","","-8.5","","55","","34","","26","","24.1","","101.56","","","","-7","","Snow Showers"
"-79.40","43.63","TORONTO ISLAND A","6158665","1990-03-19 22:00","1990","03","19","22:00","","-0.8","","-8.2","","57","","34","","22","","24.1","","101.56","","","","-7","","Snow Showers"
"-79.40","43.63","TORONTO ISLAND A","6158665","1990-03-19 23:00","1990","03","19","23:00","","-1.0","","-8.5","","57","","34","","19","","24.1","","101.56","","","","-6","","Snow Showers"
"-79.40","43.63","TORONTO ISLAND A","6158665","1990-03-20 00:00","1990","03","20","00:00","","","","","","","","34","","30","","","","","","","","","","NA"
"-79.40","43.63","TORONTO ISLAND A","6158665","1990-03-20 01:00","1990","03","20","01:00","","","","","","","","33","","28","","","","","","","","","","NA"
"-79.40","43.63","TORONTO ISLAND A","6158665","1990-03-20 02:00","1990","03","20","02:00","","","","","","","","33","","24","","","","","","","","","","NA"
"-79.40","43.63","TORONTO ISLAND A","6158665","1990-03-20 03:00","1990","03","20","03:00","","","","","","","","33","","24","","","","","","","","","","NA"
"-79.40","43.63","TORONTO ISLAND A","6158665","1990-03-20 04:00","1990","03","20","04:00","","","","","","","","33","","26","","","","","","","","","","NA"
"-79.40","43.63","TORONTO ISLAND A","6158665","1990-03-20 05:00","1990","03","20","05:00","","","","","","","","33","","17","","","","","","","","","","NA"
"-79.40","43.63","TORONTO ISLAND A","6158665","1990-03-20 06:00","1990","03","20","06:00","","","","","","","","35","","22","","","","","","","","","","NA"
"-79.40","43.63","TORONTO ISLAND A","6158665","1990-03-20 07:00","1990","03","20","07:00","","-2.1","","-7.1","","68","","34","","24","","25.0","","101.56","","","","-8","","Mostly Cloudy"
"-79.40","43.63","TORONTO ISLAND A","6158665","1990-03-20 08:00","1990","03","20","08:00","","-1.4","","-7.3","","64","","35","","28","","25.0","","101.59","","","","-8","","Cloudy"
"-79.40","43.63","TORONTO ISLAND A","6158665","1990-03-20 09:00","1990","03","20","09:00","","-1.0","","-7.2","","63","","34","","26","","25.0","","101.59","","","","-7","","Cloudy"
"-79.40","43.63","TORONTO ISLAND A","6158665","1990-03-20 10:00","1990","03","20","10:00","","-0.1","","-7.3","","58","","34","","26","","25.0","","101.56","","","","-6","","Cloudy"
"-79.40","43.63","TORONTO ISLAND A","6158665","1990-03-20 11:00","1990","03","20","11:00","","0.6","","-6.5","","59","","32","","24","","25.0","","101.52","","","","","","Mostly Cloudy"
"-79.40","43.63","TORONTO ISLAND A","6158665","1990-03-20 12:00","1990","03","20","12:00","","2.0","","-7.1","","51","","36","","22","","25.0","","101.46","","","","","","Mostly Cloudy"
"-79.40","43.63","TORONTO ISLAND A","6158665","1990-03-20 13:00","1990","03","20","13:00","","3.1","","-4.6","","57","","32","","28","","25.0","","101.42","","","","","","Mostly Cloudy"
"-79.40","43.63","TORONTO ISLAND A","6158665","1990-03-20 14:00","1990","03","20","14:00","","4.0","","-5.3","","51","","34","","26","","25.0","","101.32","","","","","","Mostly Cloudy"
"-79.40","43.63","TORONTO ISLAND A","6158665","1990-03-20 15:00","1990","03","20","15:00","","4.5","","-5.3","","49","","33","","28","","25.0","","101.26","","","","","","Mainly Clear"
"-79.40","43.63","TORONTO ISLAND A","6158665","1990-03-20 16:00","1990","03","20","16:00","","4.8","","-5.0","","49","","32","","28","","25.0","","101.22","","","","","","Mainly Clear"
"-79.40","43.63","TORONTO ISLAND A","6158665","1990-03-20 17:00","1990","03","20","17:00","","4.6","","-5.7","","47","","33","","24","","25.0","","101.15","","","","","","Clear"
"-79.40","43.63","TORONTO ISLAND A","6158665","1990-03-20 18:00","1990","03","20","18:00","","4.1","","-5.5","","49","","32","","28","","25.0","","101.19","","","","","","Clear"
"-79.40","43.63","TORONTO ISLAND A","6158665","1990-03-20 19:00","1990","03","20","19:00","","2.5","","-4.8","","59","","31","","22","","25.0","","101.22","","","","","","Clear"
"-79.40","43.63","TORONTO ISLAND A","6158665","1990-03-20 20:00","1990","03","20","20:00","","1.4","","-4.4","","65","","32","","19","","25.0","","101.26","","","","","","Clear"
"-79.40","43.63","TORONTO ISLAND A","6158665","1990-03-20 21:00","1990","03","20","21:00","","0.7","","-4.2","","69","","31","","19","","25.0","","101.32","","","","","","Clear"
"-79.40","43.63","TORONTO ISLAND A","6158665","1990-03-20 22:00","1990","03","20","22:00","","0.1","","-4.2","","73","","30","","19","","25.0","","101.29","","","","","","Clear"
"-79.40","43.63","TORONTO ISLAND A","6158665","1990-03-20 23:00","1990","03","20","23:00","","-0.2","","-4.0","","76","","29","","15","","25.0","","101.26","","","","-5","","Clear"
"-79.40","43.63","TORONTO ISLAND A","6158665","1990-03-21 00:00","1990","03","21","00:00","","","","","","","","30","","15","","","","","","","","","","NA"
"-79.40","43.63","TORONTO ISLAND A","6158665","1990-03-21 01:00","1990","03","21","01:00","","","","","","","","28","","7","","","","","","","","","","NA"
"-79.40","43.63","TORONTO ISLAND A","6158665","1990-03-21 02:00","1990","03","21","02:00","","","","","","","","27","","9","","","","","","","","","","NA"
"-79.40","43.63","TORONTO ISLAND A","6158665","1990-03-21 03:00","1990","03","21","03:00","","","","","","","","27","","7","","","","","","","","","","NA"
"-79.40","43.63","TORONTO ISLAND A","6158665","1990-03-21 04:00","1990","03","21","04:00","","","","","","","","29","","6","","","","","","","","","","NA"
"-79.40","43.63","TORONTO ISLAND A","6158665","1990-03-21 05:00","1990","03","21","05:00","","","","","","","","29","","7","","","","","","","","","","NA"
"-79.40","43.63","TORONTO ISLAND A","6158665","1990-03-21 06:00","1990","03","21","06:00","","","","","","","","28","","7","","","","","","","","","","NA"
"-79.40","43.63","TORONTO ISLAND A","6158665","1990-03-21 07:00","1990","03","21","07:00","","-0.3","","-6.4","","63","","28","","7","","25.0","","101.32","","","","-3","","Clear"
"-79.40","43.63","TORONTO ISLAND A","6158665","1990-03-21 08:00","1990","03","21","08:00","","0.7","","-6.2","","60","","27","","7","","25.0","","101.32","","","","","","Clear"
"-79.40","43.63","TORONTO ISLAND A","6158665","1990-03-21 09:00","1990","03","21","09:00","","2.6","","-5.9","","53","","32","","11","","25.0","","101.36","","","","","","Clear"
"-79.40","43.63","TORONTO ISLAND A","6158665","1990-03-21 10:00","1990","03","21","10:00","","3.2","","-3.4","","62","","24","","11","","24.1","","101.36","","","","","","Clear"
"-79.40","43.63","TORONTO ISLAND A","6158665","1990-03-21 11:00","1990","03","21","11:00","","3.3","","-1.2","","72","","22","","19","","24.1","","101.36","","","","","","Clear"
"-79.40","43.63","TORONTO ISLAND A","6158665","1990-03-21 12:00","1990","03","21","12:00","","4.1","","-2.6","","61","","21","","20","","24.1","","101.36","","","","","","Clear"
"-79.40","43.63","TORONTO ISLAND A","6158665","1990-03-21 13:00","1990","03","21","13:00","","5.0","","-2.2","","59","","20","","17","","25.0","","101.32","","","","","","Clear"
"-79.40","43.63","TORONTO ISLAND A","6158665","1990-03-21 14:00","1990","03","21","14:00","","5.9","","-2.1","","56","","20","","19","","25.0","","101.26","","","","","","Clear"
"-79.40","43.63","TORONTO ISLAND A","6158665","1990-03-21 15:00","1990","03","21","15:00","","6.1","","-1.5","","58","","19","","19","","25.0","","101.19","","","","","","Mainly Clear"
"-79.40","43.63","TORONTO ISLAND A","6158665","1990-03-21 16:00","1990","03","21","16:00","","6.4","","-1.9","","55","","19","","24","","25.0","","101.15","","","","","","Mainly Clear"
"-79.40","43.63","TORONTO ISLAND A","6158665","1990-03-21 17:00","1990","03","21","17:00","","6.0","","-2.1","","56","","20","","26","","25.0","","101.15","","","","","","Mainly Clear"
"-79.40","43.63","TORONTO ISLAND A","6158665","1990-03-21 18:00","1990","03","21","18:00","","4.5","","-0.8","","69","","19","","22","","25.0","","101.15","","","","","","Mostly Cloudy"
"-79.40","43.63","TORONTO ISLAND A","6158665","1990-03-21 19:00","1990","03","21","19:00","","4.3","","0.2","","75","","19","","24","","25.0","","101.22","","","","","","Mainly Clear"
"-79.40","43.63","TORONTO ISLAND A","6158665","1990-03-21 20:00","1990","03","21","20:00","","3.8","","0.1","","77","","21","","22","","25.0","","101.26","","","","","","Mostly Cloudy"
"-79.40","43.63","TORONTO ISLAND A","6158665","1990-03-21 21:00","1990","03","21","21:00","","3.6","","0.2","","78","","25","","11","","25.0","","101.26","","","","","","Mostly Cloudy"
"-79.40","43.63","TORONTO ISLAND A","6158665","1990-03-21 22:00","1990","03","21","22:00","","3.9","","-0.2","","74","","21","","19","","25.0","","101.29","","","","","","Mostly Cloudy"
"-79.40","43.63","TORONTO ISLAND A","6158665","1990-03-21 23:00","1990","03","21","23:00","","4.8","","0.7","","75","","25","","19","","24.1","","101.29","","","","","","Rain Showers"
"-79.40","43.63","TORONTO ISLAND A","6158665","1990-03-22 00:00","1990","03","22","00:00","","","","","","","","","","0","","","","","","","","","","NA"
"-79.40","43.63","TORONTO ISLAND A","6158665","1990-03-22 01:00","1990","03","22","01:00","","","","","","","","16","","7","","","","","","","","","","NA"
"-79.40","43.63","TORONTO ISLAND A","6158665","1990-03-22 02:00","1990","03","22","02:00","","","","","","","","13","","7","","","","","","","","","","NA"
"-79.40","43.63","TORONTO ISLAND A","6158665","1990-03-22 03:00","1990","03","22","03:00","","","","","","","","13","","13","","","","","","","","","","NA"
"-79.40","43.63","TORONTO ISLAND A","6158665","1990-03-22 04:00","1990","03","22","04:00","","","","","","","","13","","17","","","","","","","","","","NA"
"-79.40","43.63","TORONTO ISLAND A","6158665","1990-03-22 05:00","1990","03","22","05:00","","","","","","","","10","","15","","","","","","","","","","NA"
"-79.40","43.63","TORONTO ISLAND A","6158665","1990-03-22 06:00","1990","03","22","06:00","","","","","","","","10","","15","","","","","","","","","","NA"
"-79.40","43.63","TORONTO ISLAND A","6158665","1990-03-22 07:00","1990","03","22","07:00","","3.8","","0.0","","76","","10","","11","","16.1","","100.82","","","","","","Cloudy"
"-79.40","43.63","TORONTO ISLAND A","6158665","1990-03-22 08:00","1990","03","22","08:00","","4.3","","1.2","","80","","15","","7","","24.1","","100.72","","","","","","Cloudy"
"-79.40","43.63","TORONTO ISLAND A","6158665","1990-03-22 09:00","1990","03","22","09:00","","5.8","","1.2","","72","","19","","9","","24.1","","100.68","","","","","","Mostly Cloudy"
"-79.40","43.63","TORONTO ISLAND A","6158665","1990-03-22 10:00","1990","03","22","10:00","","7.2","","0.7","","63","","18","","7","","24.1","","100.55","","","","","","Mostly Cloudy"
"-79.40","43.63","TORONTO ISLAND A","6158665","1990-03-22 11:00","1990","03","22","11:00","","7.3","","1.1","","65","","19","","11","","24.1","","100.42","","","","","","Cloudy"
"-79.40","43.63","TORONTO ISLAND A","6158665","1990-03-22 12:00","1990","03","22","12:00","","7.4","","1.1","","64","","22","","26","","24.1","","100.31","","","","","","Cloudy"
"-79.40","43.63","TORONTO ISLAND A","6158665","1990-03-22 13:00","1990","03","22","13:00","","7.5","","0.7","","62","","21","","33","","24.1","","100.15","","","","","","Rain Showers"
"-79.40","43.63","TORONTO ISLAND A","6158665","1990-03-22 14:00","1990","03","22","14:00","","5.6","","2.6","","81","","25","","19","","24.1","","100.15","","","","","","Rain"
"-79.40","43.63","TORONTO ISLAND A","6158665","1990-03-22 15:00","1990","03","22","15:00","","7.2","","3.5","","77","","25","","22","","16.1","","100.08","","","","","","Rain"
"-79.40","43.63","TORONTO ISLAND A","6158665","1990-03-22 16:00","1990","03","22","16:00","","7.5","","3.9","","78","","25","","17","","19.3","","99.98","","","","","","Rain Showers"
"-79.40","43.63","TORONTO ISLAND A","6158665","1990-03-22 17:00","1990","03","22","17:00","","5.9","","3.5","","85","","22","","11","","24.1","","99.88","","","","","","Cloudy"
"-79.40","43.63","TORONTO ISLAND A","6158665","1990-03-22 18:00","1990","03","22","18:00","","6.3","","3.3","","81","","25","","15","","16.1","","99.84","","","","","","Cloudy"
"-79.40","43.63","TORONTO ISLAND A","6158665","1990-03-22 19:00","1990","03","22","19:00","","7.2","","3.9","","79","","23","","20","","12.9","","99.88","","","","","","Rain Showers"
"-79.40","43.63","TORONTO ISLAND A","6158665","1990-03-22 20:00","1990","03","22","20:00","","8.0","","5.7","","86","","24","","37","","12.9","","99.94","","","","","","Rain"
"-79.40","43.63","TORONTO ISLAND A","6158665","1990-03-22 21:00","1990","03","22","21:00","","7.5","","5.5","","87","","23","","37","","12.9","","99.98","","","","","","Rain"
"-79.40","43.63","TORONTO ISLAND A","6158665","1990-03-22 22:00","1990","03","22","22:00","","6.1","","5.2","","94","","23","","26","","11.3","","99.98","","","","","","Rain"
"-79.40","43.63","TORONTO ISLAND A","6158665","1990-03-22 23:00","1990","03","22","23:00","","8.3","","5.2","","81","","28","","28","","24.1","","100.01","","","","","","Rain"
"-79.40","43.63","TORONTO ISLAND A","6158665","1990-03-23 00:00","1990","03","23","00:00","","","","","","","","30","","33","","","","","","","","","","NA"
"-79.40","43.63","TORONTO ISLAND A","6158665","1990-03-23 01:00","1990","03","23","01:00","","","","","","","","31","","33","","","","","","","","","","NA"
"-79.40","43.63","TORONTO ISLAND A","6158665","1990-03-23 02:00","1990","03","23","02:00","","","","","","","","31","","26","","","","","","","","","","NA"
"-79.40","43.63","TORONTO ISLAND A","6158665","1990-03-23 03:00","1990","03","23","03:00","","","","","","","","29","","13","","","","","","","","","","NA"
"-79.40","43.63","TORONTO ISLAND A","6158665","1990-03-23 04:00","1990","03","23","04:00","","","","","","","","26","","20","","","","","","","","","","NA"
"-79.40","43.63","TORONTO ISLAND A","6158665","1990-03-23 05:00","1990","03","23","05:00","","","","","","","","25","","19","","","","","","","","","","NA"
"-79.40","43.63","TORONTO ISLAND A","6158665","1990-03-23 06:00","1990","03","23","06:00","","","","","","","","32","","33","","","","","","","","","","NA"
"-79.40","43.63","TORONTO ISLAND A","6158665","1990-03-23 07:00","1990","03","23","07:00","","-0.1","","-3.0","","81","","32","","22","","24.1","","100.82","","","","-6","","Snow Showers"
"-79.40","43.63","TORONTO ISLAND A","6158665","1990-03-23 08:00","1990","03","23","08:00","","-0.8","","-5.8","","69","","31","","28","","25.0","","101.02","","","","-7","","Mostly Cloudy"
"-79.40","43.63","TORONTO ISLAND A","6158665","1990-03-23 09:00","1990","03","23","09:00","","0.2","","-6.9","","59","","31","","37","","25.0","","101.15","","","","","","Mostly Cloudy"
"-79.40","43.63","TORONTO ISLAND A","6158665","1990-03-23 10:00","1990","03","23","10:00","","-1.2","","-6.1","","69","","31","","37","","25.0","","101.36","","","","-9","","Mainly Clear"
"-79.40","43.63","TORONTO ISLAND A","6158665","1990-03-23 11:00","1990","03","23","11:00","","-0.9","","-7.9","","59","","31","","28","","19.3","","101.46","","","","-7","","Snow Showers"
"-79.40","43.63","TORONTO ISLAND A","6158665","1990-03-23 12:00","1990","03","23","12:00","","0.3","","-9.1","","49","","31","","30","","19.3","","101.52","","","","","","Snow Showers"
"-79.40","43.63","TORONTO ISLAND A","6158665","1990-03-23 13:00","1990","03","23","13:00","","0.0","","-9.6","","48","","31","","33","","25.0","","101.56","","","","-7","","Mostly Cloudy"
"-79.40","43.63","TORONTO ISLAND A","6158665","1990-03-23 14:00","1990","03","23","14:00","","0.6","","-10.7","","42","","28","","31","","25.0","","101.59","","","","","","Mostly Cloudy"
"-79.40","43.63","TORONTO ISLAND A","6158665","1990-03-23 15:00","1990","03","23","15:00","","-0.2","","-8.3","","54","","31","","37","","11.3","","101.66","","","","-7","","Mostly Cloudy"
"-79.40","43.63","TORONTO ISLAND A","6158665","1990-03-23 16:00","1990","03","23","16:00","","-0.9","","-8.1","","58","","30","","28","","25.0","","101.69","","","","-7","","Mostly Cloudy"
"-79.40","43.63","TORONTO ISLAND A","6158665","1990-03-23 17:00","1990","03","23","17:00","","-1.4","","-10.5","","50","","30","","37","","11.3","","101.69","","","","-9","","Snow Showers"
"-79.40","43.63","TORONTO ISLAND A","6158665","1990-03-23 18:00","1990","03","23","18:00","","-1.3","","-9.9","","52","","29","","33","","25.0","","101.83","","","","-8","","Mainly Clear"
"-79.40","43.63","TORONTO ISLAND A","6158665","1990-03-23 19:00","1990","03","23","19:00","","-2.0","","-10.0","","54","","29","","33","","25.0","","101.89","","","","-9","","Mainly Clear"
"-79.40","43.63","TORONTO ISLAND A","6158665","1990-03-23 20:00","1990","03","23","20:00","","-2.4","","-10.6","","53","","30","","28","","25.0","","101.96","","","","-9","","Mainly Clear"
"-79.40","43.63","TORONTO ISLAND A","6158665","1990-03-23 21:00","1990","03","23","21:00","","-3.0","","-9.1","","63","","28","","19","","25.0","","102.03","","","","-9","","Clear"
"-79.40","43.63","TORONTO ISLAND A","6158665","1990-03-23 22:00","1990","03","23","22:00","","-3.5","","-10.4","","59","","29","","19","","25.0","","102.03","","","","-9","","Clear"
"-79.40","43.63","TORONTO ISLAND A","6158665","1990-03-23 23:00","1990","03","23","23:00","","-3.7","","-10.0","","62","","29","","20","","25.0","","102.06","","","","-10","","Clear"
"-79.40","43.63","TORONTO ISLAND A","6158665","1990-03-24 00:00","1990","03","24","00:00","","","","","","","","29","","20","","","","","","","","","","NA"
"-79.40","43.63","TORONTO ISLAND A","6158665","1990-03-24 01:00","1990","03","24","01:00"
"-79.40","43.63","TORONTO ISLAND A","6158665","1990-03-24 02:00","1990","03","24","02:00","","","","","","","","30","","17","","","","","","","","","","NA"
"-79.40","43.63","TORONTO ISLAND A","6158665","1990-03-24 03:00","1990","03","24","03:00","","","","","","","","30","","13","","","","","","","","","","NA"
"-79.40","43.63","TORONTO ISLAND A","6158665","1990-03-24 04:00","1990","03","24","04:00","","","","","","","","31","","9","","","","","","","","","","NA"
"-79.40","43.63","TORONTO ISLAND A","6158665","1990-03-24 05:00","1990","03","24","05:00","","","","","","","","29","","9","","","","","","","","","","NA"
"-79.40","43.63","TORONTO ISLAND A","6158665","1990-03-24 06:00","1990","03","24","06:00","","","","","","","","30","","11","","","","","","","","","","NA"
"-79.40","43.63","TORONTO ISLAND A","6158665","1990-03-24 07:00","1990","03","24","07:00","","-5.4","","-11.0","","64","","30","","9","","25.0","","102.20","","","","-9","","Mostly Cloudy"
"-79.40","43.63","TORONTO ISLAND A","6158665","1990-03-24 08:00","1990","03","24","08:00","","-4.7","","-12.1","","56","","28","","7","","25.0","","102.26","","","","-8","","Mostly Cloudy"
"-79.40","43.63","TORONTO ISLAND A","6158665","1990-03-24 09:00","1990","03","24","09:00","","-3.8","","-12.7","","50","","24","","7","","25.0","","102.26","","","","-7","","Cloudy"
"-79.40","43.63","TORONTO ISLAND A","6158665","1990-03-24 10:00","1990","03","24","10:00","","-3.2","","-12.9","","47","","25","","15","","25.0","","102.26","","","","-8","","Mostly Cloudy"
"-79.40","43.63","TORONTO ISLAND A","6158665","1990-03-24 11:00","1990","03","24","11:00","","-2.9","","-12.9","","46","","18","","7","","25.0","","102.23","","","","-6","","Cloudy"
"-79.40","43.63","TORONTO ISLAND A","6158665","1990-03-24 12:00","1990","03","24","12:00","","-2.8","","-12.0","","49","","20","","15","","25.0","","102.16","","","","-8","","Mostly Cloudy"
"-79.40","43.63","TORONTO ISLAND A","6158665","1990-03-24 13:00","1990","03","24","13:00","","-2.4","","-11.5","","49","","19","","13","","25.0","","102.10","","","","-7","","Cloudy"
"-79.40","43.63","TORONTO ISLAND A","6158665","1990-03-24 14:00","1990","03","24","14:00","","-2.2","","-11.0","","51","","20","","11","","25.0","","102.06","","","","-6","","Cloudy"
"-79.40","43.63","TORONTO ISLAND A","6158665","1990-03-24 15:00","1990","03","24","15:00","","-1.4","","-10.2","","51","","21","","13","","25.0","","101.93","","","","-6","","Cloudy"
"-79.40","43.63","TORONTO ISLAND A","6158665","1990-03-24 16:00","1990","03","24","16:00","","-1.1","","-9.3","","54","","21","","13","","25.0","","101.86","","","","-5","","Mostly Cloudy"
"-79.40","43.63","TORONTO ISLAND A","6158665","1990-03-24 17:00","1990","03","24","17:00","","-1.4","","-9.0","","56","","21","","17","","25.0","","101.83","","","","-7","","Mostly Cloudy"
"-79.40","43.63","TORONTO ISLAND A","6158665","1990-03-24 18:00","1990","03","24","18:00","","-1.3","","-8.6","","57","","21","","17","","25.0","","101.76","","","","-6","","Mostly Cloudy"
"-79.40","43.63","TORONTO ISLAND A","6158665","1990-03-24 19:00","1990","03","24","19:00","","-0.9","","-10.2","","49","","28","","17","","25.0","","101.76","","","","-6","","Mostly Cloudy"
"-79.40","43.63","TORONTO ISLAND A","6158665","1990-03-24 20:00","1990","03","24","20:00","","-1.0","","-10.8","","47","","27","","17","","25.0","","101.79","","","","-6","","Mainly Clear"
"-79.40","43.63","TORONTO ISLAND A","6158665","1990-03-24 21:00","1990","03","24","21:00","","-1.2","","-10.5","","49","","27","","13","","25.0","","101.79","","","","-5","","Mainly Clear"
"-79.40","43.63","TORONTO ISLAND A","6158665","1990-03-24 22:00","1990","03","24","22:00","","-1.2","","-10.4","","50","","27","","17","","25.0","","101.83","","","","-6","","Mostly Cloudy"
"-79.40","43.63","TORONTO ISLAND A","6158665","1990-03-24 23:00","1990","03","24","23:00","","-1.5","","-10.1","","52","","27","","9","","25.0","","101.79","","","","-5","","Mostly Cloudy"
"-79.40","43.63","TORONTO ISLAND A","6158665","1990-03-25 00:00","1990","03","25","00:00","","","","","","","","25","","19","","","","","","","","","","NA"
"-79.40","43.63","TORONTO ISLAND A","6158665","1990-03-25 01:00","1990","03","25","01:00","","","","","","","","26","","28","","","","","","","","","","NA"
"-79.40","43.63","TORONTO ISLAND A","6158665","1990-03-25 02:00","1990","03","25","02:00","","","","","","","","26","","26","","","","","","","","","","NA"
"-79.40","43.63","TORONTO ISLAND A","6158665","1990-03-25 03:00","1990","03","25","03:00","","","","","","","","25","","33","","","","","","","","","","NA"
"-79.40","43.63","TORONTO ISLAND A","6158665","1990-03-25 04:00","1990","03","25","04:00","","","","","","","","24","","39","","","","","","","","","","NA"
"-79.40","43.63","TORONTO ISLAND A","6158665","1990-03-25 05:00","1990","03","25","05:00","","","","","","","","25","","22","","","","","","","","","","NA"
"-79.40","43.63","TORONTO ISLAND A","6158665","1990-03-25 06:00","1990","03","25","06:00","","","","","","","","26","","26","","","","","","","","","","NA"
"-79.40","43.63","TORONTO ISLAND A","6158665","1990-03-25 07:00","1990","03","25","07:00","","-2.0","","-6.9","","69","","26","","19","","25.0","","101.59","","","","-8","","Mostly Cloudy"
"-79.40","43.63","TORONTO ISLAND A","6158665","1990-03-25 08:00","1990","03","25","08:00","","-1.6","","-8.0","","62","","27","","22","","25.0","","101.56","","","","-8","","Mainly Clear"
"-79.40","43.63","TORONTO ISLAND A","6158665","1990-03-25 09:00","1990","03","25","09:00","","-0.5","","-9.0","","52","","25","","15","","25.0","","101.56","","","","-5","","Mainly Clear"
"-79.40","43.63","TORONTO ISLAND A","6158665","1990-03-25 10:00","1990","03","25","10:00","","0.9","","-8.4","","50","","24","","28","","25.0","","101.52","","","","","","Mainly Clear"
"-79.40","43.63","TORONTO ISLAND A","6158665","1990-03-25 11:00","1990","03","25","11:00","","3.0","","-7.3","","47","","24","","28","","25.0","","101.46","","","","","","Mainly Clear"
"-79.40","43.63","TORONTO ISLAND A","6158665","1990-03-25 12:00","1990","03","25","12:00","","3.3","","-6.7","","48","","24","","37","","25.0","","101.42","","","","","","Mainly Clear"
"-79.40","43.63","TORONTO ISLAND A","6158665","1990-03-25 13:00","1990","03","25","13:00","","4.4","","-5.6","","48","","24","","37","","25.0","","101.36","","","","","","Mainly Clear"
"-79.40","43.63","TORONTO ISLAND A","6158665","1990-03-25 14:00","1990","03","25","14:00","","5.1","","-4.2","","51","","23","","37","","25.0","","101.26","","","","","","Mainly Clear"
"-79.40","43.63","TORONTO ISLAND A","6158665","1990-03-25 15:00","1990","03","25","15:00","","5.2","","-4.4","","50","","24","","39","","25.0","","101.15","","","","","","Mainly Clear"
"-79.40","43.63","TORONTO ISLAND A","6158665","1990-03-25 16:00","1990","03","25","16:00","","4.9","","-3.6","","54","","24","","39","","25.0","","101.15","","","","","","Mainly Clear"
"-79.40","43.63","TORONTO ISLAND A","6158665","1990-03-25 17:00","1990","03","25","17:00","","4.7","","-3.4","","56","","24","","35","","25.0","","101.12","","","","","","Mainly Clear"
"-79.40","43.63","TORONTO ISLAND A","6158665","1990-03-25 18:00","1990","03","25","18:00","","3.7","","-2.3","","65","","24","","33","","25.0","","101.05","","","","","","Clear"
"-79.40","43.63","TORONTO ISLAND A","6158665","1990-03-25 19:00","1990","03","25","19:00","","3.3","","-2.9","","64","","25","","31","","25.0","","101.09","","","","","","Clear"
"-79.40","43.63","TORONTO ISLAND A","6158665","1990-03-25 20:00","1990","03","25","20:00","","2.7","","-2.7","","67","","24","","31","","25.0","","101.12","","","","","","Clear"
"-79.40","43.63","TORONTO ISLAND A","6158665","1990-03-25 21:00","1990","03","25","21:00","","2.7","","-3.5","","63","","24","","37","","25.0","","101.09","","","","","","Clear"
"-79.40","43.63","TORONTO ISLAND A","6158665","1990-03-25 22:00","1990","03","25","22:00","","2.4","","-3.2","","66","","26","","30","","25.0","","101.09","","","","","","Clear"
"-79.40","43.63","TORONTO ISLAND A","6158665","1990-03-25 23:00","1990","03","25","23:00","","2.5","","-3.7","","63","","26","","30","","25.0","","101.05","","","","","","Clear"
"-79.40","43.63","TORONTO ISLAND A","6158665","1990-03-26 00:00","1990","03","26","00:00","","","","","","","","26","","28","","","","","","","","","","NA"
"-79.40","43.63","TORONTO ISLAND A","6158665","1990-03-26 01:00","1990","03","26","01:00","","","","","","","","25","","33","","","","","","","","","","NA"
"-79.40","43.63","TORONTO ISLAND A","6158665","1990-03-26 02:00","1990","03","26","02:00","","","","","","","","25","","31","","","","","","","","","","NA"
"-79.40","43.63","TORONTO ISLAND A","6158665","1990-03-26 03:00","1990","03","26","03:00","","","","","","","","26","","33","","","","","","","","","","NA"
"-79.40","43.63","TORONTO ISLAND A","6158665","1990-03-26 04:00","1990","03","26","04:00","","","","","","","","26","","31","","","","","","","","","","NA"
"-79.40","43.63","TORONTO ISLAND A","6158665","1990-03-26 05:00","1990","03","26","05:00","","","","","","","","27","","22","","","","","","","","","","NA"
"-79.40","43.63","TORONTO ISLAND A","6158665","1990-03-26 06:00","1990","03","26","06:00","","","","","","","","26","","19","","","","","","","","","","NA"
"-79.40","43.63","TORONTO ISLAND A","6158665","1990-03-26 07:00","1990","03","26","07:00","","-1.2","","-6.0","","70","","32","","37","","12.9","","101.26","","","","-9","","Cloudy"
"-79.40","43.63","TORONTO ISLAND A","6158665","1990-03-26 08:00","1990","03","26","08:00","","-1.9","","-8.2","","62","","31","","37","","25.0","","101.42","","","","-10","","Mostly Cloudy"
"-79.40","43.63","TORONTO ISLAND A","6158665","1990-03-26 09:00","1990","03","26","09:00","","-2.7","","-10.1","","57","","33","","37","","25.0","","101.59","","","","-11","","Mostly Cloudy"
"-79.40","43.63","TORONTO ISLAND A","6158665","1990-03-26 10:00","1990","03","26","10:00","","-2.9","","-11.8","","50","","34","","31","","25.0","","101.79","","","","-10","","Mainly Clear"
"-79.40","43.63","TORONTO ISLAND A","6158665","1990-03-26 11:00","1990","03","26","11:00","","-2.6","","-12.8","","45","","34","","33","","25.0","","101.89","","","","-10","","Mainly Clear"
"-79.40","43.63","TORONTO ISLAND A","6158665","1990-03-26 12:00","1990","03","26","12:00","","-2.8","","-12.4","","47","","31","","33","","25.0","","102.00","","","","-10","","Mainly Clear"
"-79.40","43.63","TORONTO ISLAND A","6158665","1990-03-26 13:00","1990","03","26","13:00","","-2.9","","-13.5","","44","","33","","28","","25.0","","102.03","","","","-10","","Mainly Clear"
"-79.40","43.63","TORONTO ISLAND A","6158665","1990-03-26 14:00","1990","03","26","14:00","","-2.6","","-13.0","","45","","31","","31","","25.0","","102.03","","","","-10","","Mainly Clear"
"-79.40","43.63","TORONTO ISLAND A","6158665","1990-03-26 15:00","1990","03","26","15:00","","-2.5","","-12.6","","46","","36","","20","","25.0","","102.03","","","","-8","","Mainly Clear"
"-79.40","43.63","TORONTO ISLAND A","6158665","1990-03-26 16:00","1990","03","26","16:00","","-2.5","","-13.7","","42","","32","","17","","25.0","","102.00","","","","-8","","Mainly Clear"
"-79.40","43.63","TORONTO ISLAND A","6158665","1990-03-26 17:00","1990","03","26","17:00","","-2.0","","-13.1","","42","","33","","11","","25.0","","102.00","","","","-6","","Mainly Clear"
"-79.40","43.63","TORONTO ISLAND A","6158665","1990-03-26 18:00","1990","03","26","18:00","","-2.8","","-12.3","","48","","34","","15","","25.0","","102.00","","","","-8","","Mostly Cloudy"
"-79.40","43.63","TORONTO ISLAND A","6158665","1990-03-26 19:00","1990","03","26","19:00","","-3.8","","-11.7","","54","","36","","19","","25.0","","102.06","","","","-10","","Mainly Clear"
"-79.40","43.63","TORONTO ISLAND A","6158665","1990-03-26 20:00","1990","03","26","20:00","","-4.4","","-13.7","","48","","31","","19","","25.0","","102.10","","","","-11","","Clear"
"-79.40","43.63","TORONTO ISLAND A","6158665","1990-03-26 21:00","1990","03","26","21:00","","-4.7","","-13.6","","50","","31","","13","","25.0","","102.16","","","","-10","","Clear"
"-79.40","43.63","TORONTO ISLAND A","6158665","1990-03-26 22:00","1990","03","26","22:00","","-4.6","","-12.3","","55","","30","","17","","25.0","","102.16","","","","-10","","Clear"
"-79.40","43.63","TORONTO ISLAND A","6158665","1990-03-26 23:00","1990","03","26","23:00","","-4.8","","-13.4","","51","","31","","17","","25.0","","102.16","","","","-11","","Mainly Clear"
"-79.40","43.63","TORONTO ISLAND A","6158665","1990-03-27 00:00","1990","03","27","00:00","","","","","","","","30","","19","","","","","","","","","","NA"
"-79.40","43.63","TORONTO ISLAND A","6158665","1990-03-27 01:00","1990","03","27","01:00","","","","","","","","28","","11","","","","","","","","","","NA"
"-79.40","43.63","TORONTO ISLAND A","6158665","1990-03-27 02:00","1990","03","27","02:00","","","","","","","","28","","15","","","","","","","","","","NA"
"-79.40","43.63","TORONTO ISLAND A","6158665","1990-03-27 03:00","1990","03","27","03:00","","","","","","","","29","","19","","","","","","","","","","NA"
"-79.40","43.63","TORONTO ISLAND A","6158665","1990-03-27 04:00","1990","03","27","04:00","","","","","","","","28","","20","","","","","","","","","","NA"
"-79.40","43.63","TORONTO ISLAND A","6158665","1990-03-27 05:00","1990","03","27","05:00","","","","","","","","29","","15","","","","","","","","","","NA"
"-79.40","43.63","TORONTO ISLAND A","6158665","1990-03-27 06:00","1990","03","27","06:00","","","","","","","","30","","22","","","","","","","","","","NA"
"-79.40","43.63","TORONTO ISLAND A","6158665","1990-03-27 07:00","1990","03","27","07:00","","-5.0","","-12.5","","55","","32","","19","","25.0","","102.23","","","","-11","","Mostly Cloudy"
"-79.40","43.63","TORONTO ISLAND A","6158665","1990-03-27 08:00","1990","03","27","08:00","","-4.0","","-12.3","","52","","30","","19","","25.0","","102.30","","","","-10","","Mainly Clear"
"-79.40","43.63","TORONTO ISLAND A","6158665","1990-03-27 09:00","1990","03","27","09:00","","-3.4","","-11.9","","52","","28","","19","","25.0","","102.30","","","","-9","","Mostly Cloudy"
"-79.40","43.63","TORONTO ISLAND A","6158665","1990-03-27 10:00","1990","03","27","10:00","","-2.9","","-12.3","","48","","30","","19","","25.0","","102.33","","","","-9","","Mostly Cloudy"
"-79.40","43.63","TORONTO ISLAND A","6158665","1990-03-27 11:00","1990","03","27","11:00","","-2.1","","-11.0","","50","","30","","22","","25.0","","102.33","","","","-8","","Cloudy"
"-79.40","43.63","TORONTO ISLAND A","6158665","1990-03-27 12:00","1990","03","27","12:00","","-1.4","","-10.5","","50","","26","","20","","25.0","","102.30","","","","-7","","Mostly Cloudy"
"-79.40","43.63","TORONTO ISLAND A","6158665","1990-03-27 13:00","1990","03","27","13:00","","-0.8","","-11.5","","44","","28","","22","","25.0","","102.23","","","","-7","","Mostly Cloudy"
"-79.40","43.63","TORONTO ISLAND A","6158665","1990-03-27 14:00","1990","03","27","14:00","","0.4","","-10.5","","44","","26","","20","","25.0","","102.16","","","","","","Mostly Cloudy"
"-79.40","43.63","TORONTO ISLAND A","6158665","1990-03-27 15:00","1990","03","27","15:00","","0.5","","-9.8","","46","","31","","22","","25.0","","102.10","","","","","","Mostly Cloudy"
"-79.40","43.63","TORONTO ISLAND A","6158665","1990-03-27 16:00","1990","03","27","16:00","","0.6","","-9.2","","48","","28","","17","","25.0","","102.06","","","","","","Mostly Cloudy"
"-79.40","43.63","TORONTO ISLAND A","6158665","1990-03-27 17:00","1990","03","27","17:00","","1.7","","-9.3","","44","","27","","13","","25.0","","102.00","","","","","","Mostly Cloudy"
"-79.40","43.63","TORONTO ISLAND A","6158665","1990-03-27 18:00","1990","03","27","18:00","","1.4","","-9.5","","44","","28","","22","","25.0","","102.00","","","","","","Mostly Cloudy"
"-79.40","43.63","TORONTO ISLAND A","6158665","1990-03-27 19:00","1990","03","27","19:00","","1.1","","-9.8","","44","","28","","24","","25.0","","101.96","","","","","","Mainly Clear"
"-79.40","43.63","TORONTO ISLAND A","6158665","1990-03-27 20:00","1990","03","27","20:00","","0.8","","-9.0","","48","","27","","13","","25.0","","101.96","","","","","","Clear"
"-79.40","43.63","TORONTO ISLAND A","6158665","1990-03-27 21:00","1990","03","27","21:00","","0.2","","-8.1","","53","","25","","15","","25.0","","101.96","","","","","","Clear"
"-79.40","43.63","TORONTO ISLAND A","6158665","1990-03-27 22:00","1990","03","27","22:00","","0.6","","-4.2","","70","","25","","30","","25.0","","101.93","","","","","","Clear"
"-79.40","43.63","TORONTO ISLAND A","6158665","1990-03-27 23:00","1990","03","27","23:00","","0.1","","-4.4","","72","","25","","26","","25.0","","101.89","","","","","","Clear"
"-79.40","43.63","TORONTO ISLAND A","6158665","1990-03-28 00:00","1990","03","28","00:00","","","","","","","","27","","19","","","","","","","","","","NA"
"-79.40","43.63","TORONTO ISLAND A","6158665","1990-03-28 01:00","1990","03","28","01:00","","","","","","","","27","","17","","","","","","","","","","NA"
"-79.40","43.63","TORONTO ISLAND A","6158665","1990-03-28 02:00","1990","03","28","02:00","","","","","","","","27","","19","","","","","","","","","","NA"
"-79.40","43.63","TORONTO ISLAND A","6158665","1990-03-28 03:00","1990","03","28","03:00","","","","","","","","26","","28","","","","","","","","","","NA"
"-79.40","43.63","TORONTO ISLAND A","6158665","1990-03-28 04:00","1990","03","28","04:00","","","","","","","","27","","19","","","","","","","","","","NA"
"-79.40","43.63","TORONTO ISLAND A","6158665","1990-03-28 05:00","1990","03","28","05:00","","","","","","","","27","","13","","","","","","","","","","NA"
"-79.40","43.63","TORONTO ISLAND A","6158665","1990-03-28 06:00","1990","03","28","06:00","","","","","","","","28","","11","","","","","","","","","","NA"
"-79.40","43.63","TORONTO ISLAND A","6158665","1990-03-28 07:00","1990","03","28","07:00","","-0.8","","-5.9","","68","","30","","9","","12.9","","102.06","","","","-4","","Cloudy"
"-79.40","43.63","TORONTO ISLAND A","6158665","1990-03-28 08:00","1990","03","28","08:00","","0.1","","-6.7","","60","","33","","7","","12.9","","102.06","","","","","","Cloudy"
"-79.40","43.63","TORONTO ISLAND A","6158665","1990-03-28 09:00","1990","03","28","09:00","","1.5","","-7.6","","51","","24","","6","","12.9","","102.10","","","","","","Mostly Cloudy"
"-79.40","43.63","TORONTO ISLAND A","6158665","1990-03-28 10:00","1990","03","28","10:00","","1.8","","-5.4","","59","","22","","11","","12.9","","102.13","","","","","","Mainly Clear"
"-79.40","43.63","TORONTO ISLAND A","6158665","1990-03-28 11:00","1990","03","28","11:00","","2.3","","-4.1","","63","","20","","19","","12.9","","102.10","","","","","","Mainly Clear"
"-79.40","43.63","TORONTO ISLAND A","6158665","1990-03-28 12:00","1990","03","28","12:00","","3.1","","-3.5","","62","","20","","22","","12.9","","102.10","","","","","","Mostly Cloudy"
"-79.40","43.63","TORONTO ISLAND A","6158665","1990-03-28 13:00","1990","03","28","13:00","","3.5","","-3.7","","59","","19","","20","","12.9","","102.06","","","","","","Mainly Clear"
"-79.40","43.63","TORONTO ISLAND A","6158665","1990-03-28 14:00","1990","03","28","14:00","","4.0","","-6.3","","47","","18","","17","","25.0","","102.00","","","","","","Mostly Cloudy"
"-79.40","43.63","TORONTO ISLAND A","6158665","1990-03-28 15:00","1990","03","28","15:00","","4.3","","-6.2","","46","","18","","15","","25.0","","101.96","","","","","","Mostly Cloudy"
"-79.40","43.63","TORONTO ISLAND A","6158665","1990-03-28 16:00","1990","03","28","16:00","","4.4","","-5.1","","50","","18","","15","","25.0","","101.96","","","","","","Mostly Cloudy"
"-79.40","43.63","TORONTO ISLAND A","6158665","1990-03-28 17:00","1990","03","28","17:00","","3.5","","-3.4","","61","","22","","4","","25.0","","101.96","","","","","","Mainly Clear"
"-79.40","43.63","TORONTO ISLAND A","6158665","1990-03-28 18:00","1990","03","28","18:00","","4.0","","-4.5","","54","","","","0","","25.0","","101.96","","","","","","Mainly Clear"
"-79.40","43.63","TORONTO ISLAND A","6158665","1990-03-28 19:00","1990","03","28","19:00","","5.6","","-5.6","","44","","1","","15","","25.0","","102.00","","","","","","Mainly Clear"
"-79.40","43.63","TORONTO ISLAND A","6158665","1990-03-28 20:00","1990","03","28","20:00","","4.6","","-6.0","","46","","5","","15","","25.0","","102.10","","","","","","Mainly Clear"
"-79.40","43.63","TORONTO ISLAND A","6158665","1990-03-28 21:00","1990","03","28","21:00","","3.7","","-7.3","","44","","2","","11","","25.0","","102.20","","","","","","Mainly Clear"
"-79.40","43.63","TORONTO ISLAND A","6158665","1990-03-28 22:00","1990","03","28","22:00","","1.5","","-5.9","","58","","10","","9","","25.0","","102.20","","","","","","Mainly Clear"
"-79.40","43.63","TORONTO ISLAND A","6158665","1990-03-28 23:00","1990","03","28","23:00","","1.7","","-6.0","","56","","8","","11","","25.0","","102.20","","","","","","Clear"
"-79.40","43.63","TORONTO ISLAND A","6158665","1990-03-29 00:00","1990","03","29","00:00","","","","","","","","8","","9","","","","","","","","","","NA"
"-79.40","43.63","TORONTO ISLAND A","6158665","1990-03-29 01:00","1990","03","29","01:00","","","","","","","","9","","4","","","","","","","","","","NA"
"-79.40","43.63","TORONTO ISLAND A","6158665","1990-03-29 02:00","1990","03","29","02:00","","","","","","","","10","","11","","","","","","","","","","NA"
"-79.40","43.63","TORONTO ISLAND A","6158665","1990-03-29 03:00","1990","03","29","03:00","","","","","","","","6","","33","","","","","","","","","","NA"
"-79.40","43.63","TORONTO ISLAND A","6158665","1990-03-29 04:00","1990","03","29","04:00","","","","","","","","9","","37","","","","","","","","","","NA"
"-79.40","43.63","TORONTO ISLAND A","6158665","1990-03-29 05:00","1990","03","29","05:00","","","","","","","","9","","33","","","","","","","","","","NA"
"-79.40","43.63","TORONTO ISLAND A","6158665","1990-03-29 06:00","1990","03","29","06:00","","","","","","","","9","","37","","","","","","","","","","NA"
"-79.40","43.63","TORONTO ISLAND A","6158665","1990-03-29 07:00","1990","03","29","07:00","","0.7","","-5.6","","62","","9","","28","","25.0","","102.37","","","","","","Mainly Clear"
"-79.40","43.63","TORONTO ISLAND A","6158665","1990-03-29 08:00","1990","03","29","08:00","","1.2","","-5.6","","60","","9","","37","","25.0","","102.40","","","","","","Mostly Cloudy"
"-79.40","43.63","TORONTO ISLAND A","6158665","1990-03-29 09:00","1990","03","29","09:00","","0.9","","-4.6","","67","","8","","37","","25.0","","102.40","","","","","","Cloudy"
"-79.40","43.63","TORONTO ISLAND A","6158665","1990-03-29 10:00","1990","03","29","10:00","","1.5","","-5.2","","61","","8","","37","","25.0","","102.43","","","","","","Cloudy"
"-79.40","43.63","TORONTO ISLAND A","6158665","1990-03-29 11:00","1990","03","29","11:00","","2.0","","-4.8","","61","","8","","37","","25.0","","102.40","","","","","","Cloudy"
"-79.40","43.63","TORONTO ISLAND A","6158665","1990-03-29 12:00","1990","03","29","12:00","","1.8","","-4.5","","63","","7","","31","","25.0","","102.37","","","","","","Cloudy"
"-79.40","43.63","TORONTO ISLAND A","6158665","1990-03-29 13:00","1990","03","29","13:00","","2.5","","-4.7","","59","","6","","33","","25.0","","102.30","","","","","","Cloudy"
"-79.40","43.63","TORONTO ISLAND A","6158665","1990-03-29 14:00","1990","03","29","14:00","","2.6","","-5.4","","55","","8","","37","","25.0","","102.23","","","","","","Cloudy"
"-79.40","43.63","TORONTO ISLAND A","6158665","1990-03-29 15:00","1990","03","29","15:00","","2.6","","-5.4","","55","","8","","28","","25.0","","102.16","","","","","","Cloudy"
"-79.40","43.63","TORONTO ISLAND A","6158665","1990-03-29 16:00","1990","03","29","16:00","","2.8","","-5.2","","56","","7","","28","","25.0","","102.10","","","","","","Cloudy"
"-79.40","43.63","TORONTO ISLAND A","6158665","1990-03-29 17:00","1990","03","29","17:00","","3.0","","-4.3","","59","","7","","28","","25.0","","102.06","","","","","","Cloudy"
"-79.40","43.63","TORONTO ISLAND A","6158665","1990-03-29 18:00","1990","03","29","18:00","","3.1","","-5.0","","55","","8","","28","","25.0","","102.03","","","","","","Cloudy"
"-79.40","43.63","TORONTO ISLAND A","6158665","1990-03-29 19:00","1990","03","29","19:00","","3.3","","-5.0","","54","","8","","26","","25.0","","101.96","","","","","","Cloudy"
"-79.40","43.63","TORONTO ISLAND A","6158665","1990-03-29 20:00","1990","03","29","20:00","","3.2","","-3.8","","60","","9","","33","","25.0","","102.00","","","","","","Cloudy"
"-79.40","43.63","TORONTO ISLAND A","6158665","1990-03-29 21:00","1990","03","29","21:00","","2.8","","-3.3","","64","","9","","31","","25.0","","101.96","","","","","","Cloudy"
"-79.40","43.63","TORONTO ISLAND A","6158665","1990-03-29 22:00","1990","03","29","22:00","","2.6","","-2.6","","68","","9","","33","","24.1","","101.86","","","","","","Rain,Snow"
"-79.40","43.63","TORONTO ISLAND A","6158665","1990-03-29 23:00","1990","03","29","23:00","","2.8","","-3.3","","64","","9","","31","","25.0","","101.83","","","","","","Cloudy"
"-79.40","43.63","TORONTO ISLAND A","6158665","1990-03-30 00:00","1990","03","30","00:00","","","","","","","","9","","31","","","","","","","","","","NA"
"-79.40","43.63","TORONTO ISLAND A","6158665","1990-03-30 01:00","1990","03","30","01:00","","","","","","","","8","","28","","","","","","","","","","NA"
"-79.40","43.63","TORONTO ISLAND A","6158665","1990-03-30 02:00","1990","03","30","02:00","","","","","","","","8","","26","","","","","","","","","","NA"
"-79.40","43.63","TORONTO ISLAND A","6158665","1990-03-30 03:00","1990","03","30","03:00","","","","","","","","8","","30","","","","","","","","","","NA"
"-79.40","43.63","TORONTO ISLAND A","6158665","1990-03-30 04:00","1990","03","30","04:00","","","","","","","","8","","30","","","","","","","","","","NA"
"-79.40","43.63","TORONTO ISLAND A","6158665","1990-03-30 05:00","1990","03","30","05:00","","","","","","","","8","","26","","","","","","","","","","NA"
"-79.40","43.63","TORONTO ISLAND A","6158665","1990-03-30 06:00","1990","03","30","06:00","","","","","","","","8","","30","","","","","","","","","","NA"
"-79.40","43.63","TORONTO ISLAND A","6158665","1990-03-30 07:00","1990","03","30","07:00","","2.6","","1.8","","94","","9","","28","","4.8","","101.32","","","","","","Rain,Fog"
"-79.40","43.63","TORONTO ISLAND A","6158665","1990-03-30 08:00","1990","03","30","08:00","","2.6","","2.0","","96","","9","","26","","3.6","","101.32","","","","","","Rain,Fog"
"-79.40","43.63","TORONTO ISLAND A","6158665","1990-03-30 09:00","1990","03","30","09:00","","2.7","","2.2","","96","","8","","26","","3.2","","101.26","","","","","","Rain,Fog"
"-79.40","43.63","TORONTO ISLAND A","6158665","1990-03-30 10:00","1990","03","30","10:00","","3.0","","2.3","","95","","8","","24","","4.8","","101.22","","","","","","Rain,Fog"
"-79.40","43.63","TORONTO ISLAND A","6158665","1990-03-30 11:00","1990","03","30","11:00","","3.0","","2.5","","97","","9","","24","","2.4","","101.22","","","","","","Drizzle,Fog"
"-79.40","43.63","TORONTO ISLAND A","6158665","1990-03-30 12:00","1990","03","30","12:00","","3.0","","2.7","","98","","9","","22","","1.2","","101.12","","","","","","Drizzle,Fog"
"-79.40","43.63","TORONTO ISLAND A","6158665","1990-03-30 13:00","1990","03","30","13:00","","3.0","","2.9","","99","","9","","17","","1.2","","101.05","","","","","","Drizzle,Fog"
"-79.40","43.63","TORONTO ISLAND A","6158665","1990-03-30 14:00","1990","03","30","14:00","","3.3","","3.2","","100","","9","","17","","0.8","","100.95","","","","","","Drizzle,Fog"
"-79.40","43.63","TORONTO ISLAND A","6158665","1990-03-30 15:00","1990","03","30","15:00","","3.6","","3.4","","98","","8","","17","","1.0","","100.92","","","","","","Drizzle,Fog"
"-79.40","43.63","TORONTO ISLAND A","6158665","1990-03-30 16:00","1990","03","30","16:00","","3.7","","3.5","","98","","9","","15","","0.8","","100.85","","","","","","Moderate Drizzle,Fog"
"-79.40","43.63","TORONTO ISLAND A","6158665","1990-03-30 17:00","1990","03","30","17:00","","4.0","","3.9","","99","","10","","13","","0.6","","100.85","","","","","","Rain,Drizzle,Fog"
"-79.40","43.63","TORONTO ISLAND A","6158665","1990-03-30 18:00","1990","03","30","18:00","","3.8","","3.6","","99","","10","","15","","1.2","","100.85","","","","","","Drizzle,Fog"
"-79.40","43.63","TORONTO ISLAND A","6158665","1990-03-30 19:00","1990","03","30","19:00","","3.7","","3.5","","98","","9","","9","","3.2","","100.85","","","","","","Drizzle,Fog"
"-79.40","43.63","TORONTO ISLAND A","6158665","1990-03-30 20:00","1990","03","30","20:00","","3.7","","3.6","","99","","10","","11","","3.2","","100.85","","","","","","Fog"
"-79.40","43.63","TORONTO ISLAND A","6158665","1990-03-30 21:00","1990","03","30","21:00","","3.7","","3.6","","99","","10","","11","","0.4","","100.92","","","","","","Fog"
"-79.40","43.63","TORONTO ISLAND A","6158665","1990-03-30 22:00","1990","03","30","22:00","","4.4","","4.3","","99","","8","","7","","3.2","","100.85","","","","","","Fog"
"-79.40","43.63","TORONTO ISLAND A","6158665","1990-03-30 23:00","1990","03","30","23:00","","3.9","","3.9","","100","","","","0","","0.4","","100.85","","","","","","Fog"
"-79.40","43.63","TORONTO ISLAND A","6158665","1990-03-31 00:00","1990","03","31","00:00","","","","","","","","","","0","","","","","","","","","","NA"
"-79.40","43.63","TORONTO ISLAND A","6158665","1990-03-31 01:00","1990","03","31","01:00","","","","","","","","","","0","","","","","","","","","","NA"
"-79.40","43.63","TORONTO ISLAND A","6158665","1990-03-31 02:00","1990","03","31","02:00","","","","","","","","","","0","","","","","","","","","","NA"
"-79.40","43.63","TORONTO ISLAND A","6158665","1990-03-31 03:00","1990","03","31","03:00","","","","","","","","2","","4","","","","","","","","","","NA"
"-79.40","43.63","TORONTO ISLAND A","6158665","1990-03-31 04:00","1990","03","31","04:00","","","","","","","","2","","11","","","","","","","","","","NA"
"-79.40","43.63","TORONTO ISLAND A","6158665","1990-03-31 05:00","1990","03","31","05:00","","","","","","","","1","","13","","","","","","","","","","NA"
"-79.40","43.63","TORONTO ISLAND A","6158665","1990-03-31 06:00","1990","03","31","06:00","","","","","","","","1","","11","","","","","","","","","","NA"
"-79.40","43.63","TORONTO ISLAND A","6158665","1990-03-31 07:00","1990","03","31","07:00","","3.4","","1.8","","89","","1","","9","","9.7","","100.85","","","","","","Fog"
"-79.40","43.63","TORONTO ISLAND A","6158665","1990-03-31 08:00","1990","03","31","08:00","","3.7","","1.9","","88","","1","","11","","9.7","","100.85","","","","","","Fog"
"-79.40","43.63","TORONTO ISLAND A","6158665","1990-03-31 09:00","1990","03","31","09:00","","4.3","","2.5","","88","","4","","9","","9.7","","100.85","","","","","","Fog"
"-79.40","43.63","TORONTO ISLAND A","6158665","1990-03-31 10:00","1990","03","31","10:00","","4.8","","3.0","","88","","8","","4","","8.0","","100.85","","","","","","Fog"
"-79.40","43.63","TORONTO ISLAND A","6158665","1990-03-31 11:00","1990","03","31","11:00","","4.6","","3.3","","91","","9","","15","","8.0","","100.82","","","","","","Fog"
"-79.40","43.63","TORONTO ISLAND A","6158665","1990-03-31 12:00","1990","03","31","12:00","","5.1","","3.3","","88","","8","","20","","9.7","","100.82","","","","","","Fog"
"-79.40","43.63","TORONTO ISLAND A","6158665","1990-03-31 13:00","1990","03","31","13:00","","4.9","","3.3","","89","","9","","20","","8.0","","100.75","","","","","","Fog"
"-79.40","43.63","TORONTO ISLAND A","6158665","1990-03-31 14:00","1990","03","31","14:00","","4.6","","2.9","","89","","9","","19","","8.0","","100.72","","","","","","Fog"
"-79.40","43.63","TORONTO ISLAND A","6158665","1990-03-31 15:00","1990","03","31","15:00","","4.9","","3.0","","88","","9","","22","","6.4","","100.72","","","","","","Fog"
"-79.40","43.63","TORONTO ISLAND A","6158665","1990-03-31 16:00","1990","03","31","16:00","","5.0","","3.1","","88","","9","","19","","6.4","","100.68","","","","","","Fog"
"-79.40","43.63","TORONTO ISLAND A","6158665","1990-03-31 17:00","1990","03","31","17:00","","5.3","","3.3","","87","","8","","13","","9.7","","100.68","","","","","","Fog"
"-79.40","43.63","TORONTO ISLAND A","6158665","1990-03-31 18:00","1990","03","31","18:00","","5.1","","3.2","","88","","9","","13","","11.3","","100.65","","","","","","Cloudy"
"-79.40","43.63","TORONTO ISLAND A","6158665","1990-03-31 19:00","1990","03","31","19:00","","5.1","","3.2","","88","","9","","15","","12.9","","100.62","","","","","","Cloudy"
"-79.40","43.63","TORONTO ISLAND A","6158665","1990-03-31 20:00","1990","03","31","20:00","","4.8","","3.1","","89","","7","","9","","24.1","","100.68","","","","","","Cloudy"
"-79.40","43.63","TORONTO ISLAND A","6158665","1990-03-31 21:00","1990","03","31","21:00","","5.2","","3.4","","88","","8","","7","","24.1","","100.68","","","","","","Cloudy"
"-79.40","43.63","TORONTO ISLAND A","6158665","1990-03-31 22:00","1990","03","31","22:00","","5.2","","3.6","","89","","","","0","","24.1","","100.65","","","","","","Cloudy"
"-79.40","43.63","TORONTO ISLAND A","6158665","1990-03-31 23:00","1990","03","31","23:00","","5.3","","3.8","","90","","","","0","","19.3","","100.62","","","","","","Cloudy"
