"Longitude (x)","Latitude (y)","Station Name","Climate ID","Date/Time (LST)","Year","Month","Day","Time (LST)","Flag","Temp (°C)","Temp Flag","Dew Point Temp (°C)","Dew Point Temp Flag","Rel Hum (%)","Rel Hum Flag","Wind Dir (10s deg)","Wind Dir Flag","Wind Spd (km/h)","Wind Spd Flag","Visibility (km)","Visibility Flag","Stn Press (kPa)","Stn Press Flag","Hmdx","Hmdx Flag","Wind Chill","Wind Chill Flag","Weather"
"-79.40","43.63","TORONTO ISLAND A","6158665","1996-03-01 00:00","1996","03","01","00:00","","-5.2","","-10.7","","65","","24","","37","","15.0","","100.61","","","","-14","",""
"-79.40","43.63","TORONTO ISLAND A","6158665","1996-03-01 01:00","1996","03","01","01:00","","-5.0","","-10.6","","65","","24","","33","","15.0","","100.61","","","","-13","",""
"-79.40","43.63","TORONTO ISLAND A","6158665","1996-03-01 02:00","1996","03","01","02:00","","-5.4","","-11.4","","63","","25","","37","","15.0","","100.57","","","","-14","",""
"-79.40","43.63","TORONTO ISLAND A","6158665","1996-03-01 03:00","1996","03","01","03:00","","-5.9","","-12.2","","61","","25","","32","","15.0","","100.51","","","","-14","",""
"-79.40","43.63","TORONTO ISLAND A","6158665","1996-03-01 04:00","1996","03","01","04:00","","-6.6","","-12.4","","63","","25","","26","","15.0","","100.47","","","","-15","",""
"-79.40","43.63","TORONTO ISLAND A","6158665","1996-03-01 05:00","1996","03","01","05:00","","-6.2","","-12.1","","63","","24","","35","","15.0","","100.47","","","","-15","",""
"-79.40","43.63","TORONTO ISLAND A","6158665","1996-03-01 06:00","1996","03","01","06:00","","-6.1","","-11.9","","63","","23","","44","","15.0","","100.47","","","","-16","",""
"-79.40","43.63","TORONTO ISLAND A","6158665","1996-03-01 07:00","1996","03","01","07:00","","-5.9","","-11.1","","67","","24","","43","","15.0","","100.41","","","","-16","",""
"-79.40","43.63","TORONTO ISLAND A","6158665","1996-03-01 08:00","1996","03","01","08:00","","-5.5","","-11.1","","65","","24","","35","","15.0","","100.41","","","","-14","",""
"-79.40","43.63","TORONTO ISLAND A","6158665","1996-03-01 09:00","1996","03","01","09:00","","-4.6","","-11.0","","61","","24","","39","","15.0","","100.41","","","","-13","",""
"-79.40","43.63","TORONTO ISLAND A","6158665","1996-03-01 10:00","1996","03","01","10:00","","-4.0","","-10.4","","61","","23","","32","","15.0","","100.37","","","","-12","",""
"-79.40","43.63","TORONTO ISLAND A","6158665","1996-03-01 11:00","1996","03","01","11:00","","-3.9","","-10.8","","59","","24","","43","","15.0","","100.30","","","","-13","",""
"-79.40","43.63","TORONTO ISLAND A","6158665","1996-03-01 12:00","1996","03","01","12:00","","-2.9","","-11.2","","53","","24","","43","","15.0","","100.27","","","","-12","",""
"-79.40","43.63","TORONTO ISLAND A","6158665","1996-03-01 13:00","1996","03","01","13:00","","-2.6","","-11.5","","50","","24","","33","","15.0","","100.24","","","","-10","",""
"-79.40","43.63","TORONTO ISLAND A","6158665","1996-03-01 14:00","1996","03","01","14:00","","-2.4","","-10.6","","53","","21","","35","","15.0","","100.20","","","","-10","",""
"-79.40","43.63","TORONTO ISLAND A","6158665","1996-03-01 15:00","1996","03","01","15:00","","-2.1","","-8.1","","63","","23","","35","","15.0","","100.20","","","","-10","","Snow"
"-79.40","43.63","TORONTO ISLAND A","6158665","1996-03-01 16:00","1996","03","01","16:00","","-1.8","","-9.0","","58","","22","","37","","15.0","","100.17","","","","-10","",""
"-79.40","43.63","TORONTO ISLAND A","6158665","1996-03-01 17:00","1996","03","01","17:00","","-2.1","","-8.0","","64","","22","","41","","15.0","","100.17","","","","-10","",""
"-79.40","43.63","TORONTO ISLAND A","6158665","1996-03-01 18:00","1996","03","01","18:00","","-2.1","","-7.7","","65","","23","","30","","15.0","","100.20","","","","-9","",""
"-79.40","43.63","TORONTO ISLAND A","6158665","1996-03-01 19:00","1996","03","01","19:00","","-2.4","","-8.8","","61","","24","","28","","15.0","","100.20","","","","-9","",""
"-79.40","43.63","TORONTO ISLAND A","6158665","1996-03-01 20:00","1996","03","01","20:00","","-2.0","","-8.2","","62","","23","","24","","15.0","","100.17","","","","-8","",""
"-79.40","43.63","TORONTO ISLAND A","6158665","1996-03-01 21:00","1996","03","01","21:00","","-1.5","","-8.4","","59","","21","","26","","15.0","","100.17","","","","-8","",""
"-79.40","43.63","TORONTO ISLAND A","6158665","1996-03-01 22:00","1996","03","01","22:00","","-1.5","","-7.2","","65","","19","","20","","15.0","","100.14","","","","-7","",""
"-79.40","43.63","TORONTO ISLAND A","6158665","1996-03-01 23:00","1996","03","01","23:00","","-1.8","","-6.3","","71","","18","","19","","15.0","","100.07","","","","-7","",""
"-79.40","43.63","TORONTO ISLAND A","6158665","1996-03-02 00:00","1996","03","02","00:00","","-2.1","","-6.7","","71","","18","","17","","15.0","","100.00","","","","-7","",""
"-79.40","43.63","TORONTO ISLAND A","6158665","1996-03-02 01:00","1996","03","02","01:00","","-2.1","","-7.0","","69","","17","","9","","15.0","","99.90","","","","-6","",""
"-79.40","43.63","TORONTO ISLAND A","6158665","1996-03-02 02:00","1996","03","02","02:00","","-1.3","","-6.1","","70","","17","","17","","15.0","","99.83","","","","-6","",""
"-79.40","43.63","TORONTO ISLAND A","6158665","1996-03-02 03:00","1996","03","02","03:00","","-1.1","","-6.7","","66","","17","","24","","15.0","","99.70","","","","-7","",""
"-79.40","43.63","TORONTO ISLAND A","6158665","1996-03-02 04:00","1996","03","02","04:00","","0.2","","-6.3","","62","","17","","32","","15.0","","99.56","","","","","",""
"-79.40","43.63","TORONTO ISLAND A","6158665","1996-03-02 05:00","1996","03","02","05:00","","0.3","","-5.9","","63","","17","","35","","15.0","","99.53","","","","","",""
"-79.40","43.63","TORONTO ISLAND A","6158665","1996-03-02 06:00","1996","03","02","06:00","","0.2","","-6.5","","61","","18","","37","","15.0","","99.46","","","","","",""
"-79.40","43.63","TORONTO ISLAND A","6158665","1996-03-02 07:00","1996","03","02","07:00","","0.5","","-6.1","","61","","18","","39","","15.0","","99.40","","","","","",""
"-79.40","43.63","TORONTO ISLAND A","6158665","1996-03-02 08:00","1996","03","02","08:00","","0.9","","-6.4","","58","","18","","35","","15.0","","99.33","","","","","",""
"-79.40","43.63","TORONTO ISLAND A","6158665","1996-03-02 09:00","1996","03","02","09:00","","0.8","","-4.5","","68","","21","","41","","15.0","","99.36","","","","","","Snow"
"-79.40","43.63","TORONTO ISLAND A","6158665","1996-03-02 10:00","1996","03","02","10:00","","0.1","","-2.2","","84","","20","","39","","8.0","","99.33","","","","","","Snow"
"-79.40","43.63","TORONTO ISLAND A","6158665","1996-03-02 11:00","1996","03","02","11:00","","1.1","","-1.6","","82","","20","","39","","15.0","","99.30","","","","","","Snow"
"-79.40","43.63","TORONTO ISLAND A","6158665","1996-03-02 12:00","1996","03","02","12:00","","1.0","","-2.8","","76","","22","","44","","6.4","","99.26","","","","","","Snow"
"-79.40","43.63","TORONTO ISLAND A","6158665","1996-03-02 13:00","1996","03","02","13:00","","2.1","","-3.4","","67","","25","","32","","15.0","","99.23","","","","","",""
"-79.40","43.63","TORONTO ISLAND A","6158665","1996-03-02 14:00","1996","03","02","14:00","","1.6","","-3.4","","69","","24","","24","","15.0","","99.23","","","","","",""
"-79.40","43.63","TORONTO ISLAND A","6158665","1996-03-02 15:00","1996","03","02","15:00","","2.4","","-4.4","","61","","22","","41","","15.0","","99.23","","","","","","Snow"
"-79.40","43.63","TORONTO ISLAND A","6158665","1996-03-02 16:00","1996","03","02","16:00","","2.1","","-5.0","","59","","21","","33","","15.0","","99.20","","","","","",""
"-79.40","43.63","TORONTO ISLAND A","6158665","1996-03-02 17:00","1996","03","02","17:00","","1.6","","-4.7","","63","","21","","43","","15.0","","99.23","","","","","",""
"-79.40","43.63","TORONTO ISLAND A","6158665","1996-03-02 18:00","1996","03","02","18:00","","0.2","","-4.9","","69","","24","","35","","15.0","","99.30","","","","","",""
"-79.40","43.63","TORONTO ISLAND A","6158665","1996-03-02 19:00","1996","03","02","19:00","","-1.4","","-3.4","","86","","26","","20","","3.4","","99.36","","","","-7","","Snow"
"-79.40","43.63","TORONTO ISLAND A","6158665","1996-03-02 20:00","1996","03","02","20:00","","-1.2","","-5.3","","74","","30","","17","","15.0","","99.33","","","","-6","",""
"-79.40","43.63","TORONTO ISLAND A","6158665","1996-03-02 21:00","1996","03","02","21:00","","-1.7","","-6.0","","72","","33","","13","","15.0","","99.30","","","","-6","",""
"-79.40","43.63","TORONTO ISLAND A","6158665","1996-03-02 22:00","1996","03","02","22:00","","-1.6","","-7.4","","65","","22","","15","","15.0","","99.33","","","","-6","","Snow"
"-79.40","43.63","TORONTO ISLAND A","6158665","1996-03-02 23:00","1996","03","02","23:00","","-1.8","","-5.8","","74","","21","","19","","15.0","","99.26","","","","-7","",""
"-79.40","43.63","TORONTO ISLAND A","6158665","1996-03-03 00:00","1996","03","03","00:00","","-1.1","","-5.1","","74","","21","","43","","15.0","","99.23","","","","-9","",""
"-79.40","43.63","TORONTO ISLAND A","6158665","1996-03-03 01:00","1996","03","03","01:00","","-3.9","","-8.5","","70","","27","","41","","15.0","","99.30","","","","-13","",""
"-79.40","43.63","TORONTO ISLAND A","6158665","1996-03-03 02:00","1996","03","03","02:00","","-4.5","","-10.6","","62","","25","","44","","15.0","","99.36","","","","-14","",""
"-79.40","43.63","TORONTO ISLAND A","6158665","1996-03-03 03:00","1996","03","03","03:00","","-5.7","","-10.8","","67","","25","","48","","15.0","","99.43","","","","-16","",""
"-79.40","43.63","TORONTO ISLAND A","6158665","1996-03-03 04:00","1996","03","03","04:00","","-6.1","","-11.8","","64","","26","","48","","15.0","","99.43","","","","-16","",""
"-79.40","43.63","TORONTO ISLAND A","6158665","1996-03-03 05:00","1996","03","03","05:00","","-6.9","","-12.8","","63","","26","","48","","15.0","","99.53","","","","-17","",""
"-79.40","43.63","TORONTO ISLAND A","6158665","1996-03-03 06:00","1996","03","03","06:00","","-8.1","","-14.3","","61","","26","","46","","15.0","","99.70","","","","-19","",""
"-79.40","43.63","TORONTO ISLAND A","6158665","1996-03-03 07:00","1996","03","03","07:00","","-9.0","","-14.6","","64","","25","","46","","15.0","","99.83","","","","-20","",""
"-79.40","43.63","TORONTO ISLAND A","6158665","1996-03-03 08:00","1996","03","03","08:00","","-9.4","","-12.7","","77","","24","","52","","15.0","","99.93","","","","-21","",""
"-79.40","43.63","TORONTO ISLAND A","6158665","1996-03-03 09:00","1996","03","03","09:00","","-9.2","","-12.9","","74","","25","","48","","15.0","","100.04","","","","-20","",""
"-79.40","43.63","TORONTO ISLAND A","6158665","1996-03-03 10:00","1996","03","03","10:00","","-7.7","","-10.4","","81","","26","","44","","9.7","","100.14","","","","-18","","Snow"
"-79.40","43.63","TORONTO ISLAND A","6158665","1996-03-03 11:00","1996","03","03","11:00","","-6.3","","-13.1","","59","","28","","52","","15.0","","100.27","","","","-17","",""
"-79.40","43.63","TORONTO ISLAND A","6158665","1996-03-03 12:00","1996","03","03","12:00","","-5.4","","-14.2","","50","","27","","43","","15.0","","100.37","","","","-15","",""
"-79.40","43.63","TORONTO ISLAND A","6158665","1996-03-03 13:00","1996","03","03","13:00","","-5.4","","-11.8","","61","","27","","46","","15.0","","100.51","","","","-15","",""
"-79.40","43.63","TORONTO ISLAND A","6158665","1996-03-03 14:00","1996","03","03","14:00","","-5.1","","-11.5","","61","","30","","48","","15.0","","100.64","","","","-15","","Snow"
"-79.40","43.63","TORONTO ISLAND A","6158665","1996-03-03 15:00","1996","03","03","15:00","","-5.7","","-12.1","","61","","27","","48","","15.0","","100.81","","","","-16","","Snow"
"-79.40","43.63","TORONTO ISLAND A","6158665","1996-03-03 16:00","1996","03","03","16:00","","-5.7","","-15.9","","44","","28","","52","","15.0","","100.94","","","","-16","",""
"-79.40","43.63","TORONTO ISLAND A","6158665","1996-03-03 17:00","1996","03","03","17:00","","-6.6","","-16.8","","44","","29","","52","","15.0","","101.11","","","","-17","",""
"-79.40","43.63","TORONTO ISLAND A","6158665","1996-03-03 18:00","1996","03","03","18:00","","-7.3","","-16.1","","49","","28","","37","","15.0","","101.25","","","","-17","",""
"-79.40","43.63","TORONTO ISLAND A","6158665","1996-03-03 19:00","1996","03","03","19:00","","-7.7","","-14.9","","56","","27","","32","","15.0","","101.35","","","","-17","",""
"-79.40","43.63","TORONTO ISLAND A","6158665","1996-03-03 20:00","1996","03","03","20:00","","-7.7","","-14.1","","60","","27","","33","","15.0","","101.41","","","","-17","",""
"-79.40","43.63","TORONTO ISLAND A","6158665","1996-03-03 21:00","1996","03","03","21:00","","-7.5","","-14.1","","59","","25","","33","","15.0","","101.48","","","","-17","",""
"-79.40","43.63","TORONTO ISLAND A","6158665","1996-03-03 22:00","1996","03","03","22:00","","-7.6","","-12.5","","68","","26","","37","","15.0","","101.51","","","","-17","",""
"-79.40","43.63","TORONTO ISLAND A","6158665","1996-03-03 23:00","1996","03","03","23:00","","-7.4","","-11.4","","73","","25","","32","","15.0","","101.55","","","","-16","",""
"-79.40","43.63","TORONTO ISLAND A","6158665","1996-03-04 00:00","1996","03","04","00:00","","-7.5","","-12.5","","67","","26","","43","","15.0","","101.58","","","","-18","",""
"-79.40","43.63","TORONTO ISLAND A","6158665","1996-03-04 01:00","1996","03","04","01:00","","-7.6","","-12.2","","70","","25","","41","","15.0","","101.62","","","","-18","",""
"-79.40","43.63","TORONTO ISLAND A","6158665","1996-03-04 02:00","1996","03","04","02:00","","-7.5","","-12.4","","68","","26","","37","","15.0","","101.62","","","","-17","",""
"-79.40","43.63","TORONTO ISLAND A","6158665","1996-03-04 03:00","1996","03","04","03:00","","-7.7","","-12.4","","69","","25","","37","","15.0","","101.62","","","","-17","",""
"-79.40","43.63","TORONTO ISLAND A","6158665","1996-03-04 04:00","1996","03","04","04:00","","-8.1","","-12.4","","71","","25","","35","","15.0","","101.68","","","","-18","",""
"-79.40","43.63","TORONTO ISLAND A","6158665","1996-03-04 05:00","1996","03","04","05:00","","-8.2","","-11.8","","75","","24","","35","","15.0","","101.72","","","","-18","",""
"-79.40","43.63","TORONTO ISLAND A","6158665","1996-03-04 06:00","1996","03","04","06:00","","-8.4","","-12.4","","73","","25","","39","","15.0","","101.75","","","","-19","",""
"-79.40","43.63","TORONTO ISLAND A","6158665","1996-03-04 07:00","1996","03","04","07:00","","-8.2","","-11.7","","76","","25","","35","","15.0","","101.82","","","","-18","",""
"-79.40","43.63","TORONTO ISLAND A","6158665","1996-03-04 08:00","1996","03","04","08:00","","-8.0","","-12.1","","72","","25","","35","","15.0","","101.92","","","","-18","",""
"-79.40","43.63","TORONTO ISLAND A","6158665","1996-03-04 09:00","1996","03","04","09:00","","-6.9","","-12.8","","63","","26","","33","","15.0","","101.95","","","","-16","",""
"-79.40","43.63","TORONTO ISLAND A","6158665","1996-03-04 10:00","1996","03","04","10:00","","-5.5","","-13.0","","55","","26","","35","","15.0","","101.95","","","","-14","",""
"-79.40","43.63","TORONTO ISLAND A","6158665","1996-03-04 11:00","1996","03","04","11:00","","-5.4","","-13.8","","52","","28","","35","","15.0","","101.95","","","","-14","",""
"-79.40","43.63","TORONTO ISLAND A","6158665","1996-03-04 12:00","1996","03","04","12:00","","-4.5","","-14.0","","47","","26","","30","","15.0","","101.95","","","","-12","",""
"-79.40","43.63","TORONTO ISLAND A","6158665","1996-03-04 13:00","1996","03","04","13:00","","-3.6","","-13.6","","46","","26","","35","","15.0","","101.88","","","","-12","",""
"-79.40","43.63","TORONTO ISLAND A","6158665","1996-03-04 14:00","1996","03","04","14:00","","-3.0","","-12.7","","47","","28","","32","","15.0","","101.85","","","","-11","",""
"-79.40","43.63","TORONTO ISLAND A","6158665","1996-03-04 15:00","1996","03","04","15:00","","-2.8","","-12.0","","49","","27","","32","","15.0","","101.85","","","","-10","",""
"-79.40","43.63","TORONTO ISLAND A","6158665","1996-03-04 16:00","1996","03","04","16:00","","-2.5","","-12.2","","47","","26","","32","","15.0","","101.78","","","","-10","",""
"-79.40","43.63","TORONTO ISLAND A","6158665","1996-03-04 17:00","1996","03","04","17:00","","-2.6","","-12.4","","47","","26","","33","","15.0","","101.75","","","","-10","",""
"-79.40","43.63","TORONTO ISLAND A","6158665","1996-03-04 18:00","1996","03","04","18:00","","-2.5","","-13.0","","44","","27","","19","","15.0","","101.72","","","","-8","",""
"-79.40","43.63","TORONTO ISLAND A","6158665","1996-03-04 19:00","1996","03","04","19:00","","-2.2","","-10.9","","51","","24","","19","","15.0","","101.65","","","","-8","",""
"-79.40","43.63","TORONTO ISLAND A","6158665","1996-03-04 20:00","1996","03","04","20:00","","-2.1","","-9.5","","57","","23","","22","","15.0","","101.62","","","","-8","",""
"-79.40","43.63","TORONTO ISLAND A","6158665","1996-03-04 21:00","1996","03","04","21:00","","-2.1","","-9.2","","58","","23","","11","","15.0","","101.55","","","","-6","",""
"-79.40","43.63","TORONTO ISLAND A","6158665","1996-03-04 22:00","1996","03","04","22:00","","-2.1","","-9.5","","57","","22","","13","","15.0","","101.48","","","","-7","",""
"-79.40","43.63","TORONTO ISLAND A","6158665","1996-03-04 23:00","1996","03","04","23:00","","-3.1","","-7.0","","74","","23","","19","","4.5","","101.45","","","","-9","","Snow"
"-79.40","43.63","TORONTO ISLAND A","6158665","1996-03-05 00:00","1996","03","05","00:00","","-3.9","","-5.2","","91","","19","","15","","1.1","","101.35","","","","-9","","Snow"
"-79.40","43.63","TORONTO ISLAND A","6158665","1996-03-05 01:00","1996","03","05","01:00","","-3.9","","-4.7","","94","","14","","7","","1.6","","101.21","","","","-7","","Snow"
"-79.40","43.63","TORONTO ISLAND A","6158665","1996-03-05 02:00","1996","03","05","02:00","","-3.6","","-4.5","","93","","13","","11","","1.6","","101.01","","","","-8","","Snow"
"-79.40","43.63","TORONTO ISLAND A","6158665","1996-03-05 03:00","1996","03","05","03:00","","-3.5","","-4.1","","96","","11","","11","","0.8","","100.81","","","","-8","","Moderate Snow"
"-79.40","43.63","TORONTO ISLAND A","6158665","1996-03-05 04:00","1996","03","05","04:00","","-2.8","","-3.8","","93","","11","","15","","6.4","","100.67","","","","-8","","Snow"
"-79.40","43.63","TORONTO ISLAND A","6158665","1996-03-05 05:00","1996","03","05","05:00","","-2.6","","-4.0","","90","","10","","15","","6.4","","100.57","","","","-8","","Snow"
"-79.40","43.63","TORONTO ISLAND A","6158665","1996-03-05 06:00","1996","03","05","06:00","","-2.4","","-3.5","","92","","8","","20","","1.8","","100.44","","","","-8","","Snow"
"-79.40","43.63","TORONTO ISLAND A","6158665","1996-03-05 07:00","1996","03","05","07:00","","-2.4","","-2.9","","96","","9","","19","","0.8","","100.41","","","","-8","","Moderate Snow"
"-79.40","43.63","TORONTO ISLAND A","6158665","1996-03-05 08:00","1996","03","05","08:00","","-2.0","","-2.4","","97","","7","","19","","1.1","","100.34","","","","-8","","Snow"
"-79.40","43.63","TORONTO ISLAND A","6158665","1996-03-05 09:00","1996","03","05","09:00","","-1.7","","-2.0","","98","","7","","22","","1.3","","100.27","","","","-8","","Snow"
"-79.40","43.63","TORONTO ISLAND A","6158665","1996-03-05 10:00","1996","03","05","10:00","","-1.6","","-2.0","","97","","7","","22","","0.8","","100.24","","","","-8","","Snow"
"-79.40","43.63","TORONTO ISLAND A","6158665","1996-03-05 11:00","1996","03","05","11:00","","-2.2","","-3.3","","92","","4","","13","","1.4","","100.27","","","","-7","","Snow"
"-79.40","43.63","TORONTO ISLAND A","6158665","1996-03-05 12:00","1996","03","05","12:00","","-2.1","","-3.6","","89","","4","","13","","3.2","","100.27","","","","-7","","Snow"
"-79.40","43.63","TORONTO ISLAND A","6158665","1996-03-05 13:00","1996","03","05","13:00","","-1.7","","-3.5","","87","","5","","19","","4.8","","100.27","","","","-7","",""
"-79.40","43.63","TORONTO ISLAND A","6158665","1996-03-05 14:00","1996","03","05","14:00","","-1.6","","-3.8","","85","","7","","20","","15.0","","100.24","","","","-7","",""
"-79.40","43.63","TORONTO ISLAND A","6158665","1996-03-05 15:00","1996","03","05","15:00","","-1.5","","-3.7","","85","","7","","20","","15.0","","100.20","","","","-7","",""
"-79.40","43.63","TORONTO ISLAND A","6158665","1996-03-05 16:00","1996","03","05","16:00","","-1.0","","-3.8","","81","","9","","11","","15.0","","100.27","","","","-5","",""
"-79.40","43.63","TORONTO ISLAND A","6158665","1996-03-05 17:00","1996","03","05","17:00","","-0.9","","-3.8","","81","","9","","15","","15.0","","100.30","","","","-6","",""
"-79.40","43.63","TORONTO ISLAND A","6158665","1996-03-05 18:00","1996","03","05","18:00","","-0.5","","-4.6","","74","","7","","15","","15.0","","100.27","","","","-5","",""
"-79.40","43.63","TORONTO ISLAND A","6158665","1996-03-05 19:00","1996","03","05","19:00","","-0.7","","-6.0","","67","","4","","13","","15.0","","100.34","","","","-5","",""
"-79.40","43.63","TORONTO ISLAND A","6158665","1996-03-05 20:00","1996","03","05","20:00","","-1.2","","-6.2","","69","","35","","11","","15.0","","100.44","","","","-5","",""
"-79.40","43.63","TORONTO ISLAND A","6158665","1996-03-05 21:00","1996","03","05","21:00","","-1.1","","-7.0","","64","","35","","13","","15.0","","100.51","","","","-5","",""
"-79.40","43.63","TORONTO ISLAND A","6158665","1996-03-05 22:00","1996","03","05","22:00","","-1.8","","-7.4","","66","","1","","17","","15.0","","100.51","","","","-7","",""
"-79.40","43.63","TORONTO ISLAND A","6158665","1996-03-05 23:00","1996","03","05","23:00","","-2.1","","-7.0","","69","","35","","22","","15.0","","100.44","","","","-8","",""
"-79.40","43.63","TORONTO ISLAND A","6158665","1996-03-06 00:00","1996","03","06","00:00","","-2.8","","-7.7","","69","","35","","26","","15.0","","100.51","","","","-10","",""
"-79.40","43.63","TORONTO ISLAND A","6158665","1996-03-06 01:00","1996","03","06","01:00","","-3.2","","-8.3","","68","","36","","22","","15.0","","100.47","","","","-10","",""
"-79.40","43.63","TORONTO ISLAND A","6158665","1996-03-06 02:00","1996","03","06","02:00","","-3.5","","-8.3","","69","","4","","20","","15.0","","100.47","","","","-10","",""
"-79.40","43.63","TORONTO ISLAND A","6158665","1996-03-06 03:00","1996","03","06","03:00","","-3.7","","-7.9","","73","","3","","19","","15.0","","100.54","","","","-10","",""
"-79.40","43.63","TORONTO ISLAND A","6158665","1996-03-06 04:00","1996","03","06","04:00","","-4.2","","-8.4","","72","","4","","22","","15.0","","100.47","","","","-11","",""
"-79.40","43.63","TORONTO ISLAND A","6158665","1996-03-06 05:00","1996","03","06","05:00","","-4.9","","-9.2","","72","","4","","20","","15.0","","100.54","","","","-11","",""
"-79.40","43.63","TORONTO ISLAND A","6158665","1996-03-06 06:00","1996","03","06","06:00","","-5.0","","-9.1","","73","","4","","19","","15.0","","100.64","","","","-11","",""
"-79.40","43.63","TORONTO ISLAND A","6158665","1996-03-06 07:00","1996","03","06","07:00","","-5.4","","-9.5","","73","","5","","20","","15.0","","100.67","","","","-12","",""
"-79.40","43.63","TORONTO ISLAND A","6158665","1996-03-06 08:00","1996","03","06","08:00","","-5.5","","-10.2","","69","","5","","17","","15.0","","100.77","","","","-12","",""
"-79.40","43.63","TORONTO ISLAND A","6158665","1996-03-06 09:00","1996","03","06","09:00","","-5.5","","-10.5","","68","","4","","20","","15.0","","100.88","","","","-12","",""
"-79.40","43.63","TORONTO ISLAND A","6158665","1996-03-06 10:00","1996","03","06","10:00","","-5.7","","-10.8","","67","","2","","20","","15.0","","100.84","","","","-12","",""
"-79.40","43.63","TORONTO ISLAND A","6158665","1996-03-06 11:00","1996","03","06","11:00","","-4.8","","-10.8","","63","","2","","11","","15.0","","100.84","","","","-9","",""
"-79.40","43.63","TORONTO ISLAND A","6158665","1996-03-06 12:00","1996","03","06","12:00","","-5.3","","-11.7","","61","","4","","19","","15.0","","100.81","","","","-12","",""
"-79.40","43.63","TORONTO ISLAND A","6158665","1996-03-06 13:00","1996","03","06","13:00","","-4.4","","-11.8","","56","","6","","19","","15.0","","100.81","","","","-11","",""
"-79.40","43.63","TORONTO ISLAND A","6158665","1996-03-06 14:00","1996","03","06","14:00","","-4.4","","-11.7","","57","","4","","13","","15.0","","100.74","","","","-9","",""
"-79.40","43.63","TORONTO ISLAND A","6158665","1996-03-06 15:00","1996","03","06","15:00","","-4.3","","-12.9","","51","","1","","15","","15.0","","100.77","","","","-10","",""
"-79.40","43.63","TORONTO ISLAND A","6158665","1996-03-06 16:00","1996","03","06","16:00","","-4.5","","-13.9","","48","","2","","19","","15.0","","100.77","","","","-11","",""
"-79.40","43.63","TORONTO ISLAND A","6158665","1996-03-06 17:00","1996","03","06","17:00","","-4.9","","-14.3","","48","","36","","13","","15.0","","100.77","","","","-10","",""
"-79.40","43.63","TORONTO ISLAND A","6158665","1996-03-06 18:00","1996","03","06","18:00","","-5.8","","-14.8","","49","","35","","20","","15.0","","100.84","","","","-13","",""
"-79.40","43.63","TORONTO ISLAND A","6158665","1996-03-06 19:00","1996","03","06","19:00","","-6.1","","-15.2","","49","","35","","20","","15.0","","100.91","","","","-13","",""
"-79.40","43.63","TORONTO ISLAND A","6158665","1996-03-06 20:00","1996","03","06","20:00","","-7.0","","-16.6","","46","","35","","30","","15.0","","100.98","","","","-16","",""
"-79.40","43.63","TORONTO ISLAND A","6158665","1996-03-06 21:00","1996","03","06","21:00","","-8.6","","-13.9","","65","","2","","32","","15.0","","101.01","","","","-18","",""
"-79.40","43.63","TORONTO ISLAND A","6158665","1996-03-06 22:00","1996","03","06","22:00","","-9.7","","-12.2","","82","","1","","30","","1.0","","101.01","","","","-19","","Snow"
"-79.40","43.63","TORONTO ISLAND A","6158665","1996-03-06 23:00","1996","03","06","23:00","","-10.3","","-12.3","","85","","4","","24","","0.8","","101.04","","","","-19","","Snow"
"-79.40","43.63","TORONTO ISLAND A","6158665","1996-03-07 00:00","1996","03","07","00:00","","-10.5","","-13.1","","81","","2","","19","","2.3","","101.04","","","","-18","","Snow"
"-79.40","43.63","TORONTO ISLAND A","6158665","1996-03-07 01:00","1996","03","07","01:00","","-10.7","","-14.2","","75","","1","","26","","4.0","","101.08","","","","-20","","Snow"
"-79.40","43.63","TORONTO ISLAND A","6158665","1996-03-07 02:00","1996","03","07","02:00","","-10.8","","-14.1","","77","","1","","19","","4.5","","101.04","","","","-19","","Snow"
"-79.40","43.63","TORONTO ISLAND A","6158665","1996-03-07 03:00","1996","03","07","03:00","","-11.5","","-15.4","","73","","1","","17","","9.7","","101.01","","","","-19","","Snow"
"-79.40","43.63","TORONTO ISLAND A","6158665","1996-03-07 04:00","1996","03","07","04:00","","-11.5","","-15.3","","73","","2","","19","","15.0","","101.04","","","","-20","",""
"-79.40","43.63","TORONTO ISLAND A","6158665","1996-03-07 05:00","1996","03","07","05:00","","-12.0","","-15.8","","73","","36","","22","","5.6","","101.08","","","","-21","","Snow"
"-79.40","43.63","TORONTO ISLAND A","6158665","1996-03-07 06:00","1996","03","07","06:00","","-12.6","","-16.6","","72","","3","","13","","15.0","","101.08","","","","-19","",""
"-79.40","43.63","TORONTO ISLAND A","6158665","1996-03-07 07:00","1996","03","07","07:00","","-12.8","","-16.9","","71","","1","","17","","8.0","","101.14","","","","-21","",""
"-79.40","43.63","TORONTO ISLAND A","6158665","1996-03-07 08:00","1996","03","07","08:00","","-13.5","","-17.5","","72","","1","","19","","15.0","","101.14","","","","-22","",""
"-79.40","43.63","TORONTO ISLAND A","6158665","1996-03-07 09:00","1996","03","07","09:00","","-13.3","","-18.0","","68","","36","","17","","15.0","","101.14","","","","-21","",""
"-79.40","43.63","TORONTO ISLAND A","6158665","1996-03-07 10:00","1996","03","07","10:00","","-12.7","","-18.7","","61","","36","","20","","15.0","","101.11","","","","-21","",""
"-79.40","43.63","TORONTO ISLAND A","6158665","1996-03-07 11:00","1996","03","07","11:00","","-12.3","","-19.2","","56","","1","","20","","15.0","","101.14","","","","-21","",""
"-79.40","43.63","TORONTO ISLAND A","6158665","1996-03-07 12:00","1996","03","07","12:00","","-11.6","","-18.8","","55","","36","","15","","15.0","","101.11","","","","-19","",""
"-79.40","43.63","TORONTO ISLAND A","6158665","1996-03-07 13:00","1996","03","07","13:00","","-11.0","","-18.9","","52","","35","","17","","15.0","","101.08","","","","-18","",""
"-79.40","43.63","TORONTO ISLAND A","6158665","1996-03-07 14:00","1996","03","07","14:00","","-9.8","","-17.9","","52","","2","","15","","15.0","","100.98","","","","-16","",""
"-79.40","43.63","TORONTO ISLAND A","6158665","1996-03-07 15:00","1996","03","07","15:00","","-9.6","","-18.7","","47","","36","","17","","15.0","","100.88","","","","-17","",""
"-79.40","43.63","TORONTO ISLAND A","6158665","1996-03-07 16:00","1996","03","07","16:00","","-9.3","","-21.1","","38","","33","","26","","15.0","","100.84","","","","-18","",""
"-79.40","43.63","TORONTO ISLAND A","6158665","1996-03-07 17:00","1996","03","07","17:00","","-8.8","","-22.8","","31","","36","","13","","15.0","","100.84","","","","-15","",""
"-79.40","43.63","TORONTO ISLAND A","6158665","1996-03-07 18:00","1996","03","07","18:00","","-9.9","","-20.9","","40","","34","","22","","15.0","","100.91","","","","-18","",""
"-79.40","43.63","TORONTO ISLAND A","6158665","1996-03-07 19:00","1996","03","07","19:00","","-10.9","","-19.4","","50","","33","","19","","15.0","","100.94","","","","-19","",""
"-79.40","43.63","TORONTO ISLAND A","6158665","1996-03-07 20:00","1996","03","07","20:00","","-11.4","","-19.3","","52","","34","","26","","15.0","","100.94","","","","-21","",""
"-79.40","43.63","TORONTO ISLAND A","6158665","1996-03-07 21:00","1996","03","07","21:00","","-11.8","","-19.5","","53","","34","","24","","15.0","","100.88","","","","-21","",""
"-79.40","43.63","TORONTO ISLAND A","6158665","1996-03-07 22:00","1996","03","07","22:00","","-11.7","","-20.1","","50","","34","","19","","15.0","","100.84","","","","-20","",""
"-79.40","43.63","TORONTO ISLAND A","6158665","1996-03-07 23:00","1996","03","07","23:00","","-11.6","","-20.9","","46","","34","","24","","15.0","","100.81","","","","-21","",""
"-79.40","43.63","TORONTO ISLAND A","6158665","1996-03-08 00:00","1996","03","08","00:00","","-11.6","","-21.1","","45","","35","","26","","15.0","","100.84","","","","-21","",""
"-79.40","43.63","TORONTO ISLAND A","6158665","1996-03-08 01:00","1996","03","08","01:00","","-11.8","","-21.6","","44","","35","","26","","15.0","","100.77","","","","-21","",""
"-79.40","43.63","TORONTO ISLAND A","6158665","1996-03-08 02:00","1996","03","08","02:00","","-12.5","","-21.8","","46","","35","","22","","15.0","","100.67","","","","-21","",""
"-79.40","43.63","TORONTO ISLAND A","6158665","1996-03-08 03:00","1996","03","08","03:00","","-12.8","","-21.6","","48","","33","","22","","15.0","","100.67","","","","-22","",""
"-79.40","43.63","TORONTO ISLAND A","6158665","1996-03-08 04:00","1996","03","08","04:00","","-13.5","","-21.7","","50","","34","","24","","15.0","","100.74","","","","-23","",""
"-79.40","43.63","TORONTO ISLAND A","6158665","1996-03-08 05:00","1996","03","08","05:00","","-14.3","","-21.9","","52","","33","","26","","15.0","","100.74","","","","-24","",""
"-79.40","43.63","TORONTO ISLAND A","6158665","1996-03-08 06:00","1996","03","08","06:00","","-14.7","","-22.5","","51","","34","","24","","15.0","","100.71","","","","-25","",""
"-79.40","43.63","TORONTO ISLAND A","6158665","1996-03-08 07:00","1996","03","08","07:00","","-14.8","","-22.5","","52","","33","","20","","15.0","","100.74","","","","-24","",""
"-79.40","43.63","TORONTO ISLAND A","6158665","1996-03-08 08:00","1996","03","08","08:00","","-14.9","","-22.4","","53","","33","","19","","15.0","","100.74","","","","-24","",""
"-79.40","43.63","TORONTO ISLAND A","6158665","1996-03-08 09:00","1996","03","08","09:00","","-14.7","","-22.4","","52","","33","","24","","15.0","","100.77","","","","-25","",""
"-79.40","43.63","TORONTO ISLAND A","6158665","1996-03-08 10:00","1996","03","08","10:00","","-13.7","","-21.7","","51","","31","","20","","15.0","","100.74","","","","-23","",""
"-79.40","43.63","TORONTO ISLAND A","6158665","1996-03-08 11:00","1996","03","08","11:00","","-12.5","","-21.3","","48","","33","","33","","15.0","","100.71","","","","-23","",""
"-79.40","43.63","TORONTO ISLAND A","6158665","1996-03-08 12:00","1996","03","08","12:00","","-11.9","","-20.6","","48","","32","","26","","15.0","","100.74","","","","-21","",""
"-79.40","43.63","TORONTO ISLAND A","6158665","1996-03-08 13:00","1996","03","08","13:00","","-11.6","","-19.3","","53","","31","","32","","15.0","","100.71","","","","-22","",""
"-79.40","43.63","TORONTO ISLAND A","6158665","1996-03-08 14:00","1996","03","08","14:00","","-10.8","","-20.4","","45","","32","","24","","15.0","","100.71","","","","-20","",""
"-79.40","43.63","TORONTO ISLAND A","6158665","1996-03-08 15:00","1996","03","08","15:00","","-10.6","","-20.2","","45","","31","","32","","15.0","","100.74","","","","-21","",""
"-79.40","43.63","TORONTO ISLAND A","6158665","1996-03-08 16:00","1996","03","08","16:00","","-10.7","","-20.8","","43","","31","","26","","15.0","","100.77","","","","-20","",""
"-79.40","43.63","TORONTO ISLAND A","6158665","1996-03-08 17:00","1996","03","08","17:00","","-10.3","","-19.6","","46","","30","","35","","15.0","","100.81","","","","-21","",""
"-79.40","43.63","TORONTO ISLAND A","6158665","1996-03-08 18:00","1996","03","08","18:00","","-10.3","","-19.8","","46","","29","","26","","15.0","","100.88","","","","-19","",""
"-79.40","43.63","TORONTO ISLAND A","6158665","1996-03-08 19:00","1996","03","08","19:00","","-10.9","","-17.9","","56","","30","","39","","15.0","","100.98","","","","-22","",""
"-79.40","43.63","TORONTO ISLAND A","6158665","1996-03-08 20:00","1996","03","08","20:00","","-11.5","","-17.6","","61","","29","","28","","15.0","","101.04","","","","-21","",""
"-79.40","43.63","TORONTO ISLAND A","6158665","1996-03-08 21:00","1996","03","08","21:00","","-11.8","","-17.9","","60","","27","","26","","15.0","","101.11","","","","-21","",""
"-79.40","43.63","TORONTO ISLAND A","6158665","1996-03-08 22:00","1996","03","08","22:00","","-12.5","","-17.6","","66","","27","","32","","15.0","","101.18","","","","-23","",""
"-79.40","43.63","TORONTO ISLAND A","6158665","1996-03-08 23:00","1996","03","08","23:00","","-12.7","","-16.6","","73","","26","","28","","15.0","","101.21","","","","-23","",""
"-79.40","43.63","TORONTO ISLAND A","6158665","1996-03-09 00:00","1996","03","09","00:00","","-12.8","","-16.5","","74","","26","","30","","15.0","","101.25","","","","-23","",""
"-79.40","43.63","TORONTO ISLAND A","6158665","1996-03-09 01:00","1996","03","09","01:00","","-13.3","","-17.1","","73","","28","","20","","15.0","","101.28","","","","-22","",""
"-79.40","43.63","TORONTO ISLAND A","6158665","1996-03-09 02:00","1996","03","09","02:00","","-14.0","","-18.2","","70","","27","","19","","15.0","","101.31","","","","-23","",""
"-79.40","43.63","TORONTO ISLAND A","6158665","1996-03-09 03:00","1996","03","09","03:00","","-13.7","","-17.9","","71","","28","","19","","15.0","","101.35","","","","-22","",""
"-79.40","43.63","TORONTO ISLAND A","6158665","1996-03-09 04:00","1996","03","09","04:00","","-13.4","","-17.6","","71","","27","","26","","15.0","","101.35","","","","-23","",""
"-79.40","43.63","TORONTO ISLAND A","6158665","1996-03-09 05:00","1996","03","09","05:00","","-13.6","","-18.4","","67","","28","","22","","15.0","","101.45","","","","-23","",""
"-79.40","43.63","TORONTO ISLAND A","6158665","1996-03-09 06:00","1996","03","09","06:00","","-13.9","","-18.7","","67","","28","","22","","15.0","","101.58","","","","-23","",""
"-79.40","43.63","TORONTO ISLAND A","6158665","1996-03-09 07:00","1996","03","09","07:00","","-14.1","","-18.8","","68","","29","","17","","15.0","","101.68","","","","-22","",""
"-79.40","43.63","TORONTO ISLAND A","6158665","1996-03-09 08:00","1996","03","09","08:00","","-13.3","","-18.5","","65","","28","","20","","15.0","","101.75","","","","-22","",""
"-79.40","43.63","TORONTO ISLAND A","6158665","1996-03-09 09:00","1996","03","09","09:00","","-12.0","","-17.9","","61","","27","","19","","15.0","","101.85","","","","-20","",""
"-79.40","43.63","TORONTO ISLAND A","6158665","1996-03-09 10:00","1996","03","09","10:00","","-11.0","","-17.6","","58","","27","","22","","15.0","","101.95","","","","-20","",""
"-79.40","43.63","TORONTO ISLAND A","6158665","1996-03-09 11:00","1996","03","09","11:00","","-9.4","","-15.7","","60","","27","","28","","15.0","","101.99","","","","-18","",""
"-79.40","43.63","TORONTO ISLAND A","6158665","1996-03-09 12:00","1996","03","09","12:00","","-7.4","","-12.9","","65","","28","","26","","15.0","","102.02","","","","-16","",""
"-79.40","43.63","TORONTO ISLAND A","6158665","1996-03-09 13:00","1996","03","09","13:00","","-6.9","","-13.8","","58","","28","","24","","15.0","","102.05","","","","-15","",""
"-79.40","43.63","TORONTO ISLAND A","6158665","1996-03-09 14:00","1996","03","09","14:00","","-5.9","","-12.9","","58","","27","","22","","15.0","","102.05","","","","-13","",""
"-79.40","43.63","TORONTO ISLAND A","6158665","1996-03-09 15:00","1996","03","09","15:00","","-5.8","","-12.6","","59","","28","","30","","15.0","","102.09","","","","-14","",""
"-79.40","43.63","TORONTO ISLAND A","6158665","1996-03-09 16:00","1996","03","09","16:00","","-5.8","","-12.5","","59","","28","","37","","15.0","","102.19","","","","-15","",""
"-79.40","43.63","TORONTO ISLAND A","6158665","1996-03-09 17:00","1996","03","09","17:00","","-6.0","","-11.8","","63","","27","","33","","15.0","","102.25","","","","-15","",""
"-79.40","43.63","TORONTO ISLAND A","6158665","1996-03-09 18:00","1996","03","09","18:00","","-6.6","","-13.5","","58","","28","","26","","15.0","","102.39","","","","-15","",""
"-79.40","43.63","TORONTO ISLAND A","6158665","1996-03-09 19:00","1996","03","09","19:00","","-7.3","","-13.7","","60","","26","","32","","15.0","","102.52","","","","-16","",""
"-79.40","43.63","TORONTO ISLAND A","6158665","1996-03-09 20:00","1996","03","09","20:00","","-7.9","","-13.3","","65","","27","","30","","15.0","","102.62","","","","-17","",""
"-79.40","43.63","TORONTO ISLAND A","6158665","1996-03-09 21:00","1996","03","09","21:00","","-7.7","","-12.4","","69","","25","","26","","15.0","","102.69","","","","-16","",""
"-79.40","43.63","TORONTO ISLAND A","6158665","1996-03-09 22:00","1996","03","09","22:00","","-7.8","","-12.5","","69","","25","","26","","15.0","","102.72","","","","-16","",""
"-79.40","43.63","TORONTO ISLAND A","6158665","1996-03-09 23:00","1996","03","09","23:00","","-8.4","","-13.4","","67","","25","","24","","15.0","","102.79","","","","-17","",""
"-79.40","43.63","TORONTO ISLAND A","6158665","1996-03-10 00:00","1996","03","10","00:00","","-8.7","","-13.3","","69","","26","","19","","15.0","","102.83","","","","-16","",""
"-79.40","43.63","TORONTO ISLAND A","6158665","1996-03-10 01:00","1996","03","10","01:00","","-9.4","","-14.3","","67","","29","","11","","15.0","","102.89","","","","-15","",""
"-79.40","43.63","TORONTO ISLAND A","6158665","1996-03-10 02:00","1996","03","10","02:00","","-9.7","","-14.4","","69","","28","","13","","15.0","","102.96","","","","-16","",""
"-79.40","43.63","TORONTO ISLAND A","6158665","1996-03-10 03:00","1996","03","10","03:00","","-9.6","","-14.7","","66","","28","","15","","15.0","","102.96","","","","-16","",""
"-79.40","43.63","TORONTO ISLAND A","6158665","1996-03-10 04:00","1996","03","10","04:00","","-10.5","","-15.0","","69","","32","","7","","15.0","","103.06","","","","-15","",""
"-79.40","43.63","TORONTO ISLAND A","6158665","1996-03-10 05:00","1996","03","10","05:00","","-10.7","","-14.9","","71","","31","","6","","15.0","","103.13","","","","-14","",""
"-79.40","43.63","TORONTO ISLAND A","6158665","1996-03-10 06:00","1996","03","10","06:00","","-10.1","","-14.5","","70","","31","","6","","15.0","","103.23","","","","-14","",""
"-79.40","43.63","TORONTO ISLAND A","6158665","1996-03-10 07:00","1996","03","10","07:00","","-9.3","","-13.3","","73","","26","","11","","15.0","","103.26","","","","-15","",""
"-79.40","43.63","TORONTO ISLAND A","6158665","1996-03-10 08:00","1996","03","10","08:00","","-8.8","","-13.4","","69","","27","","17","","15.0","","103.36","","","","-16","",""
"-79.40","43.63","TORONTO ISLAND A","6158665","1996-03-10 09:00","1996","03","10","09:00","","-7.0","","-12.0","","67","","27","","17","","15.0","","103.43","","","","-13","",""
"-79.40","43.63","TORONTO ISLAND A","6158665","1996-03-10 10:00","1996","03","10","10:00","","-4.7","","-10.6","","63","","26","","15","","15.0","","103.46","","","","-10","",""
"-79.40","43.63","TORONTO ISLAND A","6158665","1996-03-10 11:00","1996","03","10","11:00","","-3.9","","-9.2","","67","","21","","20","","15.0","","103.46","","","","-10","",""
"-79.40","43.63","TORONTO ISLAND A","6158665","1996-03-10 12:00","1996","03","10","12:00","","-2.6","","-9.6","","59","","23","","24","","15.0","","103.46","","","","-9","",""
"-79.40","43.63","TORONTO ISLAND A","6158665","1996-03-10 13:00","1996","03","10","13:00","","-2.4","","-8.4","","63","","20","","28","","15.0","","103.40","","","","-9","",""
"-79.40","43.63","TORONTO ISLAND A","6158665","1996-03-10 14:00","1996","03","10","14:00","","-2.2","","-7.3","","68","","20","","32","","15.0","","103.36","","","","-10","",""
"-79.40","43.63","TORONTO ISLAND A","6158665","1996-03-10 15:00","1996","03","10","15:00","","-2.1","","-9.3","","58","","20","","30","","15.0","","103.33","","","","-9","",""
"-79.40","43.63","TORONTO ISLAND A","6158665","1996-03-10 16:00","1996","03","10","16:00","","-2.3","","-10.0","","55","","21","","30","","15.0","","103.33","","","","-9","",""
"-79.40","43.63","TORONTO ISLAND A","6158665","1996-03-10 17:00","1996","03","10","17:00","","-2.5","","-8.9","","61","","20","","28","","15.0","","103.30","","","","-10","",""
"-79.40","43.63","TORONTO ISLAND A","6158665","1996-03-10 18:00","1996","03","10","18:00","","-2.6","","-9.0","","61","","20","","20","","15.0","","103.26","","","","-9","",""
"-79.40","43.63","TORONTO ISLAND A","6158665","1996-03-10 19:00","1996","03","10","19:00","","-2.4","","-8.1","","65","","22","","28","","15.0","","103.26","","","","-9","",""
"-79.40","43.63","TORONTO ISLAND A","6158665","1996-03-10 20:00","1996","03","10","20:00","","-2.6","","-10.9","","53","","24","","22","","15.0","","103.26","","","","-9","",""
"-79.40","43.63","TORONTO ISLAND A","6158665","1996-03-10 21:00","1996","03","10","21:00","","-3.1","","-10.8","","55","","25","","15","","15.0","","103.26","","","","-8","",""
"-79.40","43.63","TORONTO ISLAND A","6158665","1996-03-10 22:00","1996","03","10","22:00","","-3.2","","-9.7","","61","","25","","17","","15.0","","103.23","","","","-9","",""
"-79.40","43.63","TORONTO ISLAND A","6158665","1996-03-10 23:00","1996","03","10","23:00","","-3.2","","-9.4","","62","","24","","19","","15.0","","103.20","","","","-9","",""
"-79.40","43.63","TORONTO ISLAND A","6158665","1996-03-11 00:00","1996","03","11","00:00","","-3.2","","-8.5","","67","","25","","17","","15.0","","103.20","","","","-9","",""
"-79.40","43.63","TORONTO ISLAND A","6158665","1996-03-11 01:00","1996","03","11","01:00","","-3.8","","-8.7","","69","","24","","15","","15.0","","103.20","","","","-9","",""
"-79.40","43.63","TORONTO ISLAND A","6158665","1996-03-11 02:00","1996","03","11","02:00","","-3.5","","-7.6","","73","","23","","15","","15.0","","103.16","","","","-9","",""
"-79.40","43.63","TORONTO ISLAND A","6158665","1996-03-11 03:00","1996","03","11","03:00","","-3.9","","-7.5","","76","","25","","13","","15.0","","103.13","","","","-9","",""
"-79.40","43.63","TORONTO ISLAND A","6158665","1996-03-11 04:00","1996","03","11","04:00","","-4.3","","-7.3","","80","","25","","11","","15.0","","103.09","","","","-9","",""
"-79.40","43.63","TORONTO ISLAND A","6158665","1996-03-11 05:00","1996","03","11","05:00","","-4.7","","-8.0","","78","","27","","11","","11.3","","103.13","","","","-9","",""
"-79.40","43.63","TORONTO ISLAND A","6158665","1996-03-11 06:00","1996","03","11","06:00","","-5.5","","-9.0","","76","","29","","9","","11.3","","103.16","","","","-10","",""
"-79.40","43.63","TORONTO ISLAND A","6158665","1996-03-11 07:00","1996","03","11","07:00","","-4.8","","-8.9","","73","","24","","9","","15.0","","103.16","","","","-9","",""
"-79.40","43.63","TORONTO ISLAND A","6158665","1996-03-11 08:00","1996","03","11","08:00","","-4.0","","-9.2","","67","","","","0","","15.0","","103.16","","","","","",""
"-79.40","43.63","TORONTO ISLAND A","6158665","1996-03-11 09:00","1996","03","11","09:00","","-3.7","","-8.2","","71","","26","","7","","15.0","","103.13","","","","-7","",""
"-79.40","43.63","TORONTO ISLAND A","6158665","1996-03-11 10:00","1996","03","11","10:00","","-2.4","","-6.9","","71","","24","","4","","15.0","","103.06","","","","-4","",""
"-79.40","43.63","TORONTO ISLAND A","6158665","1996-03-11 11:00","1996","03","11","11:00","","-1.5","","-6.1","","71","","21","","6","","12.9","","102.99","","","","-4","",""
"-79.40","43.63","TORONTO ISLAND A","6158665","1996-03-11 12:00","1996","03","11","12:00","","-0.4","","-5.1","","71","","17","","15","","11.3","","102.96","","","","-5","",""
"-79.40","43.63","TORONTO ISLAND A","6158665","1996-03-11 13:00","1996","03","11","13:00","","0.0","","-5.2","","68","","18","","13","","15.0","","102.83","","","","-4","",""
"-79.40","43.63","TORONTO ISLAND A","6158665","1996-03-11 14:00","1996","03","11","14:00","","0.6","","-4.8","","67","","18","","15","","15.0","","102.72","","","","","",""
"-79.40","43.63","TORONTO ISLAND A","6158665","1996-03-11 15:00","1996","03","11","15:00","","1.5","","-4.7","","63","","18","","15","","15.0","","102.66","","","","","",""
"-79.40","43.63","TORONTO ISLAND A","6158665","1996-03-11 16:00","1996","03","11","16:00","","1.7","","-5.2","","60","","18","","13","","15.0","","102.59","","","","","",""
"-79.40","43.63","TORONTO ISLAND A","6158665","1996-03-11 17:00","1996","03","11","17:00","","1.2","","-5.0","","63","","17","","15","","15.0","","102.49","","","","","",""
"-79.40","43.63","TORONTO ISLAND A","6158665","1996-03-11 18:00","1996","03","11","18:00","","0.6","","-4.9","","67","","16","","13","","15.0","","102.42","","","","","",""
"-79.40","43.63","TORONTO ISLAND A","6158665","1996-03-11 19:00","1996","03","11","19:00","","-0.1","","-4.1","","74","","17","","6","","15.0","","102.39","","","","-2","",""
"-79.40","43.63","TORONTO ISLAND A","6158665","1996-03-11 20:00","1996","03","11","20:00","","-0.3","","-4.3","","74","","11","","4","","15.0","","102.32","","","","-2","",""
"-79.40","43.63","TORONTO ISLAND A","6158665","1996-03-11 21:00","1996","03","11","21:00","","-2.2","","-4.7","","83","","14","","4","","15.0","","102.25","","","","-4","",""
"-79.40","43.63","TORONTO ISLAND A","6158665","1996-03-11 22:00","1996","03","11","22:00","","-1.7","","-4.4","","82","","14","","9","","15.0","","102.19","","","","-5","",""
"-79.40","43.63","TORONTO ISLAND A","6158665","1996-03-11 23:00","1996","03","11","23:00","","-1.7","","-2.9","","91","","12","","4","","12.9","","102.19","","","","-3","",""
"-79.40","43.63","TORONTO ISLAND A","6158665","1996-03-12 00:00","1996","03","12","00:00","","-2.0","","-3.1","","92","","13","","4","","15.0","","102.12","","","","-3","",""
"-79.40","43.63","TORONTO ISLAND A","6158665","1996-03-12 01:00","1996","03","12","01:00","","-2.6","","-3.9","","91","","","","0","","15.0","","102.09","","","","","",""
"-79.40","43.63","TORONTO ISLAND A","6158665","1996-03-12 02:00","1996","03","12","02:00","","-2.7","","-4.2","","89","","","","0","","12.9","","102.05","","","","","",""
"-79.40","43.63","TORONTO ISLAND A","6158665","1996-03-12 03:00","1996","03","12","03:00","","-2.8","","-3.5","","95","","","","0","","5.6","","101.99","","","","","",""
"-79.40","43.63","TORONTO ISLAND A","6158665","1996-03-12 04:00","1996","03","12","04:00","","-3.1","","-3.9","","94","","26","","6","","6.4","","101.99","","","","-6","",""
"-79.40","43.63","TORONTO ISLAND A","6158665","1996-03-12 05:00","1996","03","12","05:00","","-2.6","","-4.9","","84","","29","","6","","8.0","","101.95","","","","-5","",""
"-79.40","43.63","TORONTO ISLAND A","6158665","1996-03-12 06:00","1996","03","12","06:00","","-3.5","","-6.5","","80","","","","0","","9.7","","101.92","","","","","",""
"-79.40","43.63","TORONTO ISLAND A","6158665","1996-03-12 07:00","1996","03","12","07:00","","-2.8","","-6.7","","74","","31","","6","","8.0","","101.92","","","","-5","",""
"-79.40","43.63","TORONTO ISLAND A","6158665","1996-03-12 08:00","1996","03","12","08:00","","-1.4","","-6.2","","70","","","","0","","8.0","","101.88","","","","","",""
"-79.40","43.63","TORONTO ISLAND A","6158665","1996-03-12 09:00","1996","03","12","09:00","","-1.0","","-5.3","","73","","24","","9","","8.0","","101.85","","","","-4","",""
"-79.40","43.63","TORONTO ISLAND A","6158665","1996-03-12 10:00","1996","03","12","10:00","","0.3","","-5.1","","67","","19","","9","","8.0","","101.82","","","","","",""
"-79.40","43.63","TORONTO ISLAND A","6158665","1996-03-12 11:00","1996","03","12","11:00","","1.2","","-5.5","","61","","18","","11","","15.0","","101.75","","","","","",""
"-79.40","43.63","TORONTO ISLAND A","6158665","1996-03-12 12:00","1996","03","12","12:00","","2.0","","-4.6","","62","","18","","13","","11.3","","101.72","","","","","",""
"-79.40","43.63","TORONTO ISLAND A","6158665","1996-03-12 13:00","1996","03","12","13:00","","1.4","","-4.8","","63","","21","","7","","15.0","","101.65","","","","","",""
"-79.40","43.63","TORONTO ISLAND A","6158665","1996-03-12 14:00","1996","03","12","14:00","","1.8","","-3.1","","70","","21","","7","","15.0","","101.55","","","","","",""
"-79.40","43.63","TORONTO ISLAND A","6158665","1996-03-12 15:00","1996","03","12","15:00","","2.4","","-2.2","","72","","22","","6","","15.0","","101.48","","","","","",""
"-79.40","43.63","TORONTO ISLAND A","6158665","1996-03-12 16:00","1996","03","12","16:00","","3.2","","-3.7","","61","","","","0","","15.0","","101.41","","","","","",""
"-79.40","43.63","TORONTO ISLAND A","6158665","1996-03-12 17:00","1996","03","12","17:00","","3.4","","-5.2","","53","","17","","4","","15.0","","101.38","","","","","",""
"-79.40","43.63","TORONTO ISLAND A","6158665","1996-03-12 18:00","1996","03","12","18:00","","2.8","","-4.9","","57","","","","0","","15.0","","101.38","","","","","",""
"-79.40","43.63","TORONTO ISLAND A","6158665","1996-03-12 19:00","1996","03","12","19:00","","1.4","","-5.3","","61","","","","0","","15.0","","101.35","","","","","",""
"-79.40","43.63","TORONTO ISLAND A","6158665","1996-03-12 20:00","1996","03","12","20:00","","1.0","","-4.4","","67","","","","0","","15.0","","101.31","","","","","",""
"-79.40","43.63","TORONTO ISLAND A","6158665","1996-03-12 21:00","1996","03","12","21:00","","0.4","","-3.9","","73","","","","0","","15.0","","101.31","","","","","",""
"-79.40","43.63","TORONTO ISLAND A","6158665","1996-03-12 22:00","1996","03","12","22:00","","0.2","","-4.3","","72","","","","0","","15.0","","101.28","","","","","",""
"-79.40","43.63","TORONTO ISLAND A","6158665","1996-03-12 23:00","1996","03","12","23:00","","0.4","","-2.6","","80","","9","","7","","11.3","","101.25","","","","","",""
"-79.40","43.63","TORONTO ISLAND A","6158665","1996-03-13 00:00","1996","03","13","00:00","","-0.1","","-0.9","","94","","8","","9","","4.5","","101.25","","","","-3","",""
"-79.40","43.63","TORONTO ISLAND A","6158665","1996-03-13 01:00","1996","03","13","01:00","","-0.2","","-1.1","","94","","8","","6","","8.0","","101.21","","","","-2","",""
"-79.40","43.63","TORONTO ISLAND A","6158665","1996-03-13 02:00","1996","03","13","02:00","","-1.3","","-2.4","","92","","","","0","","6.4","","101.14","","","","","",""
"-79.40","43.63","TORONTO ISLAND A","6158665","1996-03-13 03:00","1996","03","13","03:00","","-0.2","","-2.4","","85","","","","0","","8.0","","101.11","","","","","",""
"-79.40","43.63","TORONTO ISLAND A","6158665","1996-03-13 04:00","1996","03","13","04:00","","-0.8","","-2.5","","88","","","","0","","6.4","","101.11","","","","","",""
"-79.40","43.63","TORONTO ISLAND A","6158665","1996-03-13 05:00","1996","03","13","05:00","","-1.7","","-3.1","","90","","7","","7","","5.6","","101.14","","","","-4","",""
"-79.40","43.63","TORONTO ISLAND A","6158665","1996-03-13 06:00","1996","03","13","06:00","","-0.9","","-1.3","","97","","8","","6","","3.1","","101.18","","","","-3","",""
"-79.40","43.63","TORONTO ISLAND A","6158665","1996-03-13 07:00","1996","03","13","07:00","","-1.2","","-2.0","","94","","9","","6","","3.7","","101.18","","","","-3","",""
"-79.40","43.63","TORONTO ISLAND A","6158665","1996-03-13 08:00","1996","03","13","08:00","","0.5","","-0.7","","92","","8","","6","","4.0","","101.14","","","","","",""
"-79.40","43.63","TORONTO ISLAND A","6158665","1996-03-13 09:00","1996","03","13","09:00","","2.1","","-0.8","","81","","20","","6","","6.4","","101.14","","","","","",""
"-79.40","43.63","TORONTO ISLAND A","6158665","1996-03-13 10:00","1996","03","13","10:00","","1.8","","-1.0","","82","","21","","6","","8.0","","101.11","","","","","",""
"-79.40","43.63","TORONTO ISLAND A","6158665","1996-03-13 11:00","1996","03","13","11:00","","2.0","","-2.9","","70","","19","","6","","12.9","","101.04","","","","","",""
"-79.40","43.63","TORONTO ISLAND A","6158665","1996-03-13 12:00","1996","03","13","12:00","","2.9","","-2.7","","67","","20","","6","","12.9","","101.01","","","","","",""
"-79.40","43.63","TORONTO ISLAND A","6158665","1996-03-13 13:00","1996","03","13","13:00","","3.6","","-3.4","","60","","19","","6","","15.0","","100.94","","","","","",""
"-79.40","43.63","TORONTO ISLAND A","6158665","1996-03-13 14:00","1996","03","13","14:00","","3.8","","-5.4","","51","","8","","6","","15.0","","100.88","","","","","",""
"-79.40","43.63","TORONTO ISLAND A","6158665","1996-03-13 15:00","1996","03","13","15:00","","3.5","","-4.0","","58","","7","","7","","15.0","","100.84","","","","","",""
"-79.40","43.63","TORONTO ISLAND A","6158665","1996-03-13 16:00","1996","03","13","16:00","","4.0","","-5.7","","49","","8","","7","","15.0","","100.81","","","","","",""
"-79.40","43.63","TORONTO ISLAND A","6158665","1996-03-13 17:00","1996","03","13","17:00","","3.1","","-5.9","","52","","9","","13","","15.0","","100.77","","","","","",""
"-79.40","43.63","TORONTO ISLAND A","6158665","1996-03-13 18:00","1996","03","13","18:00","","2.1","","-4.4","","62","","8","","13","","15.0","","100.77","","","","","",""
"-79.40","43.63","TORONTO ISLAND A","6158665","1996-03-13 19:00","1996","03","13","19:00","","1.8","","-3.3","","69","","8","","13","","15.0","","100.74","","","","","",""
"-79.40","43.63","TORONTO ISLAND A","6158665","1996-03-13 20:00","1996","03","13","20:00","","2.0","","-2.3","","73","","11","","7","","15.0","","100.71","","","","","",""
"-79.40","43.63","TORONTO ISLAND A","6158665","1996-03-13 21:00","1996","03","13","21:00","","2.1","","-2.2","","73","","8","","9","","12.9","","100.71","","","","","",""
"-79.40","43.63","TORONTO ISLAND A","6158665","1996-03-13 22:00","1996","03","13","22:00","","2.4","","-2.8","","68","","9","","11","","15.0","","100.64","","","","","",""
"-79.40","43.63","TORONTO ISLAND A","6158665","1996-03-13 23:00","1996","03","13","23:00","","1.5","","-1.7","","79","","8","","9","","11.3","","100.57","","","","","",""
"-79.40","43.63","TORONTO ISLAND A","6158665","1996-03-14 00:00","1996","03","14","00:00","","0.9","","-2.0","","81","","9","","9","","9.7","","100.54","","","","","",""
"-79.40","43.63","TORONTO ISLAND A","6158665","1996-03-14 01:00","1996","03","14","01:00","","0.6","","-1.4","","86","","8","","9","","9.7","","100.47","","","","","",""
"-79.40","43.63","TORONTO ISLAND A","6158665","1996-03-14 02:00","1996","03","14","02:00","","0.6","","-1.9","","83","","8","","7","","9.7","","100.44","","","","","",""
"-79.40","43.63","TORONTO ISLAND A","6158665","1996-03-14 03:00","1996","03","14","03:00","","1.1","","-2.0","","80","","8","","7","","9.7","","100.34","","","","","",""
"-79.40","43.63","TORONTO ISLAND A","6158665","1996-03-14 04:00","1996","03","14","04:00","","1.1","","-3.1","","74","","9","","9","","11.3","","100.30","","","","","",""
"-79.40","43.63","TORONTO ISLAND A","6158665","1996-03-14 05:00","1996","03","14","05:00","","0.8","","-3.1","","75","","9","","11","","11.3","","100.27","","","","","",""
"-79.40","43.63","TORONTO ISLAND A","6158665","1996-03-14 06:00","1996","03","14","06:00","","0.4","","-2.8","","79","","8","","11","","9.7","","100.24","","","","","",""
"-79.40","43.63","TORONTO ISLAND A","6158665","1996-03-14 07:00","1996","03","14","07:00","","0.6","","-2.3","","81","","7","","11","","8.0","","100.24","","","","","",""
"-79.40","43.63","TORONTO ISLAND A","6158665","1996-03-14 08:00","1996","03","14","08:00","","1.6","","-1.5","","80","","7","","13","","5.6","","100.17","","","","","",""
"-79.40","43.63","TORONTO ISLAND A","6158665","1996-03-14 09:00","1996","03","14","09:00","","2.9","","-0.4","","79","","8","","11","","6.4","","100.14","","","","","",""
"-79.40","43.63","TORONTO ISLAND A","6158665","1996-03-14 10:00","1996","03","14","10:00","","3.4","","0.1","","79","","9","","7","","8.0","","100.07","","","","","",""
"-79.40","43.63","TORONTO ISLAND A","6158665","1996-03-14 11:00","1996","03","14","11:00","","4.1","","0.3","","76","","8","","6","","8.0","","100.00","","","","","",""
"-79.40","43.63","TORONTO ISLAND A","6158665","1996-03-14 12:00","1996","03","14","12:00","","5.9","","-0.3","","64","","18","","6","","15.0","","99.93","","","","","",""
"-79.40","43.63","TORONTO ISLAND A","6158665","1996-03-14 13:00","1996","03","14","13:00","","6.6","","0.9","","67","","17","","6","","15.0","","99.83","","","","","",""
"-79.40","43.63","TORONTO ISLAND A","6158665","1996-03-14 14:00","1996","03","14","14:00","","7.6","","2.9","","72","","23","","7","","9.7","","99.77","","","","","",""
"-79.40","43.63","TORONTO ISLAND A","6158665","1996-03-14 15:00","1996","03","14","15:00","","6.4","","3.3","","81","","20","","22","","8.0","","99.70","","","","","",""
"-79.40","43.63","TORONTO ISLAND A","6158665","1996-03-14 16:00","1996","03","14","16:00","","5.9","","3.0","","82","","23","","17","","8.0","","99.73","","","","","",""
"-79.40","43.63","TORONTO ISLAND A","6158665","1996-03-14 17:00","1996","03","14","17:00","","11.4","","4.3","","62","","29","","24","","8.0","","99.77","","","","","",""
"-79.40","43.63","TORONTO ISLAND A","6158665","1996-03-14 18:00","1996","03","14","18:00","","9.7","","3.8","","67","","29","","30","","8.0","","99.83","","","","","",""
"-79.40","43.63","TORONTO ISLAND A","6158665","1996-03-14 19:00","1996","03","14","19:00","","8.0","","3.0","","71","","30","","20","","8.0","","99.90","","","","","",""
"-79.40","43.63","TORONTO ISLAND A","6158665","1996-03-14 20:00","1996","03","14","20:00","","7.5","","2.8","","72","","30","","19","","8.0","","99.93","","","","","",""
"-79.40","43.63","TORONTO ISLAND A","6158665","1996-03-14 21:00","1996","03","14","21:00","","6.3","","2.1","","74","","32","","19","","8.0","","100.04","","","","","",""
"-79.40","43.63","TORONTO ISLAND A","6158665","1996-03-14 22:00","1996","03","14","22:00","","5.1","","1.6","","78","","33","","15","","9.7","","99.97","","","","","",""
"-79.40","43.63","TORONTO ISLAND A","6158665","1996-03-14 23:00","1996","03","14","23:00","","4.6","","1.3","","79","","33","","15","","8.0","","99.93","","","","","",""
"-79.40","43.63","TORONTO ISLAND A","6158665","1996-03-15 00:00","1996","03","15","00:00","","3.2","","1.1","","86","","31","","7","","6.4","","99.93","","","","","",""
"-79.40","43.63","TORONTO ISLAND A","6158665","1996-03-15 01:00","1996","03","15","01:00","","3.1","","0.8","","85","","32","","11","","6.4","","99.93","","","","","",""
"-79.40","43.63","TORONTO ISLAND A","6158665","1996-03-15 02:00","1996","03","15","02:00","","2.8","","0.7","","86","","27","","4","","5.6","","99.97","","","","","",""
"-79.40","43.63","TORONTO ISLAND A","6158665","1996-03-15 03:00","1996","03","15","03:00","","2.4","","0.8","","89","","34","","7","","6.4","","99.90","","","","","",""
"-79.40","43.63","TORONTO ISLAND A","6158665","1996-03-15 04:00","1996","03","15","04:00","","2.0","","0.6","","90","","31","","7","","6.4","","99.87","","","","","",""
"-79.40","43.63","TORONTO ISLAND A","6158665","1996-03-15 05:00","1996","03","15","05:00","","2.3","","0.6","","89","","29","","6","","8.0","","99.80","","","","","",""
"-79.40","43.63","TORONTO ISLAND A","6158665","1996-03-15 06:00","1996","03","15","06:00","","2.1","","0.5","","89","","34","","7","","8.0","","99.77","","","","","",""
"-79.40","43.63","TORONTO ISLAND A","6158665","1996-03-15 07:00","1996","03","15","07:00","","2.1","","0.3","","88","","33","","6","","9.7","","99.77","","","","","",""
"-79.40","43.63","TORONTO ISLAND A","6158665","1996-03-15 08:00","1996","03","15","08:00","","2.3","","0.3","","87","","33","","11","","11.3","","99.77","","","","","",""
"-79.40","43.63","TORONTO ISLAND A","6158665","1996-03-15 09:00","1996","03","15","09:00","","2.7","","-0.4","","80","","36","","9","","15.0","","99.70","","","","","",""
"-79.40","43.63","TORONTO ISLAND A","6158665","1996-03-15 10:00","1996","03","15","10:00","","3.0","","-0.3","","79","","31","","9","","15.0","","99.67","","","","","",""
"-79.40","43.63","TORONTO ISLAND A","6158665","1996-03-15 11:00","1996","03","15","11:00","","3.2","","0.0","","79","","32","","11","","15.0","","99.60","","","","","",""
"-79.40","43.63","TORONTO ISLAND A","6158665","1996-03-15 12:00","1996","03","15","12:00","","3.2","","-0.4","","77","","25","","13","","15.0","","99.56","","","","","",""
"-79.40","43.63","TORONTO ISLAND A","6158665","1996-03-15 13:00","1996","03","15","13:00","","2.8","","-0.9","","77","","33","","15","","15.0","","99.53","","","","","",""
"-79.40","43.63","TORONTO ISLAND A","6158665","1996-03-15 14:00","1996","03","15","14:00","","3.0","","-1.8","","71","","35","","11","","15.0","","99.50","","","","","",""
"-79.40","43.63","TORONTO ISLAND A","6158665","1996-03-15 15:00","1996","03","15","15:00","","3.2","","-1.9","","69","","32","","15","","15.0","","99.50","","","","","",""
"-79.40","43.63","TORONTO ISLAND A","6158665","1996-03-15 16:00","1996","03","15","16:00","","2.7","","-2.5","","69","","34","","19","","15.0","","99.50","","","","","",""
"-79.40","43.63","TORONTO ISLAND A","6158665","1996-03-15 17:00","1996","03","15","17:00","","1.3","","-4.2","","67","","34","","22","","15.0","","99.60","","","","","",""
"-79.40","43.63","TORONTO ISLAND A","6158665","1996-03-15 18:00","1996","03","15","18:00","","0.2","","-5.2","","67","","32","","28","","15.0","","99.73","","","","","",""
"-79.40","43.63","TORONTO ISLAND A","6158665","1996-03-15 19:00","1996","03","15","19:00","","-0.6","","-6.7","","63","","32","","26","","15.0","","99.83","","","","-7","",""
"-79.40","43.63","TORONTO ISLAND A","6158665","1996-03-15 20:00","1996","03","15","20:00","","-1.1","","-11.4","","45","","32","","26","","15.0","","99.93","","","","-7","",""
"-79.40","43.63","TORONTO ISLAND A","6158665","1996-03-15 21:00","1996","03","15","21:00","","-2.4","","-9.6","","58","","32","","22","","15.0","","100.04","","","","-9","",""
"-79.40","43.63","TORONTO ISLAND A","6158665","1996-03-15 22:00","1996","03","15","22:00","","-2.4","","-10.3","","55","","31","","22","","15.0","","100.10","","","","-9","",""
"-79.40","43.63","TORONTO ISLAND A","6158665","1996-03-15 23:00","1996","03","15","23:00","","-2.6","","-9.8","","58","","33","","20","","15.0","","100.14","","","","-9","",""
"-79.40","43.63","TORONTO ISLAND A","6158665","1996-03-16 00:00","1996","03","16","00:00","","-2.4","","-10.1","","55","","35","","19","","15.0","","100.20","","","","-8","",""
"-79.40","43.63","TORONTO ISLAND A","6158665","1996-03-16 01:00","1996","03","16","01:00","","-2.6","","-10.6","","54","","34","","17","","15.0","","100.30","","","","-8","",""
"-79.40","43.63","TORONTO ISLAND A","6158665","1996-03-16 02:00","1996","03","16","02:00","","-2.9","","-10.6","","55","","34","","17","","15.0","","100.41","","","","-8","",""
"-79.40","43.63","TORONTO ISLAND A","6158665","1996-03-16 03:00","1996","03","16","03:00","","-3.4","","-10.8","","57","","34","","15","","15.0","","100.44","","","","-9","",""
"-79.40","43.63","TORONTO ISLAND A","6158665","1996-03-16 04:00","1996","03","16","04:00","","-3.9","","-11.7","","55","","35","","26","","15.0","","100.51","","","","-11","",""
"-79.40","43.63","TORONTO ISLAND A","6158665","1996-03-16 05:00","1996","03","16","05:00","","-4.5","","-12.2","","55","","35","","20","","15.0","","100.57","","","","-11","",""
"-79.40","43.63","TORONTO ISLAND A","6158665","1996-03-16 06:00","1996","03","16","06:00","","-5.0","","-12.8","","54","","33","","17","","15.0","","100.67","","","","-11","",""
"-79.40","43.63","TORONTO ISLAND A","6158665","1996-03-16 07:00","1996","03","16","07:00","","-5.3","","-12.5","","57","","33","","15","","15.0","","100.77","","","","-11","",""
"-79.40","43.63","TORONTO ISLAND A","6158665","1996-03-16 08:00","1996","03","16","08:00","","-5.0","","-13.5","","51","","33","","13","","15.0","","100.88","","","","-10","",""
"-79.40","43.63","TORONTO ISLAND A","6158665","1996-03-16 09:00","1996","03","16","09:00","","-3.8","","-14.3","","44","","2","","7","","15.0","","100.91","","","","-7","",""
"-79.40","43.63","TORONTO ISLAND A","6158665","1996-03-16 10:00","1996","03","16","10:00","","-2.8","","-15.2","","38","","1","","7","","15.0","","100.91","","","","-6","",""
"-79.40","43.63","TORONTO ISLAND A","6158665","1996-03-16 11:00","1996","03","16","11:00","","-2.4","","-12.2","","47","","22","","11","","15.0","","100.91","","","","-6","",""
"-79.40","43.63","TORONTO ISLAND A","6158665","1996-03-16 12:00","1996","03","16","12:00","","-1.3","","-11.6","","45","","14","","9","","15.0","","100.88","","","","-5","",""
"-79.40","43.63","TORONTO ISLAND A","6158665","1996-03-16 13:00","1996","03","16","13:00","","-0.9","","-10.7","","47","","12","","11","","15.0","","100.91","","","","-5","",""
"-79.40","43.63","TORONTO ISLAND A","6158665","1996-03-16 14:00","1996","03","16","14:00","","-0.5","","-11.8","","42","","13","","11","","15.0","","100.88","","","","-4","",""
"-79.40","43.63","TORONTO ISLAND A","6158665","1996-03-16 15:00","1996","03","16","15:00","","-0.2","","-12.3","","40","","18","","15","","15.0","","100.88","","","","-5","",""
"-79.40","43.63","TORONTO ISLAND A","6158665","1996-03-16 16:00","1996","03","16","16:00","","-0.6","","-11.9","","42","","14","","11","","15.0","","100.84","","","","-4","",""
"-79.40","43.63","TORONTO ISLAND A","6158665","1996-03-16 17:00","1996","03","16","17:00","","-0.8","","-12.8","","40","","12","","13","","15.0","","100.84","","","","-5","",""
"-79.40","43.63","TORONTO ISLAND A","6158665","1996-03-16 18:00","1996","03","16","18:00","","-1.1","","-12.6","","41","","13","","7","","15.0","","100.84","","","","-4","",""
"-79.40","43.63","TORONTO ISLAND A","6158665","1996-03-16 19:00","1996","03","16","19:00","","-1.6","","-11.9","","45","","10","","4","","15.0","","100.84","","","","-3","",""
"-79.40","43.63","TORONTO ISLAND A","6158665","1996-03-16 20:00","1996","03","16","20:00","","-1.3","","-10.1","","51","","5","","9","","15.0","","100.81","","","","-5","",""
"-79.40","43.63","TORONTO ISLAND A","6158665","1996-03-16 21:00","1996","03","16","21:00","","-1.6","","-10.8","","49","","6","","13","","15.0","","100.74","","","","-6","",""
"-79.40","43.63","TORONTO ISLAND A","6158665","1996-03-16 22:00","1996","03","16","22:00","","-1.5","","-10.3","","51","","5","","15","","15.0","","100.74","","","","-6","",""
"-79.40","43.63","TORONTO ISLAND A","6158665","1996-03-16 23:00","1996","03","16","23:00","","-2.1","","-9.7","","56","","7","","7","","15.0","","100.77","","","","-5","",""
"-79.40","43.63","TORONTO ISLAND A","6158665","1996-03-17 00:00","1996","03","17","00:00","","-3.0","","-8.4","","66","","5","","13","","15.0","","100.77","","","","-8","",""
"-79.40","43.63","TORONTO ISLAND A","6158665","1996-03-17 01:00","1996","03","17","01:00","","-1.9","","-6.7","","70","","5","","20","","15.0","","100.71","","","","-8","",""
"-79.40","43.63","TORONTO ISLAND A","6158665","1996-03-17 02:00","1996","03","17","02:00","","-1.8","","-6.5","","70","","5","","13","","15.0","","100.67","","","","-6","",""
"-79.40","43.63","TORONTO ISLAND A","6158665","1996-03-17 03:00","1996","03","17","03:00","","-3.0","","-6.5","","77","","5","","15","","15.0","","100.61","","","","-8","",""
"-79.40","43.63","TORONTO ISLAND A","6158665","1996-03-17 04:00","1996","03","17","04:00","","-1.7","","-5.9","","73","","5","","19","","15.0","","100.57","","","","-7","",""
"-79.40","43.63","TORONTO ISLAND A","6158665","1996-03-17 05:00","1996","03","17","05:00","","-1.9","","-5.8","","75","","8","","11","","15.0","","100.61","","","","-6","",""
"-79.40","43.63","TORONTO ISLAND A","6158665","1996-03-17 06:00","1996","03","17","06:00","","-1.3","","-5.8","","71","","10","","13","","15.0","","100.57","","","","-6","",""
"-79.40","43.63","TORONTO ISLAND A","6158665","1996-03-17 07:00","1996","03","17","07:00","","-0.7","","-6.9","","63","","9","","19","","15.0","","100.57","","","","-6","",""
"-79.40","43.63","TORONTO ISLAND A","6158665","1996-03-17 08:00","1996","03","17","08:00","","-0.1","","-6.1","","64","","9","","22","","15.0","","100.57","","","","-6","",""
"-79.40","43.63","TORONTO ISLAND A","6158665","1996-03-17 09:00","1996","03","17","09:00","","0.2","","-6.1","","63","","8","","30","","15.0","","100.57","","","","","",""
"-79.40","43.63","TORONTO ISLAND A","6158665","1996-03-17 10:00","1996","03","17","10:00","","0.4","","-5.9","","63","","8","","33","","15.0","","100.47","","","","","",""
"-79.40","43.63","TORONTO ISLAND A","6158665","1996-03-17 11:00","1996","03","17","11:00","","1.0","","-5.0","","64","","7","","37","","15.0","","100.44","","","","","",""
"-79.40","43.63","TORONTO ISLAND A","6158665","1996-03-17 12:00","1996","03","17","12:00","","1.1","","-4.7","","65","","7","","41","","15.0","","100.34","","","","","",""
"-79.40","43.63","TORONTO ISLAND A","6158665","1996-03-17 13:00","1996","03","17","13:00","","1.0","","-4.7","","66","","7","","35","","15.0","","100.30","","","","","",""
"-79.40","43.63","TORONTO ISLAND A","6158665","1996-03-17 14:00","1996","03","17","14:00","","1.3","","-3.0","","73","","7","","35","","15.0","","100.30","","","","","",""
"-79.40","43.63","TORONTO ISLAND A","6158665","1996-03-17 15:00","1996","03","17","15:00","","1.8","","-5.8","","57","","6","","39","","15.0","","100.27","","","","","",""
"-79.40","43.63","TORONTO ISLAND A","6158665","1996-03-17 16:00","1996","03","17","16:00","","1.7","","-7.0","","52","","7","","35","","15.0","","100.20","","","","","",""
"-79.40","43.63","TORONTO ISLAND A","6158665","1996-03-17 17:00","1996","03","17","17:00","","2.0","","-8.5","","46","","6","","37","","15.0","","100.20","","","","","",""
"-79.40","43.63","TORONTO ISLAND A","6158665","1996-03-17 18:00","1996","03","17","18:00","","1.1","","-5.7","","60","","7","","28","","15.0","","100.20","","","","","",""
"-79.40","43.63","TORONTO ISLAND A","6158665","1996-03-17 19:00","1996","03","17","19:00","","0.6","","-4.8","","67","","7","","22","","15.0","","100.24","","","","","",""
"-79.40","43.63","TORONTO ISLAND A","6158665","1996-03-17 20:00","1996","03","17","20:00","","0.8","","-5.3","","64","","7","","20","","15.0","","100.24","","","","","",""
"-79.40","43.63","TORONTO ISLAND A","6158665","1996-03-17 21:00","1996","03","17","21:00","","0.4","","-3.5","","75","","7","","19","","15.0","","100.24","","","","","",""
"-79.40","43.63","TORONTO ISLAND A","6158665","1996-03-17 22:00","1996","03","17","22:00","","0.2","","-3.4","","77","","7","","15","","15.0","","100.24","","","","","",""
"-79.40","43.63","TORONTO ISLAND A","6158665","1996-03-17 23:00","1996","03","17","23:00","","-0.3","","-3.3","","80","","7","","11","","15.0","","100.24","","","","-4","",""
"-79.40","43.63","TORONTO ISLAND A","6158665","1996-03-18 00:00","1996","03","18","00:00","","0.5","","-3.8","","73","","5","","13","","15.0","","100.24","","","","","",""
"-79.40","43.63","TORONTO ISLAND A","6158665","1996-03-18 01:00","1996","03","18","01:00","","-0.2","","-4.0","","76","","6","","15","","15.0","","100.24","","","","-5","",""
"-79.40","43.63","TORONTO ISLAND A","6158665","1996-03-18 02:00","1996","03","18","02:00","","0.2","","-4.0","","73","","5","","7","","15.0","","100.24","","","","","",""
"-79.40","43.63","TORONTO ISLAND A","6158665","1996-03-18 03:00","1996","03","18","03:00","","-1.2","","-4.4","","79","","","","0","","15.0","","100.24","","","","","",""
"-79.40","43.63","TORONTO ISLAND A","6158665","1996-03-18 04:00","1996","03","18","04:00","","-0.5","","-4.4","","75","","32","","6","","15.0","","100.20","","","","-3","",""
"-79.40","43.63","TORONTO ISLAND A","6158665","1996-03-18 05:00","1996","03","18","05:00","","-1.6","","-5.0","","78","","","","0","","15.0","","100.24","","","","","",""
"-79.40","43.63","TORONTO ISLAND A","6158665","1996-03-18 06:00","1996","03","18","06:00","","-1.5","","-4.5","","80","","","","0","","15.0","","100.24","","","","","",""
"-79.40","43.63","TORONTO ISLAND A","6158665","1996-03-18 07:00","1996","03","18","07:00","","-0.3","","-3.2","","81","","8","","6","","15.0","","100.27","","","","-2","",""
"-79.40","43.63","TORONTO ISLAND A","6158665","1996-03-18 08:00","1996","03","18","08:00","","1.1","","-4.3","","67","","8","","7","","15.0","","100.24","","","","","",""
"-79.40","43.63","TORONTO ISLAND A","6158665","1996-03-18 09:00","1996","03","18","09:00","","2.1","","-2.8","","70","","20","","7","","15.0","","100.27","","","","","",""
"-79.40","43.63","TORONTO ISLAND A","6158665","1996-03-18 10:00","1996","03","18","10:00","","2.4","","-2.0","","73","","20","","9","","15.0","","100.27","","","","","",""
"-79.40","43.63","TORONTO ISLAND A","6158665","1996-03-18 11:00","1996","03","18","11:00","","2.1","","-1.8","","75","","21","","6","","15.0","","100.27","","","","","",""
"-79.40","43.63","TORONTO ISLAND A","6158665","1996-03-18 12:00","1996","03","18","12:00","","3.4","","-1.0","","73","","19","","9","","15.0","","100.24","","","","","",""
"-79.40","43.63","TORONTO ISLAND A","6158665","1996-03-18 13:00","1996","03","18","13:00","","4.6","","-1.0","","67","","18","","9","","15.0","","100.20","","","","","",""
"-79.40","43.63","TORONTO ISLAND A","6158665","1996-03-18 14:00","1996","03","18","14:00","","4.1","","-1.9","","65","","19","","9","","15.0","","100.20","","","","","",""
"-79.40","43.63","TORONTO ISLAND A","6158665","1996-03-18 15:00","1996","03","18","15:00","","5.5","","0.6","","71","","","","0","","15.0","","100.20","","","","","",""
"-79.40","43.63","TORONTO ISLAND A","6158665","1996-03-18 16:00","1996","03","18","16:00","","5.8","","0.8","","70","","9","","4","","15.0","","100.14","","","","","",""
"-79.40","43.63","TORONTO ISLAND A","6158665","1996-03-18 17:00","1996","03","18","17:00","","5.8","","0.4","","68","","13","","6","","15.0","","100.14","","","","","",""
"-79.40","43.63","TORONTO ISLAND A","6158665","1996-03-18 18:00","1996","03","18","18:00","","2.8","","0.1","","82","","10","","9","","15.0","","100.20","","","","","",""
"-79.40","43.63","TORONTO ISLAND A","6158665","1996-03-18 19:00","1996","03","18","19:00","","1.7","","0.5","","92","","9","","7","","15.0","","100.24","","","","","",""
"-79.40","43.63","TORONTO ISLAND A","6158665","1996-03-18 20:00","1996","03","18","20:00","","1.6","","0.7","","94","","7","","4","","15.0","","100.24","","","","","",""
"-79.40","43.63","TORONTO ISLAND A","6158665","1996-03-18 21:00","1996","03","18","21:00","","1.6","","0.6","","93","","4","","4","","15.0","","100.24","","","","","",""
"-79.40","43.63","TORONTO ISLAND A","6158665","1996-03-18 22:00","1996","03","18","22:00","","2.2","","0.2","","87","","15","","7","","12.9","","100.24","","","","","",""
"-79.40","43.63","TORONTO ISLAND A","6158665","1996-03-18 23:00","1996","03","18","23:00","","0.5","","-1.3","","88","","12","","4","","11.3","","100.20","","","","","",""
"-79.40","43.63","TORONTO ISLAND A","6158665","1996-03-19 00:00","1996","03","19","00:00","","1.8","","-0.6","","84","","10","","7","","15.0","","100.24","","","","","",""
"-79.40","43.63","TORONTO ISLAND A","6158665","1996-03-19 01:00","1996","03","19","01:00","","2.1","","-0.1","","85","","7","","13","","9.7","","100.20","","","","","",""
"-79.40","43.63","TORONTO ISLAND A","6158665","1996-03-19 02:00","1996","03","19","02:00","","2.6","","-0.8","","78","","8","","11","","12.9","","100.17","","","","","",""
"-79.40","43.63","TORONTO ISLAND A","6158665","1996-03-19 03:00","1996","03","19","03:00","","2.6","","-0.4","","81","","7","","6","","11.3","","100.17","","","","","",""
"-79.40","43.63","TORONTO ISLAND A","6158665","1996-03-19 04:00","1996","03","19","04:00","","3.3","","-0.7","","75","","4","","11","","11.3","","100.17","","","","","",""
"-79.40","43.63","TORONTO ISLAND A","6158665","1996-03-19 05:00","1996","03","19","05:00","","3.9","","-1.0","","70","","5","","15","","12.9","","100.14","","","","","",""
"-79.40","43.63","TORONTO ISLAND A","6158665","1996-03-19 06:00","1996","03","19","06:00","","3.5","","-1.3","","71","","4","","17","","15.0","","100.07","","","","","",""
"-79.40","43.63","TORONTO ISLAND A","6158665","1996-03-19 07:00","1996","03","19","07:00","","2.7","","-0.8","","78","","7","","13","","9.7","","100.14","","","","","",""
"-79.40","43.63","TORONTO ISLAND A","6158665","1996-03-19 08:00","1996","03","19","08:00","","3.7","","-0.8","","72","","6","","26","","15.0","","100.10","","","","","",""
"-79.40","43.63","TORONTO ISLAND A","6158665","1996-03-19 09:00","1996","03","19","09:00","","4.9","","-1.3","","64","","6","","33","","15.0","","100.04","","","","","",""
"-79.40","43.63","TORONTO ISLAND A","6158665","1996-03-19 10:00","1996","03","19","10:00","","5.5","","-1.8","","59","","6","","43","","15.0","","100.00","","","","","",""
"-79.40","43.63","TORONTO ISLAND A","6158665","1996-03-19 11:00","1996","03","19","11:00","","6.6","","-0.1","","62","","6","","46","","15.0","","99.93","","","","","",""
"-79.40","43.63","TORONTO ISLAND A","6158665","1996-03-19 12:00","1996","03","19","12:00","","8.1","","-1.4","","51","","6","","46","","15.0","","99.77","","","","","",""
"-79.40","43.63","TORONTO ISLAND A","6158665","1996-03-19 13:00","1996","03","19","13:00","","9.6","","-0.9","","48","","7","","48","","15.0","","99.63","","","","","",""
"-79.40","43.63","TORONTO ISLAND A","6158665","1996-03-19 14:00","1996","03","19","14:00","","9.7","","0.0","","51","","6","","44","","15.0","","99.53","","","","","",""
"-79.40","43.63","TORONTO ISLAND A","6158665","1996-03-19 15:00","1996","03","19","15:00","","7.8","","0.1","","58","","7","","43","","15.0","","99.50","","","","","",""
"-79.40","43.63","TORONTO ISLAND A","6158665","1996-03-19 16:00","1996","03","19","16:00","","8.8","","-0.8","","51","","7","","44","","15.0","","99.36","","","","","",""
"-79.40","43.63","TORONTO ISLAND A","6158665","1996-03-19 17:00","1996","03","19","17:00","","10.9","","-1.4","","42","","5","","41","","15.0","","99.23","","","","","",""
"-79.40","43.63","TORONTO ISLAND A","6158665","1996-03-19 18:00","1996","03","19","18:00","","10.7","","-2.3","","40","","5","","43","","15.0","","99.20","","","","","",""
"-79.40","43.63","TORONTO ISLAND A","6158665","1996-03-19 19:00","1996","03","19","19:00","","10.0","","-4.8","","35","","4","","37","","15.0","","99.13","","","","","",""
"-79.40","43.63","TORONTO ISLAND A","6158665","1996-03-19 20:00","1996","03","19","20:00","","9.3","","-6.4","","32","","4","","50","","15.0","","99.09","","","","","",""
"-79.40","43.63","TORONTO ISLAND A","6158665","1996-03-19 21:00","1996","03","19","21:00","","8.6","","-7.4","","31","","4","","44","","15.0","","98.99","","","","","","Drizzle"
"-79.40","43.63","TORONTO ISLAND A","6158665","1996-03-19 22:00","1996","03","19","22:00","","8.1","","-7.0","","34","","3","","43","","15.0","","98.83","","","","","","Rain"
"-79.40","43.63","TORONTO ISLAND A","6158665","1996-03-19 23:00","1996","03","19","23:00","","7.9","","-6.4","","36","","4","","43","","15.0","","98.83","","","","","",""
"-79.40","43.63","TORONTO ISLAND A","6158665","1996-03-20 00:00","1996","03","20","00:00","","6.8","","-4.5","","44","","3","","35","","15.0","","98.86","","","","","","Rain"
"-79.40","43.63","TORONTO ISLAND A","6158665","1996-03-20 01:00","1996","03","20","01:00","","5.5","","-3.2","","53","","4","","33","","15.0","","98.83","","","","","","Rain"
"-79.40","43.63","TORONTO ISLAND A","6158665","1996-03-20 02:00","1996","03","20","02:00","","1.3","","0.9","","97","","5","","46","","2.4","","98.72","","","","","","Heavy Rain"
"-79.40","43.63","TORONTO ISLAND A","6158665","1996-03-20 03:00","1996","03","20","03:00","","1.1","","0.9","","99","","4","","41","","1.6","","98.59","","","","","","Heavy Snow"
"-79.40","43.63","TORONTO ISLAND A","6158665","1996-03-20 04:00","1996","03","20","04:00","","1.7","","1.1","","96","","3","","41","","9.7","","98.56","","","","","","Moderate Rain"
"-79.40","43.63","TORONTO ISLAND A","6158665","1996-03-20 05:00","1996","03","20","05:00","","2.3","","0.9","","90","","4","","33","","15.0","","98.52","","","","","","Rain"
"-79.40","43.63","TORONTO ISLAND A","6158665","1996-03-20 06:00","1996","03","20","06:00","","2.3","","0.4","","87","","4","","39","","15.0","","98.52","","","","","",""
"-79.40","43.63","TORONTO ISLAND A","6158665","1996-03-20 07:00","1996","03","20","07:00","","2.1","","-0.2","","85","","3","","39","","15.0","","98.52","","","","","",""
"-79.40","43.63","TORONTO ISLAND A","6158665","1996-03-20 08:00","1996","03","20","08:00","","1.4","","0.2","","92","","4","","37","","4.3","","98.52","","","","","","Moderate Snow"
"-79.40","43.63","TORONTO ISLAND A","6158665","1996-03-20 09:00","1996","03","20","09:00","","1.7","","0.4","","91","","3","","33","","9.7","","98.52","","","","","",""
"-79.40","43.63","TORONTO ISLAND A","6158665","1996-03-20 10:00","1996","03","20","10:00","","1.8","","0.5","","91","","4","","30","","5.6","","98.56","","","","","","Moderate Snow"
"-79.40","43.63","TORONTO ISLAND A","6158665","1996-03-20 11:00","1996","03","20","11:00","","1.7","","0.7","","93","","2","","33","","3.2","","98.56","","","","","","Heavy Snow"
"-79.40","43.63","TORONTO ISLAND A","6158665","1996-03-20 12:00","1996","03","20","12:00","","2.0","","1.0","","93","","3","","30","","6.4","","98.59","","","","","","Moderate Snow"
"-79.40","43.63","TORONTO ISLAND A","6158665","1996-03-20 13:00","1996","03","20","13:00","","2.2","","0.9","","91","","2","","28","","4.8","","98.59","","","","","","Heavy Snow"
"-79.40","43.63","TORONTO ISLAND A","6158665","1996-03-20 14:00","1996","03","20","14:00","","2.4","","1.3","","92","","4","","22","","8.0","","98.62","","","","","","Moderate Rain"
"-79.40","43.63","TORONTO ISLAND A","6158665","1996-03-20 15:00","1996","03","20","15:00","","2.5","","1.0","","90","","3","","24","","12.9","","98.66","","","","","","Rain"
"-79.40","43.63","TORONTO ISLAND A","6158665","1996-03-20 16:00","1996","03","20","16:00","","2.5","","1.0","","90","","1","","28","","8.0","","98.69","","","","","","Rain"
"-79.40","43.63","TORONTO ISLAND A","6158665","1996-03-20 17:00","1996","03","20","17:00","","2.4","","0.6","","88","","1","","35","","12.9","","98.76","","","","","","Moderate Snow"
"-79.40","43.63","TORONTO ISLAND A","6158665","1996-03-20 18:00","1996","03","20","18:00","","2.0","","0.8","","92","","1","","28","","6.4","","98.83","","","","","","Moderate Snow"
"-79.40","43.63","TORONTO ISLAND A","6158665","1996-03-20 19:00","1996","03","20","19:00","","2.5","","0.0","","84","","1","","32","","15.0","","98.86","","","","","",""
"-79.40","43.63","TORONTO ISLAND A","6158665","1996-03-20 20:00","1996","03","20","20:00","","2.1","","0.0","","86","","2","","33","","11.3","","98.93","","","","","","Moderate Snow"
"-79.40","43.63","TORONTO ISLAND A","6158665","1996-03-20 21:00","1996","03","20","21:00","","1.8","","0.3","","90","","36","","22","","12.9","","98.96","","","","","","Moderate Snow"
"-79.40","43.63","TORONTO ISLAND A","6158665","1996-03-20 22:00","1996","03","20","22:00","","1.8","","0.1","","88","","36","","22","","15.0","","98.96","","","","","",""
"-79.40","43.63","TORONTO ISLAND A","6158665","1996-03-20 23:00","1996","03","20","23:00","","1.4","","-0.2","","89","","34","","24","","9.7","","98.99","","","","","",""
"-79.40","43.63","TORONTO ISLAND A","6158665","1996-03-21 00:00","1996","03","21","00:00","","1.0","","-0.3","","91","","34","","22","","4.8","","98.99","","","","","",""
"-79.40","43.63","TORONTO ISLAND A","6158665","1996-03-21 01:00","1996","03","21","01:00","","0.6","","-1.4","","86","","34","","24","","15.0","","99.06","","","","","",""
"-79.40","43.63","TORONTO ISLAND A","6158665","1996-03-21 02:00","1996","03","21","02:00","","0.3","","-2.3","","83","","33","","22","","15.0","","99.06","","","","","","Snow"
"-79.40","43.63","TORONTO ISLAND A","6158665","1996-03-21 03:00","1996","03","21","03:00","","-0.2","","-3.6","","78","","34","","28","","15.0","","99.06","","","","-7","",""
"-79.40","43.63","TORONTO ISLAND A","6158665","1996-03-21 04:00","1996","03","21","04:00","","-0.5","","-4.2","","76","","34","","30","","15.0","","99.06","","","","-7","",""
"-79.40","43.63","TORONTO ISLAND A","6158665","1996-03-21 05:00","1996","03","21","05:00","","-2.6","","-5.2","","82","","33","","26","","15.0","","99.09","","","","-9","",""
"-79.40","43.63","TORONTO ISLAND A","6158665","1996-03-21 06:00","1996","03","21","06:00","","-3.2","","-6.1","","80","","34","","28","","15.0","","99.13","","","","-10","",""
"-79.40","43.63","TORONTO ISLAND A","6158665","1996-03-21 07:00","1996","03","21","07:00","","-4.2","","-7.1","","80","","33","","39","","11.3","","99.20","","","","-13","","Snow"
"-79.40","43.63","TORONTO ISLAND A","6158665","1996-03-21 08:00","1996","03","21","08:00","","-4.8","","-7.0","","85","","33","","33","","3.1","","99.23","","","","-13","","Snow"
"-79.40","43.63","TORONTO ISLAND A","6158665","1996-03-21 09:00","1996","03","21","09:00","","-4.4","","-7.7","","78","","33","","37","","15.0","","99.26","","","","-13","","Snow"
"-79.40","43.63","TORONTO ISLAND A","6158665","1996-03-21 10:00","1996","03","21","10:00","","-4.0","","-7.9","","74","","33","","35","","15.0","","99.26","","","","-12","",""
"-79.40","43.63","TORONTO ISLAND A","6158665","1996-03-21 11:00","1996","03","21","11:00","","-3.3","","-7.7","","72","","34","","26","","15.0","","99.33","","","","-10","",""
"-79.40","43.63","TORONTO ISLAND A","6158665","1996-03-21 12:00","1996","03","21","12:00","","-2.9","","-7.0","","73","","34","","26","","15.0","","99.36","","","","-10","",""
"-79.40","43.63","TORONTO ISLAND A","6158665","1996-03-21 13:00","1996","03","21","13:00","","-3.2","","-7.4","","73","","32","","30","","15.0","","99.40","","","","-11","",""
"-79.40","43.63","TORONTO ISLAND A","6158665","1996-03-21 14:00","1996","03","21","14:00","","-3.3","","-7.6","","72","","33","","30","","15.0","","99.40","","","","-11","",""
"-79.40","43.63","TORONTO ISLAND A","6158665","1996-03-21 15:00","1996","03","21","15:00","","-3.3","","-7.8","","71","","32","","24","","15.0","","99.43","","","","-10","",""
"-79.40","43.63","TORONTO ISLAND A","6158665","1996-03-21 16:00","1996","03","21","16:00","","-2.9","","-8.4","","66","","33","","22","","15.0","","99.46","","","","-9","",""
"-79.40","43.63","TORONTO ISLAND A","6158665","1996-03-21 17:00","1996","03","21","17:00","","-3.5","","-8.4","","69","","34","","22","","15.0","","99.53","","","","-10","","Snow"
"-79.40","43.63","TORONTO ISLAND A","6158665","1996-03-21 18:00","1996","03","21","18:00","","-3.9","","-8.7","","69","","31","","28","","15.0","","99.60","","","","-11","","Snow"
"-79.40","43.63","TORONTO ISLAND A","6158665","1996-03-21 19:00","1996","03","21","19:00","","-4.2","","-8.6","","71","","32","","19","","15.0","","99.67","","","","-10","",""
"-79.40","43.63","TORONTO ISLAND A","6158665","1996-03-21 20:00","1996","03","21","20:00","","-4.6","","-7.6","","80","","30","","20","","4.8","","99.70","","","","-11","","Snow"
"-79.40","43.63","TORONTO ISLAND A","6158665","1996-03-21 21:00","1996","03","21","21:00","","-4.9","","-7.8","","80","","28","","20","","3.9","","99.73","","","","-11","","Snow"
"-79.40","43.63","TORONTO ISLAND A","6158665","1996-03-21 22:00","1996","03","21","22:00","","-4.8","","-7.4","","82","","29","","19","","5.6","","99.70","","","","-11","","Snow"
"-79.40","43.63","TORONTO ISLAND A","6158665","1996-03-21 23:00","1996","03","21","23:00","","-5.1","","-8.0","","80","","27","","22","","15.0","","99.70","","","","-12","","Snow"
"-79.40","43.63","TORONTO ISLAND A","6158665","1996-03-22 00:00","1996","03","22","00:00","","-5.3","","-8.7","","77","","29","","19","","15.0","","99.67","","","","-12","",""
"-79.40","43.63","TORONTO ISLAND A","6158665","1996-03-22 01:00","1996","03","22","01:00","","-5.5","","-9.3","","75","","29","","26","","15.0","","99.63","","","","-13","",""
"-79.40","43.63","TORONTO ISLAND A","6158665","1996-03-22 02:00","1996","03","22","02:00","","-5.6","","-9.3","","75","","31","","22","","15.0","","99.63","","","","-13","",""
"-79.40","43.63","TORONTO ISLAND A","6158665","1996-03-22 03:00","1996","03","22","03:00","","-5.2","","-9.1","","74","","31","","19","","15.0","","99.56","","","","-12","",""
"-79.40","43.63","TORONTO ISLAND A","6158665","1996-03-22 04:00","1996","03","22","04:00","","-5.2","","-9.0","","75","","29","","22","","15.0","","99.60","","","","-12","",""
"-79.40","43.63","TORONTO ISLAND A","6158665","1996-03-22 05:00","1996","03","22","05:00","","-5.6","","-9.7","","73","","32","","22","","15.0","","99.60","","","","-13","",""
"-79.40","43.63","TORONTO ISLAND A","6158665","1996-03-22 06:00","1996","03","22","06:00","","-6.2","","-10.0","","74","","29","","20","","15.0","","99.63","","","","-13","","Snow"
"-79.40","43.63","TORONTO ISLAND A","6158665","1996-03-22 07:00","1996","03","22","07:00","","-6.3","","-10.6","","72","","28","","15","","15.0","","99.67","","","","-12","",""
"-79.40","43.63","TORONTO ISLAND A","6158665","1996-03-22 08:00","1996","03","22","08:00","","-5.7","","-10.1","","71","","29","","15","","15.0","","99.67","","","","-11","",""
"-79.40","43.63","TORONTO ISLAND A","6158665","1996-03-22 09:00","1996","03","22","09:00","","-4.8","","-9.6","","69","","29","","17","","15.0","","99.67","","","","-11","",""
"-79.40","43.63","TORONTO ISLAND A","6158665","1996-03-22 10:00","1996","03","22","10:00","","-4.5","","-9.9","","66","","30","","19","","9.7","","99.67","","","","-11","","Snow"
"-79.40","43.63","TORONTO ISLAND A","6158665","1996-03-22 11:00","1996","03","22","11:00","","-4.1","","-8.9","","69","","25","","19","","15.0","","99.63","","","","-10","","Snow"
"-79.40","43.63","TORONTO ISLAND A","6158665","1996-03-22 12:00","1996","03","22","12:00","","-2.7","","-9.8","","58","","29","","20","","15.0","","99.60","","","","-9","",""
"-79.40","43.63","TORONTO ISLAND A","6158665","1996-03-22 13:00","1996","03","22","13:00","","-1.7","","-8.3","","61","","26","","26","","15.0","","99.56","","","","-8","",""
"-79.40","43.63","TORONTO ISLAND A","6158665","1996-03-22 14:00","1996","03","22","14:00","","-0.6","","-6.6","","64","","29","","22","","15.0","","99.56","","","","-6","","Snow"
"-79.40","43.63","TORONTO ISLAND A","6158665","1996-03-22 15:00","1996","03","22","15:00","","-0.7","","-7.4","","60","","27","","22","","15.0","","99.53","","","","-6","","Snow"
"-79.40","43.63","TORONTO ISLAND A","6158665","1996-03-22 16:00","1996","03","22","16:00","","-0.6","","-5.0","","72","","27","","24","","15.0","","99.53","","","","-7","","Snow"
"-79.40","43.63","TORONTO ISLAND A","6158665","1996-03-22 17:00","1996","03","22","17:00","","-1.8","","-3.7","","87","","27","","35","","4.7","","99.56","","","","-9","","Snow"
"-79.40","43.63","TORONTO ISLAND A","6158665","1996-03-22 18:00","1996","03","22","18:00","","-2.0","","-5.2","","79","","28","","24","","9.7","","99.63","","","","-8","","Snow"
"-79.40","43.63","TORONTO ISLAND A","6158665","1996-03-22 19:00","1996","03","22","19:00","","-3.0","","-4.7","","88","","27","","28","","2.1","","99.70","","","","-10","","Snow"
"-79.40","43.63","TORONTO ISLAND A","6158665","1996-03-22 20:00","1996","03","22","20:00","","-3.2","","-4.5","","91","","29","","30","","15.0","","99.77","","","","-11","","Snow"
"-79.40","43.63","TORONTO ISLAND A","6158665","1996-03-22 21:00","1996","03","22","21:00","","-3.6","","-6.9","","78","","32","","9","","15.0","","99.83","","","","-7","",""
"-79.40","43.63","TORONTO ISLAND A","6158665","1996-03-22 22:00","1996","03","22","22:00","","-3.8","","-7.0","","78","","29","","11","","5.6","","99.90","","","","-8","","Snow"
"-79.40","43.63","TORONTO ISLAND A","6158665","1996-03-22 23:00","1996","03","22","23:00","","-3.9","","-6.1","","85","","33","","7","","6.4","","99.90","","","","-7","","Snow"
"-79.40","43.63","TORONTO ISLAND A","6158665","1996-03-23 00:00","1996","03","23","00:00","","-3.7","","-5.6","","87","","30","","7","","11.3","","99.93","","","","-7","","Snow"
"-79.40","43.63","TORONTO ISLAND A","6158665","1996-03-23 01:00","1996","03","23","01:00","","-3.5","","-5.7","","85","","29","","9","","15.0","","99.93","","","","-7","",""
"-79.40","43.63","TORONTO ISLAND A","6158665","1996-03-23 02:00","1996","03","23","02:00","","-2.8","","-7.7","","69","","31","","26","","15.0","","99.97","","","","-10","",""
"-79.40","43.63","TORONTO ISLAND A","6158665","1996-03-23 03:00","1996","03","23","03:00","","-3.0","","-8.9","","64","","30","","24","","15.0","","100.04","","","","-10","",""
"-79.40","43.63","TORONTO ISLAND A","6158665","1996-03-23 04:00","1996","03","23","04:00","","-3.3","","-9.5","","62","","31","","22","","15.0","","100.10","","","","-10","",""
"-79.40","43.63","TORONTO ISLAND A","6158665","1996-03-23 05:00","1996","03","23","05:00","","-3.5","","-9.9","","61","","30","","24","","15.0","","100.20","","","","-10","",""
"-79.40","43.63","TORONTO ISLAND A","6158665","1996-03-23 06:00","1996","03","23","06:00"
"-79.40","43.63","TORONTO ISLAND A","6158665","1996-03-23 07:00","1996","03","23","07:00"
"-79.40","43.63","TORONTO ISLAND A","6158665","1996-03-23 08:00","1996","03","23","08:00"
"-79.40","43.63","TORONTO ISLAND A","6158665","1996-03-23 09:00","1996","03","23","09:00"
"-79.40","43.63","TORONTO ISLAND A","6158665","1996-03-23 10:00","1996","03","23","10:00"
"-79.40","43.63","TORONTO ISLAND A","6158665","1996-03-23 11:00","1996","03","23","11:00"
"-79.40","43.63","TORONTO ISLAND A","6158665","1996-03-23 12:00","1996","03","23","12:00","","1.5","","-6.0","","57","","29","","30","","15.0","","100.54","","","","","",""
"-79.40","43.63","TORONTO ISLAND A","6158665","1996-03-23 13:00","1996","03","23","13:00","","2.4","","-5.8","","55","","28","","43","","15.0","","100.54","","","","","",""
"-79.40","43.63","TORONTO ISLAND A","6158665","1996-03-23 14:00","1996","03","23","14:00","","3.5","","-6.4","","48","","28","","30","","15.0","","100.57","","","","","",""
"-79.40","43.63","TORONTO ISLAND A","6158665","1996-03-23 15:00","1996","03","23","15:00","","3.4","","-7.7","","44","","29","","43","","15.0","","100.61","","","","","",""
"-79.40","43.63","TORONTO ISLAND A","6158665","1996-03-23 16:00","1996","03","23","16:00","","3.6","","-6.9","","46","","30","","32","","15.0","","100.64","","","","","",""
"-79.40","43.63","TORONTO ISLAND A","6158665","1996-03-23 17:00","1996","03","23","17:00","","3.2","","-7.5","","45","","29","","32","","15.0","","100.74","","","","","",""
"-79.40","43.63","TORONTO ISLAND A","6158665","1996-03-23 18:00","1996","03","23","18:00","","2.2","","-7.4","","49","","29","","26","","15.0","","100.88","","","","","",""
"-79.40","43.63","TORONTO ISLAND A","6158665","1996-03-23 19:00","1996","03","23","19:00","","1.2","","-7.8","","51","","29","","22","","15.0","","101.01","","","","","",""
"-79.40","43.63","TORONTO ISLAND A","6158665","1996-03-23 20:00","1996","03","23","20:00","","0.3","","-8.0","","54","","28","","20","","15.0","","101.14","","","","","",""
"-79.40","43.63","TORONTO ISLAND A","6158665","1996-03-23 21:00","1996","03","23","21:00","","-0.3","","-7.4","","59","","27","","17","","15.0","","101.25","","","","-5","",""
"-79.40","43.63","TORONTO ISLAND A","6158665","1996-03-23 22:00","1996","03","23","22:00","","-0.9","","-7.0","","63","","27","","19","","15.0","","101.31","","","","-6","",""
"-79.40","43.63","TORONTO ISLAND A","6158665","1996-03-23 23:00","1996","03","23","23:00","","-1.3","","-7.0","","65","","28","","15","","15.0","","101.35","","","","-6","",""
"-79.40","43.63","TORONTO ISLAND A","6158665","1996-03-24 00:00","1996","03","24","00:00","","-1.3","","-7.7","","62","","30","","13","","15.0","","101.35","","","","-6","",""
"-79.40","43.63","TORONTO ISLAND A","6158665","1996-03-24 01:00","1996","03","24","01:00","","-1.5","","-8.1","","61","","32","","9","","15.0","","101.38","","","","-5","",""
"-79.40","43.63","TORONTO ISLAND A","6158665","1996-03-24 02:00","1996","03","24","02:00","","-2.7","","-7.2","","71","","27","","9","","15.0","","101.41","","","","-6","",""
"-79.40","43.63","TORONTO ISLAND A","6158665","1996-03-24 03:00","1996","03","24","03:00","","-1.9","","-7.9","","63","","1","","4","","15.0","","101.41","","","","-3","",""
"-79.40","43.63","TORONTO ISLAND A","6158665","1996-03-24 04:00","1996","03","24","04:00","","-2.3","","-7.6","","67","","29","","13","","15.0","","101.45","","","","-7","",""
"-79.40","43.63","TORONTO ISLAND A","6158665","1996-03-24 05:00","1996","03","24","05:00","","-2.8","","-7.6","","69","","28","","13","","15.0","","101.48","","","","-7","",""
"-79.40","43.63","TORONTO ISLAND A","6158665","1996-03-24 06:00","1996","03","24","06:00","","-3.3","","-8.1","","69","","32","","9","","15.0","","101.55","","","","-7","",""
"-79.40","43.63","TORONTO ISLAND A","6158665","1996-03-24 07:00","1996","03","24","07:00","","-2.5","","-7.3","","70","","32","","7","","15.0","","101.68","","","","-5","",""
"-79.40","43.63","TORONTO ISLAND A","6158665","1996-03-24 08:00","1996","03","24","08:00","","-0.2","","-6.3","","63","","6","","9","","15.0","","101.68","","","","-3","",""
"-79.40","43.63","TORONTO ISLAND A","6158665","1996-03-24 09:00","1996","03","24","09:00","","-0.2","","-5.3","","68","","7","","9","","15.0","","101.68","","","","-3","",""
"-79.40","43.63","TORONTO ISLAND A","6158665","1996-03-24 10:00","1996","03","24","10:00","","0.5","","-3.9","","72","","10","","11","","15.0","","101.62","","","","","",""
"-79.40","43.63","TORONTO ISLAND A","6158665","1996-03-24 11:00","1996","03","24","11:00","","0.9","","-3.4","","73","","10","","13","","15.0","","101.55","","","","","",""
"-79.40","43.63","TORONTO ISLAND A","6158665","1996-03-24 12:00","1996","03","24","12:00","","1.1","","-3.9","","69","","10","","11","","15.0","","101.48","","","","","",""
"-79.40","43.63","TORONTO ISLAND A","6158665","1996-03-24 13:00","1996","03","24","13:00","","2.0","","-3.3","","68","","9","","9","","15.0","","101.41","","","","","",""
"-79.40","43.63","TORONTO ISLAND A","6158665","1996-03-24 14:00","1996","03","24","14:00","","1.6","","-3.2","","70","","8","","13","","15.0","","101.35","","","","","",""
"-79.40","43.63","TORONTO ISLAND A","6158665","1996-03-24 15:00","1996","03","24","15:00","","1.4","","-1.9","","79","","8","","17","","15.0","","101.25","","","","","",""
"-79.40","43.63","TORONTO ISLAND A","6158665","1996-03-24 16:00","1996","03","24","16:00","","1.2","","-1.1","","85","","7","","26","","15.0","","101.08","","","","","",""
"-79.40","43.63","TORONTO ISLAND A","6158665","1996-03-24 17:00","1996","03","24","17:00","","1.3","","-0.8","","86","","8","","26","","15.0","","100.94","","","","","",""
"-79.40","43.63","TORONTO ISLAND A","6158665","1996-03-24 18:00","1996","03","24","18:00","","1.3","","-0.4","","88","","8","","28","","15.0","","100.81","","","","","",""
"-79.40","43.63","TORONTO ISLAND A","6158665","1996-03-24 19:00","1996","03","24","19:00","","1.3","","-0.4","","88","","7","","33","","15.0","","100.71","","","","","",""
"-79.40","43.63","TORONTO ISLAND A","6158665","1996-03-24 20:00","1996","03","24","20:00","","1.4","","-0.3","","88","","7","","33","","15.0","","100.67","","","","","",""
"-79.40","43.63","TORONTO ISLAND A","6158665","1996-03-24 21:00","1996","03","24","21:00","","1.7","","0.0","","88","","7","","33","","15.0","","100.61","","","","","",""
"-79.40","43.63","TORONTO ISLAND A","6158665","1996-03-24 22:00","1996","03","24","22:00","","1.9","","0.3","","89","","7","","35","","15.0","","100.47","","","","","",""
"-79.40","43.63","TORONTO ISLAND A","6158665","1996-03-24 23:00","1996","03","24","23:00","","2.1","","0.5","","89","","7","","32","","15.0","","100.34","","","","","",""
"-79.40","43.63","TORONTO ISLAND A","6158665","1996-03-25 00:00","1996","03","25","00:00","","2.4","","0.5","","87","","7","","32","","15.0","","100.24","","","","","",""
"-79.40","43.63","TORONTO ISLAND A","6158665","1996-03-25 01:00","1996","03","25","01:00","","2.4","","0.6","","88","","7","","28","","15.0","","100.17","","","","","",""
"-79.40","43.63","TORONTO ISLAND A","6158665","1996-03-25 02:00","1996","03","25","02:00","","2.8","","0.7","","86","","7","","19","","15.0","","100.10","","","","","",""
"-79.40","43.63","TORONTO ISLAND A","6158665","1996-03-25 03:00","1996","03","25","03:00","","2.7","","0.9","","88","","8","","24","","15.0","","100.00","","","","","",""
"-79.40","43.63","TORONTO ISLAND A","6158665","1996-03-25 04:00","1996","03","25","04:00","","2.5","","0.8","","89","","7","","19","","15.0","","99.97","","","","","",""
"-79.40","43.63","TORONTO ISLAND A","6158665","1996-03-25 05:00","1996","03","25","05:00","","2.9","","0.9","","87","","7","","20","","15.0","","99.93","","","","","","Rain"
"-79.40","43.63","TORONTO ISLAND A","6158665","1996-03-25 06:00","1996","03","25","06:00","","2.9","","0.9","","87","","8","","20","","15.0","","99.80","","","","","",""
"-79.40","43.63","TORONTO ISLAND A","6158665","1996-03-25 07:00","1996","03","25","07:00","","3.6","","1.4","","86","","7","","19","","15.0","","99.77","","","","","",""
"-79.40","43.63","TORONTO ISLAND A","6158665","1996-03-25 08:00","1996","03","25","08:00","","4.2","","1.6","","83","","7","","22","","15.0","","99.60","","","","","",""
"-79.40","43.63","TORONTO ISLAND A","6158665","1996-03-25 09:00","1996","03","25","09:00","","5.8","","1.9","","76","","8","","15","","15.0","","99.46","","","","","",""
"-79.40","43.63","TORONTO ISLAND A","6158665","1996-03-25 10:00","1996","03","25","10:00","","10.3","","1.9","","56","","17","","13","","15.0","","99.40","","","","","",""
"-79.40","43.63","TORONTO ISLAND A","6158665","1996-03-25 11:00","1996","03","25","11:00","","10.0","","2.6","","60","","20","","15","","15.0","","99.26","","","","","",""
"-79.40","43.63","TORONTO ISLAND A","6158665","1996-03-25 12:00","1996","03","25","12:00","","8.7","","2.8","","66","","21","","35","","15.0","","99.33","","","","","","Rain"
"-79.40","43.63","TORONTO ISLAND A","6158665","1996-03-25 13:00","1996","03","25","13:00","","6.7","","5.7","","93","","21","","30","","9.7","","99.36","","","","","","Rain"
"-79.40","43.63","TORONTO ISLAND A","6158665","1996-03-25 14:00","1996","03","25","14:00","","5.8","","5.1","","95","","19","","11","","15.0","","99.30","","","","","",""
"-79.40","43.63","TORONTO ISLAND A","6158665","1996-03-25 15:00","1996","03","25","15:00","","7.6","","6.2","","91","","20","","19","","15.0","","99.20","","","","","",""
"-79.40","43.63","TORONTO ISLAND A","6158665","1996-03-25 16:00","1996","03","25","16:00","","7.6","","5.4","","86","","20","","13","","15.0","","99.06","","","","","",""
"-79.40","43.63","TORONTO ISLAND A","6158665","1996-03-25 17:00","1996","03","25","17:00","","6.9","","5.6","","91","","21","","46","","15.0","","99.16","","","","","","Drizzle"
"-79.40","43.63","TORONTO ISLAND A","6158665","1996-03-25 18:00","1996","03","25","18:00","","7.9","","4.5","","79","","25","","46","","15.0","","99.40","","","","","","Rain"
"-79.40","43.63","TORONTO ISLAND A","6158665","1996-03-25 19:00","1996","03","25","19:00","","5.9","","-1.1","","61","","23","","56","","15.0","","99.53","","","","","",""
"-79.40","43.63","TORONTO ISLAND A","6158665","1996-03-25 20:00","1996","03","25","20:00","","3.7","","-1.1","","71","","23","","41","","15.0","","99.80","","","","","",""
"-79.40","43.63","TORONTO ISLAND A","6158665","1996-03-25 21:00","1996","03","25","21:00","","2.4","","-4.0","","63","","24","","48","","15.0","","100.00","","","","","",""
"-79.40","43.63","TORONTO ISLAND A","6158665","1996-03-25 22:00","1996","03","25","22:00","","1.7","","-3.3","","69","","24","","54","","15.0","","100.17","","","","","","Snow"
"-79.40","43.63","TORONTO ISLAND A","6158665","1996-03-25 23:00","1996","03","25","23:00","","0.4","","-3.3","","76","","25","","44","","6.4","","100.37","","","","","","Snow"
"-79.40","43.63","TORONTO ISLAND A","6158665","1996-03-26 00:00","1996","03","26","00:00","","0.2","","-5.8","","64","","25","","52","","15.0","","100.44","","","","","","Snow"
"-79.40","43.63","TORONTO ISLAND A","6158665","1996-03-26 01:00","1996","03","26","01:00","","-1.0","","-5.6","","71","","26","","41","","15.0","","100.61","","","","-9","","Snow"
"-79.40","43.63","TORONTO ISLAND A","6158665","1996-03-26 02:00","1996","03","26","02:00","","-1.4","","-5.9","","71","","26","","37","","15.0","","100.74","","","","-9","","Snow"
"-79.40","43.63","TORONTO ISLAND A","6158665","1996-03-26 03:00","1996","03","26","03:00","","-1.7","","-6.9","","68","","26","","35","","15.0","","100.88","","","","-9","","Snow"
"-79.40","43.63","TORONTO ISLAND A","6158665","1996-03-26 04:00","1996","03","26","04:00","","-2.0","","-6.7","","70","","25","","32","","15.0","","100.98","","","","-9","","Snow"
"-79.40","43.63","TORONTO ISLAND A","6158665","1996-03-26 05:00","1996","03","26","05:00","","-2.6","","-7.5","","69","","26","","28","","15.0","","101.01","","","","-10","",""
"-79.40","43.63","TORONTO ISLAND A","6158665","1996-03-26 06:00","1996","03","26","06:00","","-2.2","","-8.4","","62","","25","","32","","15.0","","101.11","","","","-10","",""
"-79.40","43.63","TORONTO ISLAND A","6158665","1996-03-26 07:00","1996","03","26","07:00","","-2.0","","-8.6","","61","","26","","39","","15.0","","101.14","","","","-10","",""
"-79.40","43.63","TORONTO ISLAND A","6158665","1996-03-26 08:00","1996","03","26","08:00","","-2.8","","-7.4","","71","","27","","32","","15.0","","101.21","","","","-10","","Snow"
"-79.40","43.63","TORONTO ISLAND A","6158665","1996-03-26 09:00","1996","03","26","09:00","","-1.9","","-10.2","","53","","27","","22","","15.0","","101.28","","","","-8","",""
"-79.40","43.63","TORONTO ISLAND A","6158665","1996-03-26 10:00","1996","03","26","10:00"
"-79.40","43.63","TORONTO ISLAND A","6158665","1996-03-26 11:00","1996","03","26","11:00"
"-79.40","43.63","TORONTO ISLAND A","6158665","1996-03-26 12:00","1996","03","26","12:00"
"-79.40","43.63","TORONTO ISLAND A","6158665","1996-03-26 13:00","1996","03","26","13:00","","-0.9","","-9.2","","53","","27","","35","","15.0","","101.41","","","","-8","",""
"-79.40","43.63","TORONTO ISLAND A","6158665","1996-03-26 14:00","1996","03","26","14:00","","-2.4","","-12.4","","46","","28","","37","","15.0","","101.48","","","","-10","","Snow"
"-79.40","43.63","TORONTO ISLAND A","6158665","1996-03-26 15:00","1996","03","26","15:00","","-2.3","","-10.8","","52","","27","","44","","15.0","","101.62","","","","-11","","Snow"
"-79.40","43.63","TORONTO ISLAND A","6158665","1996-03-26 16:00","1996","03","26","16:00","","-2.6","","-14.0","","41","","27","","41","","15.0","","101.68","","","","-11","","Snow"
"-79.40","43.63","TORONTO ISLAND A","6158665","1996-03-26 17:00","1996","03","26","17:00","","-3.6","","-10.1","","61","","26","","41","","15.0","","101.78","","","","-12","","Snow"
"-79.40","43.63","TORONTO ISLAND A","6158665","1996-03-26 18:00","1996","03","26","18:00","","-5.5","","-9.1","","76","","26","","33","","15.0","","101.85","","","","-14","",""
"-79.40","43.63","TORONTO ISLAND A","6158665","1996-03-26 19:00","1996","03","26","19:00","","-5.4","","-10.9","","65","","28","","35","","15.0","","101.99","","","","-14","",""
"-79.40","43.63","TORONTO ISLAND A","6158665","1996-03-26 20:00","1996","03","26","20:00","","-6.2","","-13.3","","57","","29","","33","","15.0","","102.12","","","","-15","",""
"-79.40","43.63","TORONTO ISLAND A","6158665","1996-03-26 21:00","1996","03","26","21:00","","-6.9","","-15.4","","51","","28","","35","","15.0","","102.22","","","","-16","",""
"-79.40","43.63","TORONTO ISLAND A","6158665","1996-03-26 22:00","1996","03","26","22:00","","-8.0","","-16.1","","52","","28","","28","","15.0","","102.35","","","","-17","",""
"-79.40","43.63","TORONTO ISLAND A","6158665","1996-03-26 23:00","1996","03","26","23:00","","-8.4","","-17.0","","50","","28","","26","","15.0","","102.42","","","","-17","",""
"-79.40","43.63","TORONTO ISLAND A","6158665","1996-03-27 00:00","1996","03","27","00:00","","-8.5","","-15.1","","59","","28","","20","","15.0","","102.49","","","","-16","",""
"-79.40","43.63","TORONTO ISLAND A","6158665","1996-03-27 01:00","1996","03","27","01:00","","-8.2","","-14.3","","61","","30","","20","","15.0","","102.56","","","","-16","",""
"-79.40","43.63","TORONTO ISLAND A","6158665","1996-03-27 02:00","1996","03","27","02:00","","-8.2","","-13.5","","66","","31","","19","","15.0","","102.59","","","","-15","",""
"-79.40","43.63","TORONTO ISLAND A","6158665","1996-03-27 03:00","1996","03","27","03:00","","-8.5","","-13.4","","68","","28","","19","","15.0","","102.69","","","","-16","",""
"-79.40","43.63","TORONTO ISLAND A","6158665","1996-03-27 04:00","1996","03","27","04:00","","-8.7","","-13.6","","68","","30","","13","","15.0","","102.76","","","","-15","",""
"-79.40","43.63","TORONTO ISLAND A","6158665","1996-03-27 05:00","1996","03","27","05:00","","-8.7","","-13.9","","66","","33","","13","","15.0","","102.72","","","","-15","",""
"-79.40","43.63","TORONTO ISLAND A","6158665","1996-03-27 06:00","1996","03","27","06:00","","-8.8","","-14.0","","66","","34","","15","","15.0","","102.83","","","","-15","",""
"-79.40","43.63","TORONTO ISLAND A","6158665","1996-03-27 07:00","1996","03","27","07:00","","-9.2","","-15.1","","62","","3","","19","","15.0","","102.89","","","","-17","",""
"-79.40","43.63","TORONTO ISLAND A","6158665","1996-03-27 08:00","1996","03","27","08:00","","-9.2","","-16.7","","54","","36","","13","","15.0","","103.03","","","","-15","",""
"-79.40","43.63","TORONTO ISLAND A","6158665","1996-03-27 09:00","1996","03","27","09:00","","-8.4","","-16.0","","54","","32","","7","","15.0","","103.13","","","","-12","",""
"-79.40","43.63","TORONTO ISLAND A","6158665","1996-03-27 10:00","1996","03","27","10:00","","-7.3","","-14.7","","55","","21","","11","","15.0","","103.16","","","","-12","",""
"-79.40","43.63","TORONTO ISLAND A","6158665","1996-03-27 11:00","1996","03","27","11:00","","-7.0","","-14.2","","56","","18","","15","","15.0","","103.13","","","","-13","",""
"-79.40","43.63","TORONTO ISLAND A","6158665","1996-03-27 12:00","1996","03","27","12:00","","-6.0","","-13.3","","56","","16","","7","","15.0","","103.06","","","","-9","",""
"-79.40","43.63","TORONTO ISLAND A","6158665","1996-03-27 13:00","1996","03","27","13:00","","-5.5","","-12.7","","57","","20","","19","","15.0","","103.03","","","","-12","","Heavy Snow"
"-79.40","43.63","TORONTO ISLAND A","6158665","1996-03-27 14:00","1996","03","27","14:00","","-4.3","","-12.0","","55","","20","","15","","15.0","","102.93","","","","-10","",""
"-79.40","43.63","TORONTO ISLAND A","6158665","1996-03-27 15:00","1996","03","27","15:00","","-4.1","","-11.1","","58","","20","","11","","15.0","","102.86","","","","-9","",""
"-79.40","43.63","TORONTO ISLAND A","6158665","1996-03-27 16:00","1996","03","27","16:00","","-3.5","","-10.5","","58","","18","","11","","15.0","","102.79","","","","-8","",""
"-79.40","43.63","TORONTO ISLAND A","6158665","1996-03-27 17:00","1996","03","27","17:00","","-3.4","","-10.4","","58","","18","","15","","15.0","","102.76","","","","-9","",""
"-79.40","43.63","TORONTO ISLAND A","6158665","1996-03-27 18:00","1996","03","27","18:00","","-3.5","","-10.1","","60","","18","","11","","15.0","","102.72","","","","-8","",""
"-79.40","43.63","TORONTO ISLAND A","6158665","1996-03-27 19:00","1996","03","27","19:00","","-3.7","","-9.4","","65","","19","","13","","15.0","","102.66","","","","-9","",""
"-79.40","43.63","TORONTO ISLAND A","6158665","1996-03-27 20:00","1996","03","27","20:00","","-3.7","","-9.9","","62","","","","0","","15.0","","102.66","","","","","",""
"-79.40","43.63","TORONTO ISLAND A","6158665","1996-03-27 21:00","1996","03","27","21:00","","-3.8","","-10.2","","61","","","","0","","15.0","","102.72","","","","","",""
"-79.40","43.63","TORONTO ISLAND A","6158665","1996-03-27 22:00","1996","03","27","22:00","","-4.3","","-9.4","","68","","","","0","","15.0","","102.66","","","","","",""
"-79.40","43.63","TORONTO ISLAND A","6158665","1996-03-27 23:00","1996","03","27","23:00","","-4.3","","-8.1","","75","","10","","6","","15.0","","102.59","","","","-7","",""
"-79.40","43.63","TORONTO ISLAND A","6158665","1996-03-28 00:00","1996","03","28","00:00","","-3.9","","-8.5","","70","","6","","9","","15.0","","102.56","","","","-8","",""
"-79.40","43.63","TORONTO ISLAND A","6158665","1996-03-28 01:00","1996","03","28","01:00","","-3.3","","-9.4","","63","","10","","11","","15.0","","102.52","","","","-8","",""
"-79.40","43.63","TORONTO ISLAND A","6158665","1996-03-28 02:00","1996","03","28","02:00","","-3.3","","-9.2","","64","","10","","9","","15.0","","102.49","","","","-7","",""
"-79.40","43.63","TORONTO ISLAND A","6158665","1996-03-28 03:00","1996","03","28","03:00","","-3.3","","-7.6","","72","","11","","15","","15.0","","102.42","","","","-8","",""
"-79.40","43.63","TORONTO ISLAND A","6158665","1996-03-28 04:00","1996","03","28","04:00","","-3.2","","-7.2","","74","","10","","15","","15.0","","102.35","","","","-8","",""
"-79.40","43.63","TORONTO ISLAND A","6158665","1996-03-28 05:00","1996","03","28","05:00","","-2.9","","-6.9","","74","","9","","20","","15.0","","102.32","","","","-9","",""
"-79.40","43.63","TORONTO ISLAND A","6158665","1996-03-28 06:00","1996","03","28","06:00","","-2.8","","-7.0","","73","","9","","22","","15.0","","102.32","","","","-9","",""
"-79.40","43.63","TORONTO ISLAND A","6158665","1996-03-28 07:00","1996","03","28","07:00","","-2.0","","-6.6","","71","","8","","26","","15.0","","102.32","","","","-9","",""
"-79.40","43.63","TORONTO ISLAND A","6158665","1996-03-28 08:00","1996","03","28","08:00","","-1.3","","-5.2","","75","","7","","33","","15.0","","102.25","","","","-8","",""
"-79.40","43.63","TORONTO ISLAND A","6158665","1996-03-28 09:00","1996","03","28","09:00","","-0.5","","-4.3","","75","","6","","33","","15.0","","102.25","","","","-7","",""
"-79.40","43.63","TORONTO ISLAND A","6158665","1996-03-28 10:00","1996","03","28","10:00","","-0.2","","-4.7","","72","","7","","39","","15.0","","102.15","","","","-8","",""
"-79.40","43.63","TORONTO ISLAND A","6158665","1996-03-28 11:00","1996","03","28","11:00","","0.2","","-4.1","","73","","7","","35","","15.0","","102.09","","","","","",""
"-79.40","43.63","TORONTO ISLAND A","6158665","1996-03-28 12:00","1996","03","28","12:00","","0.2","","-4.5","","71","","7","","35","","15.0","","101.99","","","","","",""
"-79.40","43.63","TORONTO ISLAND A","6158665","1996-03-28 13:00","1996","03","28","13:00","","0.8","","-3.9","","71","","6","","41","","15.0","","101.85","","","","","",""
"-79.40","43.63","TORONTO ISLAND A","6158665","1996-03-28 14:00","1996","03","28","14:00","","1.1","","-3.3","","72","","6","","41","","15.0","","101.72","","","","","",""
"-79.40","43.63","TORONTO ISLAND A","6158665","1996-03-28 15:00","1996","03","28","15:00","","1.3","","-3.5","","70","","6","","37","","15.0","","101.62","","","","","",""
"-79.40","43.63","TORONTO ISLAND A","6158665","1996-03-28 16:00","1996","03","28","16:00"
"-79.40","43.63","TORONTO ISLAND A","6158665","1996-03-28 17:00","1996","03","28","17:00","","1.2","","-5.3","","62","","7","","33","","15.0","","101.51","","","","","",""
"-79.40","43.63","TORONTO ISLAND A","6158665","1996-03-28 18:00","1996","03","28","18:00","","1.3","","-5.0","","63","","7","","32","","15.0","","101.45","","","","","",""
"-79.40","43.63","TORONTO ISLAND A","6158665","1996-03-28 19:00","1996","03","28","19:00","","1.3","","-6.2","","57","","7","","26","","15.0","","101.41","","","","","",""
"-79.40","43.63","TORONTO ISLAND A","6158665","1996-03-28 20:00","1996","03","28","20:00","","1.5","","-5.0","","62","","7","","28","","15.0","","101.38","","","","","",""
"-79.40","43.63","TORONTO ISLAND A","6158665","1996-03-28 21:00","1996","03","28","21:00","","1.5","","-4.4","","65","","6","","26","","15.0","","101.35","","","","","",""
"-79.40","43.63","TORONTO ISLAND A","6158665","1996-03-28 22:00","1996","03","28","22:00","","1.4","","-6.7","","55","","6","","22","","15.0","","101.28","","","","","",""
"-79.40","43.63","TORONTO ISLAND A","6158665","1996-03-28 23:00","1996","03","28","23:00","","1.4","","-5.5","","60","","6","","26","","15.0","","101.21","","","","","",""
"-79.40","43.63","TORONTO ISLAND A","6158665","1996-03-29 00:00","1996","03","29","00:00","","1.4","","-3.7","","69","","6","","30","","15.0","","101.14","","","","","",""
"-79.40","43.63","TORONTO ISLAND A","6158665","1996-03-29 01:00","1996","03","29","01:00","","1.1","","-3.8","","70","","6","","28","","15.0","","101.08","","","","","",""
"-79.40","43.63","TORONTO ISLAND A","6158665","1996-03-29 02:00","1996","03","29","02:00","","1.1","","-3.4","","72","","6","","24","","15.0","","101.04","","","","","",""
"-79.40","43.63","TORONTO ISLAND A","6158665","1996-03-29 03:00","1996","03","29","03:00","","1.2","","-3.9","","69","","6","","33","","15.0","","101.01","","","","","",""
"-79.40","43.63","TORONTO ISLAND A","6158665","1996-03-29 04:00","1996","03","29","04:00","","1.1","","-3.3","","72","","6","","30","","15.0","","101.01","","","","","",""
"-79.40","43.63","TORONTO ISLAND A","6158665","1996-03-29 05:00","1996","03","29","05:00","","0.9","","-3.6","","72","","6","","24","","15.0","","101.01","","","","","",""
"-79.40","43.63","TORONTO ISLAND A","6158665","1996-03-29 06:00","1996","03","29","06:00","","0.8","","-4.6","","67","","5","","19","","15.0","","101.08","","","","","",""
"-79.40","43.63","TORONTO ISLAND A","6158665","1996-03-29 07:00","1996","03","29","07:00","","1.1","","-4.7","","65","","6","","17","","15.0","","101.11","","","","","",""
"-79.40","43.63","TORONTO ISLAND A","6158665","1996-03-29 08:00","1996","03","29","08:00","","1.9","","-4.2","","64","","6","","20","","15.0","","101.14","","","","","",""
"-79.40","43.63","TORONTO ISLAND A","6158665","1996-03-29 09:00","1996","03","29","09:00","","2.4","","-4.4","","61","","7","","15","","15.0","","101.14","","","","","",""
"-79.40","43.63","TORONTO ISLAND A","6158665","1996-03-29 10:00","1996","03","29","10:00","","2.6","","-4.3","","60","","9","","13","","15.0","","101.18","","","","","",""
"-79.40","43.63","TORONTO ISLAND A","6158665","1996-03-29 11:00","1996","03","29","11:00","","2.6","","-4.6","","59","","9","","15","","15.0","","101.14","","","","","",""
"-79.40","43.63","TORONTO ISLAND A","6158665","1996-03-29 12:00","1996","03","29","12:00","","2.8","","-3.0","","66","","10","","13","","15.0","","101.14","","","","","",""
"-79.40","43.63","TORONTO ISLAND A","6158665","1996-03-29 13:00","1996","03","29","13:00","","3.5","","-1.9","","68","","13","","13","","15.0","","101.11","","","","","",""
"-79.40","43.63","TORONTO ISLAND A","6158665","1996-03-29 14:00","1996","03","29","14:00","","4.0","","-0.7","","71","","16","","11","","15.0","","101.11","","","","","",""
"-79.40","43.63","TORONTO ISLAND A","6158665","1996-03-29 15:00","1996","03","29","15:00","","3.2","","0.1","","80","","20","","9","","15.0","","101.14","","","","","",""
"-79.40","43.63","TORONTO ISLAND A","6158665","1996-03-29 16:00","1996","03","29","16:00","","3.0","","0.8","","85","","21","","9","","15.0","","101.14","","","","","",""
"-79.40","43.63","TORONTO ISLAND A","6158665","1996-03-29 17:00","1996","03","29","17:00","","2.8","","1.0","","88","","23","","7","","15.0","","101.14","","","","","",""
"-79.40","43.63","TORONTO ISLAND A","6158665","1996-03-29 18:00","1996","03","29","18:00","","2.3","","0.9","","90","","26","","6","","15.0","","101.21","","","","","",""
"-79.40","43.63","TORONTO ISLAND A","6158665","1996-03-29 19:00","1996","03","29","19:00","","1.4","","-1.1","","83","","24","","11","","15.0","","101.25","","","","","",""
"-79.40","43.63","TORONTO ISLAND A","6158665","1996-03-29 20:00","1996","03","29","20:00","","4.8","","-7.1","","42","","33","","22","","15.0","","101.31","","","","","",""
"-79.40","43.63","TORONTO ISLAND A","6158665","1996-03-29 21:00","1996","03","29","21:00","","3.6","","-7.7","","43","","33","","24","","15.0","","101.35","","","","","",""
"-79.40","43.63","TORONTO ISLAND A","6158665","1996-03-29 22:00","1996","03","29","22:00","","2.5","","-6.3","","52","","33","","24","","15.0","","101.38","","","","","",""
"-79.40","43.63","TORONTO ISLAND A","6158665","1996-03-29 23:00","1996","03","29","23:00","","2.5","","-5.3","","56","","34","","22","","15.0","","101.41","","","","","",""
"-79.40","43.63","TORONTO ISLAND A","6158665","1996-03-30 00:00","1996","03","30","00:00","","1.9","","-4.8","","61","","33","","19","","15.0","","101.38","","","","","",""
"-79.40","43.63","TORONTO ISLAND A","6158665","1996-03-30 01:00","1996","03","30","01:00","","2.6","","-4.7","","59","","35","","17","","15.0","","101.38","","","","","",""
"-79.40","43.63","TORONTO ISLAND A","6158665","1996-03-30 02:00","1996","03","30","02:00","","2.2","","-5.0","","59","","35","","19","","15.0","","101.41","","","","","",""
"-79.40","43.63","TORONTO ISLAND A","6158665","1996-03-30 03:00","1996","03","30","03:00","","1.9","","-5.1","","60","","34","","13","","15.0","","101.41","","","","","",""
"-79.40","43.63","TORONTO ISLAND A","6158665","1996-03-30 04:00","1996","03","30","04:00","","1.8","","-5.3","","59","","34","","11","","15.0","","101.45","","","","","",""
"-79.40","43.63","TORONTO ISLAND A","6158665","1996-03-30 05:00","1996","03","30","05:00","","1.2","","-5.1","","63","","35","","13","","15.0","","101.45","","","","","",""
"-79.40","43.63","TORONTO ISLAND A","6158665","1996-03-30 06:00","1996","03","30","06:00","","0.7","","-5.2","","65","","35","","11","","15.0","","101.55","","","","","",""
"-79.40","43.63","TORONTO ISLAND A","6158665","1996-03-30 07:00","1996","03","30","07:00","","0.8","","-4.9","","66","","35","","15","","15.0","","101.58","","","","","",""
"-79.40","43.63","TORONTO ISLAND A","6158665","1996-03-30 08:00","1996","03","30","08:00","","2.1","","-4.4","","62","","3","","11","","15.0","","101.58","","","","","",""
"-79.40","43.63","TORONTO ISLAND A","6158665","1996-03-30 09:00","1996","03","30","09:00","","3.2","","-4.4","","57","","7","","6","","15.0","","101.62","","","","","",""
"-79.40","43.63","TORONTO ISLAND A","6158665","1996-03-30 10:00","1996","03","30","10:00","","3.8","","-3.8","","58","","9","","15","","15.0","","101.62","","","","","",""
"-79.40","43.63","TORONTO ISLAND A","6158665","1996-03-30 11:00","1996","03","30","11:00","","4.0","","-4.0","","56","","9","","13","","15.0","","101.58","","","","","",""
"-79.40","43.63","TORONTO ISLAND A","6158665","1996-03-30 12:00","1996","03","30","12:00"
"-79.40","43.63","TORONTO ISLAND A","6158665","1996-03-30 13:00","1996","03","30","13:00","","4.1","","-2.1","","64","","12","","9","","15.0","","101.51","","","","","",""
"-79.40","43.63","TORONTO ISLAND A","6158665","1996-03-30 14:00","1996","03","30","14:00","","3.9","","-3.0","","61","","9","","15","","15.0","","101.48","","","","","",""
"-79.40","43.63","TORONTO ISLAND A","6158665","1996-03-30 15:00","1996","03","30","15:00","","3.7","","-1.2","","70","","8","","15","","15.0","","101.41","","","","","",""
"-79.40","43.63","TORONTO ISLAND A","6158665","1996-03-30 16:00","1996","03","30","16:00","","3.0","","-0.6","","77","","8","","17","","15.0","","101.35","","","","","",""
"-79.40","43.63","TORONTO ISLAND A","6158665","1996-03-30 17:00","1996","03","30","17:00","","2.8","","-0.3","","80","","8","","19","","15.0","","101.25","","","","","",""
"-79.40","43.63","TORONTO ISLAND A","6158665","1996-03-30 18:00","1996","03","30","18:00","","2.5","","-1.0","","78","","8","","19","","15.0","","101.18","","","","","",""
"-79.40","43.63","TORONTO ISLAND A","6158665","1996-03-30 19:00","1996","03","30","19:00","","2.1","","-2.5","","72","","7","","19","","15.0","","101.18","","","","","",""
"-79.40","43.63","TORONTO ISLAND A","6158665","1996-03-30 20:00","1996","03","30","20:00","","2.2","","-2.9","","69","","6","","15","","15.0","","101.18","","","","","",""
"-79.40","43.63","TORONTO ISLAND A","6158665","1996-03-30 21:00","1996","03","30","21:00","","2.0","","-2.7","","71","","6","","19","","15.0","","101.11","","","","","",""
"-79.40","43.63","TORONTO ISLAND A","6158665","1996-03-30 22:00","1996","03","30","22:00","","2.1","","-2.4","","72","","7","","17","","15.0","","101.11","","","","","",""
"-79.40","43.63","TORONTO ISLAND A","6158665","1996-03-30 23:00","1996","03","30","23:00","","2.3","","-2.9","","68","","6","","19","","15.0","","101.04","","","","","",""
"-79.40","43.63","TORONTO ISLAND A","6158665","1996-03-31 00:00","1996","03","31","00:00","","2.6","","-3.4","","65","","6","","22","","15.0","","100.98","","","","","",""
"-79.40","43.63","TORONTO ISLAND A","6158665","1996-03-31 01:00","1996","03","31","01:00","","2.6","","-2.9","","67","","7","","20","","15.0","","100.94","","","","","",""
"-79.40","43.63","TORONTO ISLAND A","6158665","1996-03-31 02:00","1996","03","31","02:00","","2.2","","-2.5","","71","","6","","26","","15.0","","100.88","","","","","",""
"-79.40","43.63","TORONTO ISLAND A","6158665","1996-03-31 03:00","1996","03","31","03:00","","2.2","","-1.8","","75","","6","","28","","15.0","","100.84","","","","","",""
"-79.40","43.63","TORONTO ISLAND A","6158665","1996-03-31 04:00","1996","03","31","04:00","","2.1","","-1.6","","76","","7","","26","","15.0","","100.77","","","","","",""
"-79.40","43.63","TORONTO ISLAND A","6158665","1996-03-31 05:00","1996","03","31","05:00","","2.0","","-1.5","","78","","6","","26","","15.0","","100.74","","","","","",""
"-79.40","43.63","TORONTO ISLAND A","6158665","1996-03-31 06:00","1996","03","31","06:00","","2.1","","-2.2","","73","","6","","30","","15.0","","100.74","","","","","",""
"-79.40","43.63","TORONTO ISLAND A","6158665","1996-03-31 07:00","1996","03","31","07:00","","2.5","","-1.9","","73","","6","","37","","15.0","","100.71","","","","","",""
"-79.40","43.63","TORONTO ISLAND A","6158665","1996-03-31 08:00","1996","03","31","08:00","","3.2","","-1.5","","71","","6","","37","","15.0","","100.71","","","","","",""
"-79.40","43.63","TORONTO ISLAND A","6158665","1996-03-31 09:00","1996","03","31","09:00","","3.6","","-1.3","","70","","7","","39","","15.0","","100.71","","","","","",""
"-79.40","43.63","TORONTO ISLAND A","6158665","1996-03-31 10:00","1996","03","31","10:00","","4.2","","-1.5","","66","","6","","43","","15.0","","100.71","","","","","",""
"-79.40","43.63","TORONTO ISLAND A","6158665","1996-03-31 11:00","1996","03","31","11:00","","4.4","","-1.1","","67","","7","","35","","15.0","","100.67","","","","","",""
"-79.40","43.63","TORONTO ISLAND A","6158665","1996-03-31 12:00","1996","03","31","12:00","","4.9","","-1.3","","64","","7","","35","","15.0","","100.61","","","","","",""
"-79.40","43.63","TORONTO ISLAND A","6158665","1996-03-31 13:00","1996","03","31","13:00","","5.3","","-2.3","","58","","6","","41","","15.0","","100.54","","","","","",""
"-79.40","43.63","TORONTO ISLAND A","6158665","1996-03-31 14:00","1996","03","31","14:00","","5.8","","-2.7","","54","","7","","37","","15.0","","100.47","","","","","",""
"-79.40","43.63","TORONTO ISLAND A","6158665","1996-03-31 15:00","1996","03","31","15:00","","5.5","","-3.9","","51","","7","","33","","15.0","","100.41","","","","","",""
"-79.40","43.63","TORONTO ISLAND A","6158665","1996-03-31 16:00","1996","03","31","16:00","","6.0","","-5.5","","43","","5","","24","","15.0","","100.41","","","","","",""
"-79.40","43.63","TORONTO ISLAND A","6158665","1996-03-31 17:00","1996","03","31","17:00","","7.0","","-8.2","","33","","6","","28","","15.0","","100.41","","","","","",""
"-79.40","43.63","TORONTO ISLAND A","6158665","1996-03-31 18:00","1996","03","31","18:00","","7.1","","-8.9","","31","","5","","19","","15.0","","100.37","","","","","",""
"-79.40","43.63","TORONTO ISLAND A","6158665","1996-03-31 19:00","1996","03","31","19:00","","7.2","","-7.1","","35","","6","","4","","15.0","","100.41","","","","","","Rain"
"-79.40","43.63","TORONTO ISLAND A","6158665","1996-03-31 20:00","1996","03","31","20:00","","9.0","","-6.6","","33","","4","","9","","15.0","","100.41","","","","","",""
"-79.40","43.63","TORONTO ISLAND A","6158665","1996-03-31 21:00","1996","03","31","21:00","","8.3","","-7.6","","32","","34","","7","","15.0","","100.47","","","","","",""
"-79.40","43.63","TORONTO ISLAND A","6158665","1996-03-31 22:00","1996","03","31","22:00","","6.0","","-2.7","","54","","33","","20","","15.0","","100.47","","","","","",""
"-79.40","43.63","TORONTO ISLAND A","6158665","1996-03-31 23:00","1996","03","31","23:00","","5.7","","-2.6","","55","","34","","22","","15.0","","100.51","","","","","",""
