"Longitude (x)","Latitude (y)","Station Name","Climate ID","Date/Time (LST)","Year","Month","Day","Time (LST)","Flag","Temp (°C)","Temp Flag","Dew Point Temp (°C)","Dew Point Temp Flag","Rel Hum (%)","Rel Hum Flag","Wind Dir (10s deg)","Wind Dir Flag","Wind Spd (km/h)","Wind Spd Flag","Visibility (km)","Visibility Flag","Stn Press (kPa)","Stn Press Flag","Hmdx","Hmdx Flag","Wind Chill","Wind Chill Flag","Weather"
"-79.40","43.63","TORONTO ISLAND A","6158665","1993-11-01 00:00","1993","11","01","00:00","","","","","","","","35","","22","","","","","","","","","","NA"
"-79.40","43.63","TORONTO ISLAND A","6158665","1993-11-01 01:00","1993","11","01","01:00","","","","","","","","35","","22","","","","","","","","","","NA"
"-79.40","43.63","TORONTO ISLAND A","6158665","1993-11-01 02:00","1993","11","01","02:00","","","","","","","","35","","22","","","","","","","","","","NA"
"-79.40","43.63","TORONTO ISLAND A","6158665","1993-11-01 03:00","1993","11","01","03:00","","","","","","","","35","","26","","","","","","","","","","NA"
"-79.40","43.63","TORONTO ISLAND A","6158665","1993-11-01 04:00","1993","11","01","04:00","","","","","","","","34","","26","","","","","","","","","","NA"
"-79.40","43.63","TORONTO ISLAND A","6158665","1993-11-01 05:00","1993","11","01","05:00","","","","","","","","33","","24","","","","","","","","","","NA"
"-79.40","43.63","TORONTO ISLAND A","6158665","1993-11-01 06:00","1993","11","01","06:00","","","","","","","","34","","22","","","","","","","","","","NA"
"-79.40","43.63","TORONTO ISLAND A","6158665","1993-11-01 07:00","1993","11","01","07:00","","0.1","","-5.6","","65","","34","","22","","25.0","","100.35","","","","","","Mostly Cloudy"
"-79.40","43.63","TORONTO ISLAND A","6158665","1993-11-01 08:00","1993","11","01","08:00","","0.0","","-5.7","","65","","34","","26","","25.0","","100.45","","","","-6","","Mostly Cloudy"
"-79.40","43.63","TORONTO ISLAND A","6158665","1993-11-01 09:00","1993","11","01","09:00","","0.2","","-5.4","","66","","34","","26","","25.0","","100.52","","","","","","Mostly Cloudy"
"-79.40","43.63","TORONTO ISLAND A","6158665","1993-11-01 10:00","1993","11","01","10:00","","0.8","","-4.8","","66","","32","","33","","25.0","","100.55","","","","","","Mostly Cloudy"
"-79.40","43.63","TORONTO ISLAND A","6158665","1993-11-01 11:00","1993","11","01","11:00","","1.8","","-4.4","","64","","34","","26","","25.0","","100.62","","","","","","Mostly Cloudy"
"-79.40","43.63","TORONTO ISLAND A","6158665","1993-11-01 12:00","1993","11","01","12:00","","3.0","","-4.0","","60","","32","","33","","25.0","","100.62","","","","","","Mostly Cloudy"
"-79.40","43.63","TORONTO ISLAND A","6158665","1993-11-01 13:00","1993","11","01","13:00","","3.3","","-4.1","","58","","33","","30","","25.0","","100.65","","","","","","Mostly Cloudy"
"-79.40","43.63","TORONTO ISLAND A","6158665","1993-11-01 14:00","1993","11","01","14:00","","3.3","","-4.6","","56","","33","","26","","25.0","","100.72","","","","","","Mainly Clear"
"-79.40","43.63","TORONTO ISLAND A","6158665","1993-11-01 15:00","1993","11","01","15:00","","4.0","","-4.0","","56","","33","","22","","25.0","","100.75","","","","","","Mainly Clear"
"-79.40","43.63","TORONTO ISLAND A","6158665","1993-11-01 16:00","1993","11","01","16:00","","3.7","","-4.5","","55","","32","","30","","25.0","","100.89","","","","","","Mainly Clear"
"-79.40","43.63","TORONTO ISLAND A","6158665","1993-11-01 17:00","1993","11","01","17:00","","2.8","","-4.5","","59","","31","","26","","25.0","","101.02","","","","","","Clear"
"-79.40","43.63","TORONTO ISLAND A","6158665","1993-11-01 18:00","1993","11","01","18:00","","2.3","","-4.2","","62","","31","","26","","25.0","","101.15","","","","","","Clear"
"-79.40","43.63","TORONTO ISLAND A","6158665","1993-11-01 19:00","1993","11","01","19:00","","2.2","","-4.5","","61","","31","","28","","25.0","","101.22","","","","","","Clear"
"-79.40","43.63","TORONTO ISLAND A","6158665","1993-11-01 20:00","1993","11","01","20:00","","1.7","","-3.7","","67","","30","","19","","25.0","","101.32","","","","","","Clear"
"-79.40","43.63","TORONTO ISLAND A","6158665","1993-11-01 21:00","1993","11","01","21:00","","1.6","","-3.6","","68","","29","","19","","25.0","","101.46","","","","","","Clear"
"-79.40","43.63","TORONTO ISLAND A","6158665","1993-11-01 22:00","1993","11","01","22:00","","1.7","","-3.2","","70","","28","","19","","25.0","","101.52","","","","","","Clear"
"-79.40","43.63","TORONTO ISLAND A","6158665","1993-11-01 23:00","1993","11","01","23:00","","","","","","","","27","","15","","","","","","","","","","NA"
"-79.40","43.63","TORONTO ISLAND A","6158665","1993-11-02 00:00","1993","11","02","00:00","","","","","","","","33","","7","","","","","","","","","","NA"
"-79.40","43.63","TORONTO ISLAND A","6158665","1993-11-02 01:00","1993","11","02","01:00","","","","","","","","30","","7","","","","","","","","","","NA"
"-79.40","43.63","TORONTO ISLAND A","6158665","1993-11-02 02:00","1993","11","02","02:00","","","","","","","","28","","9","","","","","","","","","","NA"
"-79.40","43.63","TORONTO ISLAND A","6158665","1993-11-02 03:00","1993","11","02","03:00","","","","","","","","26","","15","","","","","","","","","","NA"
"-79.40","43.63","TORONTO ISLAND A","6158665","1993-11-02 04:00","1993","11","02","04:00","","","","","","","","28","","9","","","","","","","","","","NA"
"-79.40","43.63","TORONTO ISLAND A","6158665","1993-11-02 05:00","1993","11","02","05:00","","","","","","","","33","","7","","","","","","","","","","NA"
"-79.40","43.63","TORONTO ISLAND A","6158665","1993-11-02 06:00","1993","11","02","06:00","","","","","","","","31","","4","","","","","","","","","","NA"
"-79.40","43.63","TORONTO ISLAND A","6158665","1993-11-02 07:00","1993","11","02","07:00","","0.2","","-2.8","","80","","28","","6","","19.3","","102.10","","","","","","Mainly Clear"
"-79.40","43.63","TORONTO ISLAND A","6158665","1993-11-02 08:00","1993","11","02","08:00","","0.4","","-2.7","","80","","33","","4","","24.1","","102.16","","","","","","Mostly Cloudy"
"-79.40","43.63","TORONTO ISLAND A","6158665","1993-11-02 09:00","1993","11","02","09:00","","2.2","","-1.7","","75","","28","","7","","19.3","","102.20","","","","","","Mostly Cloudy"
"-79.40","43.63","TORONTO ISLAND A","6158665","1993-11-02 10:00","1993","11","02","10:00","","3.9","","-0.7","","72","","24","","6","","19.3","","102.23","","","","","","Mostly Cloudy"
"-79.40","43.63","TORONTO ISLAND A","6158665","1993-11-02 11:00","1993","11","02","11:00","","5.1","","0.6","","73","","19","","17","","19.3","","102.16","","","","","","Mostly Cloudy"
"-79.40","43.63","TORONTO ISLAND A","6158665","1993-11-02 12:00","1993","11","02","12:00","","5.6","","0.4","","69","","19","","15","","24.1","","102.10","","","","","","Mostly Cloudy"
"-79.40","43.63","TORONTO ISLAND A","6158665","1993-11-02 13:00","1993","11","02","13:00","","6.2","","0.4","","66","","20","","19","","24.1","","102.00","","","","","","Cloudy"
"-79.40","43.63","TORONTO ISLAND A","6158665","1993-11-02 14:00","1993","11","02","14:00","","6.1","","0.4","","67","","19","","19","","19.3","","101.93","","","","","","Cloudy"
"-79.40","43.63","TORONTO ISLAND A","6158665","1993-11-02 15:00","1993","11","02","15:00","","6.1","","0.3","","66","","18","","19","","16.1","","101.86","","","","","","Cloudy"
"-79.40","43.63","TORONTO ISLAND A","6158665","1993-11-02 16:00","1993","11","02","16:00","","6.2","","1.1","","70","","18","","13","","19.3","","101.83","","","","","","Cloudy"
"-79.40","43.63","TORONTO ISLAND A","6158665","1993-11-02 17:00","1993","11","02","17:00","","5.6","","1.1","","73","","16","","17","","19.3","","101.76","","","","","","Cloudy"
"-79.40","43.63","TORONTO ISLAND A","6158665","1993-11-02 18:00","1993","11","02","18:00","","6.0","","3.4","","83","","19","","19","","24.1","","101.76","","","","","","Cloudy"
"-79.40","43.63","TORONTO ISLAND A","6158665","1993-11-02 19:00","1993","11","02","19:00","","6.2","","2.4","","76","","21","","19","","24.1","","101.66","","","","","","Cloudy"
"-79.40","43.63","TORONTO ISLAND A","6158665","1993-11-02 20:00","1993","11","02","20:00","","6.2","","3.3","","81","","18","","17","","24.1","","101.56","","","","","","Cloudy"
"-79.40","43.63","TORONTO ISLAND A","6158665","1993-11-02 21:00","1993","11","02","21:00","","6.1","","3.0","","80","","18","","19","","24.1","","101.49","","","","","","Cloudy"
"-79.40","43.63","TORONTO ISLAND A","6158665","1993-11-02 22:00","1993","11","02","22:00","","6.2","","2.6","","78","","20","","22","","24.1","","101.42","","","","","","Cloudy"
"-79.40","43.63","TORONTO ISLAND A","6158665","1993-11-02 23:00","1993","11","02","23:00","","","","","","","","21","","20","","","","","","","","","","NA"
"-79.40","43.63","TORONTO ISLAND A","6158665","1993-11-03 00:00","1993","11","03","00:00","","","","","","","","20","","20","","","","","","","","","","NA"
"-79.40","43.63","TORONTO ISLAND A","6158665","1993-11-03 01:00","1993","11","03","01:00","","","","","","","","21","","20","","","","","","","","","","NA"
"-79.40","43.63","TORONTO ISLAND A","6158665","1993-11-03 02:00","1993","11","03","02:00","","","","","","","","20","","22","","","","","","","","","","NA"
"-79.40","43.63","TORONTO ISLAND A","6158665","1993-11-03 03:00","1993","11","03","03:00","","","","","","","","21","","26","","","","","","","","","","NA"
"-79.40","43.63","TORONTO ISLAND A","6158665","1993-11-03 04:00","1993","11","03","04:00","","","","","","","","21","","28","","","","","","","","","","NA"
"-79.40","43.63","TORONTO ISLAND A","6158665","1993-11-03 05:00","1993","11","03","05:00","","","","","","","","20","","28","","","","","","","","","","NA"
"-79.40","43.63","TORONTO ISLAND A","6158665","1993-11-03 06:00","1993","11","03","06:00","","","","","","","","24","","28","","","","","","","","","","NA"
"-79.40","43.63","TORONTO ISLAND A","6158665","1993-11-03 07:00","1993","11","03","07:00","","6.2","","4.0","","86","","24","","33","","19.3","","100.72","","","","","","Cloudy"
"-79.40","43.63","TORONTO ISLAND A","6158665","1993-11-03 08:00","1993","11","03","08:00","","5.8","","4.2","","90","","25","","22","","12.9","","100.68","","","","","","Rain"
"-79.40","43.63","TORONTO ISLAND A","6158665","1993-11-03 09:00","1993","11","03","09:00","","5.8","","4.4","","91","","24","","26","","14.5","","100.65","","","","","","Rain"
"-79.40","43.63","TORONTO ISLAND A","6158665","1993-11-03 10:00","1993","11","03","10:00","","5.9","","3.9","","87","","24","","31","","24.1","","100.62","","","","","","Cloudy"
"-79.40","43.63","TORONTO ISLAND A","6158665","1993-11-03 11:00","1993","11","03","11:00","","6.1","","3.5","","83","","24","","24","","24.1","","100.58","","","","","","Cloudy"
"-79.40","43.63","TORONTO ISLAND A","6158665","1993-11-03 12:00","1993","11","03","12:00","","6.5","","3.8","","83","","24","","26","","19.3","","100.52","","","","","","Cloudy"
"-79.40","43.63","TORONTO ISLAND A","6158665","1993-11-03 13:00","1993","11","03","13:00","","7.3","","3.9","","79","","26","","17","","19.3","","100.45","","","","","","Cloudy"
"-79.40","43.63","TORONTO ISLAND A","6158665","1993-11-03 14:00","1993","11","03","14:00","","7.7","","2.9","","71","","26","","24","","24.1","","100.42","","","","","","Cloudy"
"-79.40","43.63","TORONTO ISLAND A","6158665","1993-11-03 15:00","1993","11","03","15:00","","8.0","","2.0","","66","","27","","17","","24.1","","100.42","","","","","","Mostly Cloudy"
"-79.40","43.63","TORONTO ISLAND A","6158665","1993-11-03 16:00","1993","11","03","16:00","","8.0","","2.3","","67","","26","","19","","24.1","","100.48","","","","","","Cloudy"
"-79.40","43.63","TORONTO ISLAND A","6158665","1993-11-03 17:00","1993","11","03","17:00","","7.2","","4.0","","80","","23","","19","","24.1","","100.48","","","","","","Mostly Cloudy"
"-79.40","43.63","TORONTO ISLAND A","6158665","1993-11-03 18:00","1993","11","03","18:00","","6.9","","4.1","","82","","23","","19","","24.1","","100.52","","","","","","Mostly Cloudy"
"-79.40","43.63","TORONTO ISLAND A","6158665","1993-11-03 19:00","1993","11","03","19:00","","6.4","","4.2","","86","","23","","15","","24.1","","100.55","","","","","","Mainly Clear"
"-79.40","43.63","TORONTO ISLAND A","6158665","1993-11-03 20:00","1993","11","03","20:00","","6.4","","4.0","","85","","23","","22","","19.3","","100.55","","","","","","Mainly Clear"
"-79.40","43.63","TORONTO ISLAND A","6158665","1993-11-03 21:00","1993","11","03","21:00","","5.8","","3.9","","88","","24","","17","","19.3","","100.55","","","","","","Clear"
"-79.40","43.63","TORONTO ISLAND A","6158665","1993-11-03 22:00","1993","11","03","22:00","","5.9","","3.6","","85","","25","","15","","16.1","","100.62","","","","","","Mostly Cloudy"
"-79.40","43.63","TORONTO ISLAND A","6158665","1993-11-03 23:00","1993","11","03","23:00","","","","","","","","24","","11","","","","","","","","","","NA"
"-79.40","43.63","TORONTO ISLAND A","6158665","1993-11-04 00:00","1993","11","04","00:00","","","","","","","","23","","13","","","","","","","","","","NA"
"-79.40","43.63","TORONTO ISLAND A","6158665","1993-11-04 01:00","1993","11","04","01:00","","","","","","","","24","","7","","","","","","","","","","NA"
"-79.40","43.63","TORONTO ISLAND A","6158665","1993-11-04 02:00","1993","11","04","02:00","","","","","","","","23","","24","","","","","","","","","","NA"
"-79.40","43.63","TORONTO ISLAND A","6158665","1993-11-04 03:00","1993","11","04","03:00","","","","","","","","24","","22","","","","","","","","","","NA"
"-79.40","43.63","TORONTO ISLAND A","6158665","1993-11-04 04:00","1993","11","04","04:00","","","","","","","","23","","30","","","","","","","","","","NA"
"-79.40","43.63","TORONTO ISLAND A","6158665","1993-11-04 05:00","1993","11","04","05:00","","","","","","","","23","","33","","","","","","","","","","NA"
"-79.40","43.63","TORONTO ISLAND A","6158665","1993-11-04 06:00","1993","11","04","06:00","","","","","","","","23","","28","","","","","","","","","","NA"
"-79.40","43.63","TORONTO ISLAND A","6158665","1993-11-04 07:00","1993","11","04","07:00","","7.0","","6.2","","95","","23","","28","","6.4","","100.52","","","","","","Fog"
"-79.40","43.63","TORONTO ISLAND A","6158665","1993-11-04 08:00","1993","11","04","08:00","","7.2","","6.5","","95","","23","","26","","6.4","","100.52","","","","","","Rain Showers,Fog"
"-79.40","43.63","TORONTO ISLAND A","6158665","1993-11-04 09:00","1993","11","04","09:00","","7.4","","6.6","","95","","22","","22","","8.0","","100.52","","","","","","Fog"
"-79.40","43.63","TORONTO ISLAND A","6158665","1993-11-04 10:00","1993","11","04","10:00","","7.7","","6.5","","92","","22","","19","","9.7","","100.48","","","","","","Rain Showers,Fog"
"-79.40","43.63","TORONTO ISLAND A","6158665","1993-11-04 11:00","1993","11","04","11:00","","7.9","","6.2","","89","","22","","26","","11.3","","100.48","","","","","","Cloudy"
"-79.40","43.63","TORONTO ISLAND A","6158665","1993-11-04 12:00","1993","11","04","12:00","","8.4","","6.0","","85","","22","","20","","12.9","","100.42","","","","","","Cloudy"
"-79.40","43.63","TORONTO ISLAND A","6158665","1993-11-04 13:00","1993","11","04","13:00","","8.7","","6.0","","83","","23","","26","","12.9","","100.38","","","","","","Cloudy"
"-79.40","43.63","TORONTO ISLAND A","6158665","1993-11-04 14:00","1993","11","04","14:00","","8.4","","6.0","","85","","22","","17","","14.5","","100.28","","","","","","Cloudy"
"-79.40","43.63","TORONTO ISLAND A","6158665","1993-11-04 15:00","1993","11","04","15:00","","8.4","","6.0","","85","","20","","13","","19.3","","100.21","","","","","","Cloudy"
"-79.40","43.63","TORONTO ISLAND A","6158665","1993-11-04 16:00","1993","11","04","16:00","","7.9","","6.2","","89","","18","","11","","14.5","","100.18","","","","","","Cloudy"
"-79.40","43.63","TORONTO ISLAND A","6158665","1993-11-04 17:00","1993","11","04","17:00","","8.4","","5.4","","81","","22","","24","","12.9","","100.21","","","","","","Cloudy"
"-79.40","43.63","TORONTO ISLAND A","6158665","1993-11-04 18:00","1993","11","04","18:00","","7.8","","5.8","","87","","22","","19","","24.1","","100.28","","","","","","Cloudy"
"-79.40","43.63","TORONTO ISLAND A","6158665","1993-11-04 19:00","1993","11","04","19:00","","7.3","","6.0","","92","","20","","7","","25.0","","100.21","","","","","","Cloudy"
"-79.40","43.63","TORONTO ISLAND A","6158665","1993-11-04 20:00","1993","11","04","20:00","","7.5","","5.3","","86","","17","","9","","25.0","","100.11","","","","","","Cloudy"
"-79.40","43.63","TORONTO ISLAND A","6158665","1993-11-04 21:00","1993","11","04","21:00","","7.6","","5.7","","88","","10","","4","","25.0","","100.11","","","","","","Cloudy"
"-79.40","43.63","TORONTO ISLAND A","6158665","1993-11-04 22:00","1993","11","04","22:00","","7.2","","6.2","","93","","8","","13","","24.1","","100.08","","","","","","Cloudy"
"-79.40","43.63","TORONTO ISLAND A","6158665","1993-11-04 23:00","1993","11","04","23:00","","","","","","","","9","","15","","","","","","","","","","NA"
"-79.40","43.63","TORONTO ISLAND A","6158665","1993-11-05 00:00","1993","11","05","00:00","","","","","","","","8","","17","","","","","","","","","","NA"
"-79.40","43.63","TORONTO ISLAND A","6158665","1993-11-05 01:00","1993","11","05","01:00","","","","","","","","8","","17","","","","","","","","","","NA"
"-79.40","43.63","TORONTO ISLAND A","6158665","1993-11-05 02:00","1993","11","05","02:00","","","","","","","","8","","20","","","","","","","","","","NA"
"-79.40","43.63","TORONTO ISLAND A","6158665","1993-11-05 03:00","1993","11","05","03:00","","","","","","","","8","","22","","","","","","","","","","NA"
"-79.40","43.63","TORONTO ISLAND A","6158665","1993-11-05 04:00","1993","11","05","04:00","","","","","","","","8","","19","","","","","","","","","","NA"
"-79.40","43.63","TORONTO ISLAND A","6158665","1993-11-05 05:00","1993","11","05","05:00","","","","","","","","9","","20","","","","","","","","","","NA"
"-79.40","43.63","TORONTO ISLAND A","6158665","1993-11-05 06:00","1993","11","05","06:00","","","","","","","","9","","19","","","","","","","","","","NA"
"-79.40","43.63","TORONTO ISLAND A","6158665","1993-11-05 07:00","1993","11","05","07:00","","8.0","","8.0","","100","","9","","13","","1.6","","99.14","","","","","","Drizzle,Fog"
"-79.40","43.63","TORONTO ISLAND A","6158665","1993-11-05 08:00","1993","11","05","08:00","","8.7","","8.7","","100","","","","0","","1.0","","99.10","","","","","","Fog"
"-79.40","43.63","TORONTO ISLAND A","6158665","1993-11-05 09:00","1993","11","05","09:00","","8.9","","8.9","","100","","","","0","","2.4","","99.04","","","","","","Fog"
"-79.40","43.63","TORONTO ISLAND A","6158665","1993-11-05 10:00","1993","11","05","10:00","","9.4","","9.4","","100","","24","","6","","4.8","","99.04","","","","","","Fog"
"-79.40","43.63","TORONTO ISLAND A","6158665","1993-11-05 11:00","1993","11","05","11:00","","10.5","","10.5","","100","","23","","7","","4.8","","99.00","","","","","","Fog"
"-79.40","43.63","TORONTO ISLAND A","6158665","1993-11-05 12:00","1993","11","05","12:00","","9.5","","9.4","","99","","23","","15","","6.4","","98.94","","","","","","Fog"
"-79.40","43.63","TORONTO ISLAND A","6158665","1993-11-05 13:00","1993","11","05","13:00","","10.0","","9.2","","95","","21","","20","","14.5","","98.83","","","","","","Mostly Cloudy"
"-79.40","43.63","TORONTO ISLAND A","6158665","1993-11-05 14:00","1993","11","05","14:00","","10.3","","9.0","","92","","21","","19","","12.9","","98.83","","","","","","Mostly Cloudy"
"-79.40","43.63","TORONTO ISLAND A","6158665","1993-11-05 15:00","1993","11","05","15:00","","11.2","","8.3","","82","","22","","33","","12.9","","98.80","","","","","","Mostly Cloudy"
"-79.40","43.63","TORONTO ISLAND A","6158665","1993-11-05 16:00","1993","11","05","16:00","","10.7","","7.6","","81","","22","","30","","12.9","","98.80","","","","","","Mostly Cloudy"
"-79.40","43.63","TORONTO ISLAND A","6158665","1993-11-05 17:00","1993","11","05","17:00","","10.6","","7.0","","78","","24","","30","","12.9","","98.83","","","","","","Mainly Clear"
"-79.40","43.63","TORONTO ISLAND A","6158665","1993-11-05 18:00","1993","11","05","18:00","","8.7","","6.9","","88","","25","","19","","14.5","","98.83","","","","","","Mainly Clear"
"-79.40","43.63","TORONTO ISLAND A","6158665","1993-11-05 19:00","1993","11","05","19:00","","10.2","","5.5","","72","","25","","22","","19.3","","98.87","","","","","","Mostly Cloudy"
"-79.40","43.63","TORONTO ISLAND A","6158665","1993-11-05 20:00","1993","11","05","20:00","","9.9","","3.7","","65","","26","","30","","24.1","","98.94","","","","","","Mainly Clear"
"-79.40","43.63","TORONTO ISLAND A","6158665","1993-11-05 21:00","1993","11","05","21:00","","8.3","","4.1","","75","","25","","33","","24.1","","99.04","","","","","","Mostly Cloudy"
"-79.40","43.63","TORONTO ISLAND A","6158665","1993-11-05 22:00","1993","11","05","22:00","","8.0","","4.4","","78","","24","","31","","24.1","","99.04","","","","","","Cloudy"
"-79.40","43.63","TORONTO ISLAND A","6158665","1993-11-05 23:00","1993","11","05","23:00","","","","","","","","28","","33","","","","","","","","","","NA"
"-79.40","43.63","TORONTO ISLAND A","6158665","1993-11-06 00:00","1993","11","06","00:00","","","","","","","","29","","33","","","","","","","","","","NA"
"-79.40","43.63","TORONTO ISLAND A","6158665","1993-11-06 01:00","1993","11","06","01:00","","","","","","","","29","","37","","","","","","","","","","NA"
"-79.40","43.63","TORONTO ISLAND A","6158665","1993-11-06 02:00","1993","11","06","02:00","","","","","","","","29","","33","","","","","","","","","","NA"
"-79.40","43.63","TORONTO ISLAND A","6158665","1993-11-06 03:00","1993","11","06","03:00","","","","","","","","30","","30","","","","","","","","","","NA"
"-79.40","43.63","TORONTO ISLAND A","6158665","1993-11-06 04:00","1993","11","06","04:00","","","","","","","","31","","30","","","","","","","","","","NA"
"-79.40","43.63","TORONTO ISLAND A","6158665","1993-11-06 05:00","1993","11","06","05:00","","","","","","","","30","","37","","","","","","","","","","NA"
"-79.40","43.63","TORONTO ISLAND A","6158665","1993-11-06 06:00","1993","11","06","06:00","","","","","","","","30","","30","","","","","","","","","","NA"
"-79.40","43.63","TORONTO ISLAND A","6158665","1993-11-06 07:00","1993","11","06","07:00","","0.8","","-4.6","","67","","30","","26","","24.1","","99.88","","","","","","Mostly Cloudy"
"-79.40","43.63","TORONTO ISLAND A","6158665","1993-11-06 08:00","1993","11","06","08:00","","0.8","","-5.4","","63","","30","","22","","24.1","","99.98","","","","","","Mostly Cloudy"
"-79.40","43.63","TORONTO ISLAND A","6158665","1993-11-06 09:00","1993","11","06","09:00","","0.6","","-6.0","","61","","29","","26","","25.0","","100.01","","","","","","Mostly Cloudy"
"-79.40","43.63","TORONTO ISLAND A","6158665","1993-11-06 10:00","1993","11","06","10:00","","0.9","","-5.7","","61","","29","","22","","25.0","","100.05","","","","","","Mostly Cloudy"
"-79.40","43.63","TORONTO ISLAND A","6158665","1993-11-06 11:00","1993","11","06","11:00","","1.6","","-5.1","","61","","29","","30","","25.0","","100.08","","","","","","Mostly Cloudy"
"-79.40","43.63","TORONTO ISLAND A","6158665","1993-11-06 12:00","1993","11","06","12:00","","1.7","","-4.5","","63","","31","","26","","25.0","","100.05","","","","","","Cloudy"
"-79.40","43.63","TORONTO ISLAND A","6158665","1993-11-06 13:00","1993","11","06","13:00","","1.8","","-4.0","","65","","33","","22","","25.0","","100.01","","","","","","Mostly Cloudy"
"-79.40","43.63","TORONTO ISLAND A","6158665","1993-11-06 14:00","1993","11","06","14:00","","1.8","","-4.7","","62","","34","","19","","25.0","","100.05","","","","","","Mostly Cloudy"
"-79.40","43.63","TORONTO ISLAND A","6158665","1993-11-06 15:00","1993","11","06","15:00","","1.9","","-4.4","","63","","35","","11","","25.0","","100.08","","","","","","Mostly Cloudy"
"-79.40","43.63","TORONTO ISLAND A","6158665","1993-11-06 16:00","1993","11","06","16:00","","1.2","","-4.9","","64","","34","","15","","25.0","","100.18","","","","","","Mostly Cloudy"
"-79.40","43.63","TORONTO ISLAND A","6158665","1993-11-06 17:00","1993","11","06","17:00","","0.9","","-5.5","","62","","34","","19","","25.0","","100.25","","","","","","Mostly Cloudy"
"-79.40","43.63","TORONTO ISLAND A","6158665","1993-11-06 18:00","1993","11","06","18:00","","0.6","","-5.7","","62","","33","","19","","25.0","","100.28","","","","","","Mostly Cloudy"
"-79.40","43.63","TORONTO ISLAND A","6158665","1993-11-06 19:00","1993","11","06","19:00","","0.5","","-5.5","","64","","32","","15","","25.0","","100.35","","","","","","Mostly Cloudy"
"-79.40","43.63","TORONTO ISLAND A","6158665","1993-11-06 20:00","1993","11","06","20:00","","-0.2","","-6.1","","64","","34","","15","","25.0","","100.42","","","","-5","","Mostly Cloudy"
"-79.40","43.63","TORONTO ISLAND A","6158665","1993-11-06 21:00","1993","11","06","21:00","","-0.4","","-5.8","","67","","33","","15","","25.0","","100.45","","","","-5","","Mostly Cloudy"
"-79.40","43.63","TORONTO ISLAND A","6158665","1993-11-06 22:00","1993","11","06","22:00","","-0.5","","-6.1","","66","","33","","15","","25.0","","100.48","","","","-5","","Mostly Cloudy"
"-79.40","43.63","TORONTO ISLAND A","6158665","1993-11-06 23:00","1993","11","06","23:00","","","","","","","","32","","22","","","","","","","","","","NA"
"-79.40","43.63","TORONTO ISLAND A","6158665","1993-11-07 00:00","1993","11","07","00:00","","","","","","","","30","","22","","","","","","","","","","NA"
"-79.40","43.63","TORONTO ISLAND A","6158665","1993-11-07 01:00","1993","11","07","01:00","","","","","","","","31","","26","","","","","","","","","","NA"
"-79.40","43.63","TORONTO ISLAND A","6158665","1993-11-07 02:00","1993","11","07","02:00","","","","","","","","31","","19","","","","","","","","","","NA"
"-79.40","43.63","TORONTO ISLAND A","6158665","1993-11-07 03:00","1993","11","07","03:00","","","","","","","","28","","15","","","","","","","","","","NA"
"-79.40","43.63","TORONTO ISLAND A","6158665","1993-11-07 04:00","1993","11","07","04:00","","","","","","","","29","","26","","","","","","","","","","NA"
"-79.40","43.63","TORONTO ISLAND A","6158665","1993-11-07 05:00","1993","11","07","05:00","","","","","","","","30","","26","","","","","","","","","","NA"
"-79.40","43.63","TORONTO ISLAND A","6158665","1993-11-07 06:00","1993","11","07","06:00","","","","","","","","30","","26","","","","","","","","","","NA"
"-79.40","43.63","TORONTO ISLAND A","6158665","1993-11-07 07:00","1993","11","07","07:00","","0.3","","-7.6","","55","","29","","22","","24.1","","100.92","","","","","","Cloudy"
"-79.40","43.63","TORONTO ISLAND A","6158665","1993-11-07 08:00","1993","11","07","08:00","","0.3","","-7.4","","56","","28","","15","","25.0","","101.02","","","","","","Cloudy"
"-79.40","43.63","TORONTO ISLAND A","6158665","1993-11-07 09:00","1993","11","07","09:00","","0.5","","-6.3","","60","","27","","19","","25.0","","101.05","","","","","","Cloudy"
"-79.40","43.63","TORONTO ISLAND A","6158665","1993-11-07 10:00","1993","11","07","10:00","","1.0","","-6.3","","58","","24","","19","","25.0","","101.05","","","","","","Cloudy"
"-79.40","43.63","TORONTO ISLAND A","6158665","1993-11-07 11:00","1993","11","07","11:00","","1.3","","-4.4","","66","","23","","22","","25.0","","101.12","","","","","","Cloudy"
"-79.40","43.63","TORONTO ISLAND A","6158665","1993-11-07 12:00","1993","11","07","12:00","","1.5","","-5.4","","60","","24","","26","","25.0","","101.12","","","","","","Mostly Cloudy"
"-79.40","43.63","TORONTO ISLAND A","6158665","1993-11-07 13:00","1993","11","07","13:00","","3.0","","-5.4","","54","","25","","26","","25.0","","101.05","","","","","","Mostly Cloudy"
"-79.40","43.63","TORONTO ISLAND A","6158665","1993-11-07 14:00","1993","11","07","14:00","","4.0","","-5.0","","52","","27","","24","","25.0","","101.02","","","","","","Mostly Cloudy"
"-79.40","43.63","TORONTO ISLAND A","6158665","1993-11-07 15:00","1993","11","07","15:00","","3.4","","-5.1","","54","","25","","22","","25.0","","101.09","","","","","","Cloudy"
"-79.40","43.63","TORONTO ISLAND A","6158665","1993-11-07 16:00","1993","11","07","16:00","","3.6","","-4.7","","54","","24","","33","","24.1","","101.09","","","","","","Mostly Cloudy"
"-79.40","43.63","TORONTO ISLAND A","6158665","1993-11-07 17:00","1993","11","07","17:00","","3.5","","-4.2","","57","","26","","30","","24.1","","101.12","","","","","","Cloudy"
"-79.40","43.63","TORONTO ISLAND A","6158665","1993-11-07 18:00","1993","11","07","18:00","","2.7","","-3.9","","62","","24","","33","","24.1","","101.19","","","","","","Cloudy"
"-79.40","43.63","TORONTO ISLAND A","6158665","1993-11-07 19:00","1993","11","07","19:00","","2.5","","-2.7","","68","","24","","37","","24.1","","101.22","","","","","","Mostly Cloudy"
"-79.40","43.63","TORONTO ISLAND A","6158665","1993-11-07 20:00","1993","11","07","20:00","","1.7","","-4.1","","65","","25","","28","","24.1","","101.26","","","","","","Mostly Cloudy"
"-79.40","43.63","TORONTO ISLAND A","6158665","1993-11-07 21:00","1993","11","07","21:00","","1.1","","-4.2","","67","","25","","28","","24.1","","101.32","","","","","","Mostly Cloudy"
"-79.40","43.63","TORONTO ISLAND A","6158665","1993-11-07 22:00","1993","11","07","22:00","","0.9","","-4.8","","66","","25","","22","","24.1","","101.36","","","","","","Mostly Cloudy"
"-79.40","43.63","TORONTO ISLAND A","6158665","1993-11-07 23:00","1993","11","07","23:00","","","","","","","","25","","24","","","","","","","","","","NA"
"-79.40","43.63","TORONTO ISLAND A","6158665","1993-11-08 00:00","1993","11","08","00:00","","","","","","","","25","","20","","","","","","","","","","NA"
"-79.40","43.63","TORONTO ISLAND A","6158665","1993-11-08 01:00","1993","11","08","01:00","","","","","","","","26","","20","","","","","","","","","","NA"
"-79.40","43.63","TORONTO ISLAND A","6158665","1993-11-08 02:00","1993","11","08","02:00","","","","","","","","26","","20","","","","","","","","","","NA"
"-79.40","43.63","TORONTO ISLAND A","6158665","1993-11-08 03:00","1993","11","08","03:00","","","","","","","","25","","22","","","","","","","","","","NA"
"-79.40","43.63","TORONTO ISLAND A","6158665","1993-11-08 04:00","1993","11","08","04:00","","","","","","","","24","","28","","","","","","","","","","NA"
"-79.40","43.63","TORONTO ISLAND A","6158665","1993-11-08 05:00","1993","11","08","05:00","","","","","","","","24","","28","","","","","","","","","","NA"
"-79.40","43.63","TORONTO ISLAND A","6158665","1993-11-08 06:00","1993","11","08","06:00","","","","","","","","25","","26","","","","","","","","","","NA"
"-79.40","43.63","TORONTO ISLAND A","6158665","1993-11-08 07:00","1993","11","08","07:00","","2.2","","-2.2","","72","","24","","31","","19.3","","101.56","","","","","","Mostly Cloudy"
"-79.40","43.63","TORONTO ISLAND A","6158665","1993-11-08 08:00","1993","11","08","08:00","","2.6","","-1.4","","75","","24","","31","","16.1","","101.56","","","","","","Mostly Cloudy"
"-79.40","43.63","TORONTO ISLAND A","6158665","1993-11-08 09:00","1993","11","08","09:00","","3.3","","-1.0","","73","","24","","24","","12.9","","101.59","","","","","","Mainly Clear"
"-79.40","43.63","TORONTO ISLAND A","6158665","1993-11-08 10:00","1993","11","08","10:00","","4.1","","0.2","","76","","24","","24","","11.3","","101.63","","","","","","Mainly Clear"
"-79.40","43.63","TORONTO ISLAND A","6158665","1993-11-08 11:00","1993","11","08","11:00","","5.3","","1.5","","77","","23","","24","","11.3","","101.59","","","","","","Mostly Cloudy"
"-79.40","43.63","TORONTO ISLAND A","6158665","1993-11-08 12:00","1993","11","08","12:00","","6.3","","1.8","","73","","22","","37","","12.9","","101.56","","","","","","Clear"
"-79.40","43.63","TORONTO ISLAND A","6158665","1993-11-08 13:00","1993","11","08","13:00","","6.7","","2.0","","72","","21","","37","","16.1","","101.49","","","","","","Clear"
"-79.40","43.63","TORONTO ISLAND A","6158665","1993-11-08 14:00","1993","11","08","14:00","","6.9","","2.8","","75","","21","","39","","17.7","","101.49","","","","","","Clear"
"-79.40","43.63","TORONTO ISLAND A","6158665","1993-11-08 15:00","1993","11","08","15:00","","6.9","","2.9","","76","","21","","28","","12.9","","101.49","","","","","","Clear"
"-79.40","43.63","TORONTO ISLAND A","6158665","1993-11-08 16:00","1993","11","08","16:00","","6.6","","3.2","","79","","21","","28","","16.1","","101.49","","","","","","Clear"
"-79.40","43.63","TORONTO ISLAND A","6158665","1993-11-08 17:00","1993","11","08","17:00","","6.2","","3.3","","81","","22","","30","","16.1","","101.56","","","","","","Mainly Clear"
"-79.40","43.63","TORONTO ISLAND A","6158665","1993-11-08 18:00","1993","11","08","18:00","","6.5","","2.3","","74","","24","","28","","24.1","","101.56","","","","","","Mainly Clear"
"-79.40","43.63","TORONTO ISLAND A","6158665","1993-11-08 19:00","1993","11","08","19:00","","6.2","","2.1","","75","","24","","28","","24.1","","101.63","","","","","","Clear"
"-79.40","43.63","TORONTO ISLAND A","6158665","1993-11-08 20:00","1993","11","08","20:00","","5.6","","2.5","","80","","25","","15","","24.1","","101.63","","","","","","Clear"
"-79.40","43.63","TORONTO ISLAND A","6158665","1993-11-08 21:00","1993","11","08","21:00","","5.9","","2.0","","76","","29","","13","","24.1","","101.63","","","","","","Clear"
"-79.40","43.63","TORONTO ISLAND A","6158665","1993-11-08 22:00","1993","11","08","22:00","","5.4","","2.0","","79","","25","","22","","24.1","","101.66","","","","","","Clear"
"-79.40","43.63","TORONTO ISLAND A","6158665","1993-11-08 23:00","1993","11","08","23:00","","","","","","","","27","","11","","","","","","","","","","NA"
"-79.40","43.63","TORONTO ISLAND A","6158665","1993-11-09 00:00","1993","11","09","00:00","","","","","","","","28","","4","","","","","","","","","","NA"
"-79.40","43.63","TORONTO ISLAND A","6158665","1993-11-09 01:00","1993","11","09","01:00","","","","","","","","28","","6","","","","","","","","","","NA"
"-79.40","43.63","TORONTO ISLAND A","6158665","1993-11-09 02:00","1993","11","09","02:00","","","","","","","","29","","11","","","","","","","","","","NA"
"-79.40","43.63","TORONTO ISLAND A","6158665","1993-11-09 03:00","1993","11","09","03:00","","","","","","","","26","","15","","","","","","","","","","NA"
"-79.40","43.63","TORONTO ISLAND A","6158665","1993-11-09 04:00","1993","11","09","04:00","","","","","","","","27","","11","","","","","","","","","","NA"
"-79.40","43.63","TORONTO ISLAND A","6158665","1993-11-09 05:00","1993","11","09","05:00","","","","","","","","26","","15","","","","","","","","","","NA"
"-79.40","43.63","TORONTO ISLAND A","6158665","1993-11-09 06:00","1993","11","09","06:00","","","","","","","","25","","17","","","","","","","","","","NA"
"-79.40","43.63","TORONTO ISLAND A","6158665","1993-11-09 07:00","1993","11","09","07:00","","3.7","","0.0","","77","","25","","15","","16.1","","101.69","","","","","","Mostly Cloudy"
"-79.40","43.63","TORONTO ISLAND A","6158665","1993-11-09 08:00","1993","11","09","08:00","","3.4","","-0.3","","77","","24","","15","","14.5","","101.73","","","","","","Mainly Clear"
"-79.40","43.63","TORONTO ISLAND A","6158665","1993-11-09 09:00","1993","11","09","09:00","","4.5","","0.8","","77","","25","","20","","12.9","","101.76","","","","","","Mainly Clear"
"-79.40","43.63","TORONTO ISLAND A","6158665","1993-11-09 10:00","1993","11","09","10:00","","5.6","","0.2","","68","","24","","11","","12.9","","101.73","","","","","","Mostly Cloudy"
"-79.40","43.63","TORONTO ISLAND A","6158665","1993-11-09 11:00","1993","11","09","11:00","","6.3","","0.6","","67","","22","","11","","12.9","","101.73","","","","","","Mainly Clear"
"-79.40","43.63","TORONTO ISLAND A","6158665","1993-11-09 12:00","1993","11","09","12:00","","6.8","","1.8","","70","","21","","11","","16.1","","101.66","","","","","","Clear"
"-79.40","43.63","TORONTO ISLAND A","6158665","1993-11-09 13:00","1993","11","09","13:00","","8.7","","2.7","","66","","24","","20","","14.5","","101.59","","","","","","Clear"
"-79.40","43.63","TORONTO ISLAND A","6158665","1993-11-09 14:00","1993","11","09","14:00","","8.9","","3.5","","69","","22","","19","","16.1","","101.56","","","","","","Clear"
"-79.40","43.63","TORONTO ISLAND A","6158665","1993-11-09 15:00","1993","11","09","15:00","","9.1","","3.3","","67","","23","","22","","16.1","","101.52","","","","","","Mainly Clear"
"-79.40","43.63","TORONTO ISLAND A","6158665","1993-11-09 16:00","1993","11","09","16:00","","9.0","","2.4","","63","","25","","26","","16.1","","101.52","","","","","","Mainly Clear"
"-79.40","43.63","TORONTO ISLAND A","6158665","1993-11-09 17:00","1993","11","09","17:00","","9.1","","0.6","","55","","27","","22","","16.1","","101.56","","","","","","Clear"
"-79.40","43.63","TORONTO ISLAND A","6158665","1993-11-09 18:00","1993","11","09","18:00","","8.1","","0.7","","60","","28","","22","","24.1","","101.56","","","","","","Clear"
"-79.40","43.63","TORONTO ISLAND A","6158665","1993-11-09 19:00","1993","11","09","19:00","","6.9","","0.6","","64","","30","","22","","24.1","","101.66","","","","","","Clear"
"-79.40","43.63","TORONTO ISLAND A","6158665","1993-11-09 20:00","1993","11","09","20:00","","6.2","","-0.5","","62","","31","","22","","24.1","","101.66","","","","","","Clear"
"-79.40","43.63","TORONTO ISLAND A","6158665","1993-11-09 21:00","1993","11","09","21:00","","5.4","","-0.6","","65","","33","","19","","24.1","","101.69","","","","","","Clear"
"-79.40","43.63","TORONTO ISLAND A","6158665","1993-11-09 22:00","1993","11","09","22:00","","4.6","","-0.5","","69","","31","","15","","24.1","","101.73","","","","","","Clear"
"-79.40","43.63","TORONTO ISLAND A","6158665","1993-11-09 23:00","1993","11","09","23:00","","","","","","","","34","","9","","","","","","","","","","NA"
"-79.40","43.63","TORONTO ISLAND A","6158665","1993-11-10 00:00","1993","11","10","00:00","","","","","","","","28","","6","","","","","","","","","","NA"
"-79.40","43.63","TORONTO ISLAND A","6158665","1993-11-10 01:00","1993","11","10","01:00","","","","","","","","29","","6","","","","","","","","","","NA"
"-79.40","43.63","TORONTO ISLAND A","6158665","1993-11-10 02:00","1993","11","10","02:00","","","","","","","","33","","7","","","","","","","","","","NA"
"-79.40","43.63","TORONTO ISLAND A","6158665","1993-11-10 03:00","1993","11","10","03:00","","","","","","","","35","","6","","","","","","","","","","NA"
"-79.40","43.63","TORONTO ISLAND A","6158665","1993-11-10 04:00","1993","11","10","04:00","","","","","","","","27","","6","","","","","","","","","","NA"
"-79.40","43.63","TORONTO ISLAND A","6158665","1993-11-10 05:00","1993","11","10","05:00","","","","","","","","","","0","","","","","","","","","","NA"
"-79.40","43.63","TORONTO ISLAND A","6158665","1993-11-10 06:00","1993","11","10","06:00","","","","","","","","28","","7","","","","","","","","","","NA"
"-79.40","43.63","TORONTO ISLAND A","6158665","1993-11-10 07:00","1993","11","10","07:00","","1.5","","0.0","","90","","32","","4","","9.7","","101.79","","","","","","Fog"
"-79.40","43.63","TORONTO ISLAND A","6158665","1993-11-10 08:00","1993","11","10","08:00","","2.4","","0.8","","89","","","","0","","8.0","","101.76","","","","","","Fog"
"-79.40","43.63","TORONTO ISLAND A","6158665","1993-11-10 09:00","1993","11","10","09:00","","3.7","","1.5","","85","","25","","6","","8.0","","101.76","","","","","","Haze"
"-79.40","43.63","TORONTO ISLAND A","6158665","1993-11-10 10:00","1993","11","10","10:00","","4.0","","2.2","","88","","25","","4","","6.4","","101.76","","","","","","Fog"
"-79.40","43.63","TORONTO ISLAND A","6158665","1993-11-10 11:00","1993","11","10","11:00","","4.6","","2.7","","88","","26","","4","","6.4","","101.73","","","","","","Fog"
"-79.40","43.63","TORONTO ISLAND A","6158665","1993-11-10 12:00","1993","11","10","12:00","","5.4","","3.2","","86","","21","","4","","6.4","","101.59","","","","","","Haze"
"-79.40","43.63","TORONTO ISLAND A","6158665","1993-11-10 13:00","1993","11","10","13:00","","5.7","","2.8","","81","","17","","4","","8.0","","101.52","","","","","","Haze"
"-79.40","43.63","TORONTO ISLAND A","6158665","1993-11-10 14:00","1993","11","10","14:00","","6.3","","2.5","","77","","9","","11","","9.7","","101.42","","","","","","Haze"
"-79.40","43.63","TORONTO ISLAND A","6158665","1993-11-10 15:00","1993","11","10","15:00","","6.2","","3.2","","81","","9","","11","","9.7","","101.36","","","","","","Haze"
"-79.40","43.63","TORONTO ISLAND A","6158665","1993-11-10 16:00","1993","11","10","16:00","","6.1","","3.6","","84","","9","","9","","9.7","","101.36","","","","","","Rain Showers,Haze"
"-79.40","43.63","TORONTO ISLAND A","6158665","1993-11-10 17:00","1993","11","10","17:00","","5.9","","4.0","","88","","8","","7","","12.9","","101.32","","","","","","Rain Showers"
"-79.40","43.63","TORONTO ISLAND A","6158665","1993-11-10 18:00","1993","11","10","18:00","","5.8","","4.3","","90","","14","","4","","12.9","","101.29","","","","","","Rain Showers"
"-79.40","43.63","TORONTO ISLAND A","6158665","1993-11-10 19:00","1993","11","10","19:00","","5.5","","4.7","","95","","","","0","","12.9","","101.26","","","","","","Mostly Cloudy"
"-79.40","43.63","TORONTO ISLAND A","6158665","1993-11-10 20:00","1993","11","10","20:00","","4.1","","3.6","","97","","","","0","","12.9","","101.26","","","","","","Mostly Cloudy"
"-79.40","43.63","TORONTO ISLAND A","6158665","1993-11-10 21:00","1993","11","10","21:00","","5.4","","5.0","","97","","","","0","","12.9","","101.26","","","","","","Cloudy"
"-79.40","43.63","TORONTO ISLAND A","6158665","1993-11-10 22:00","1993","11","10","22:00","","5.2","","5.1","","99","","","","0","","9.7","","101.15","","","","","","Fog"
"-79.40","43.63","TORONTO ISLAND A","6158665","1993-11-10 23:00","1993","11","10","23:00","","","","","","","","","","0","","","","","","","","","","NA"
"-79.40","43.63","TORONTO ISLAND A","6158665","1993-11-11 00:00","1993","11","11","00:00","","","","","","","","","","0","","","","","","","","","","NA"
"-79.40","43.63","TORONTO ISLAND A","6158665","1993-11-11 01:00","1993","11","11","01:00","","","","","","","","","","0","","","","","","","","","","NA"
"-79.40","43.63","TORONTO ISLAND A","6158665","1993-11-11 02:00","1993","11","11","02:00","","","","","","","","","","0","","","","","","","","","","NA"
"-79.40","43.63","TORONTO ISLAND A","6158665","1993-11-11 03:00","1993","11","11","03:00","","","","","","","","31","","6","","","","","","","","","","NA"
"-79.40","43.63","TORONTO ISLAND A","6158665","1993-11-11 04:00","1993","11","11","04:00","","","","","","","","29","","20","","","","","","","","","","NA"
"-79.40","43.63","TORONTO ISLAND A","6158665","1993-11-11 05:00","1993","11","11","05:00","","","","","","","","28","","7","","","","","","","","","","NA"
"-79.40","43.63","TORONTO ISLAND A","6158665","1993-11-11 06:00","1993","11","11","06:00","","","","","","","","26","","13","","","","","","","","","","NA"
"-79.40","43.63","TORONTO ISLAND A","6158665","1993-11-11 07:00","1993","11","11","07:00","","4.7","","2.2","","84","","26","","17","","8.0","","100.95","","","","","","Haze"
"-79.40","43.63","TORONTO ISLAND A","6158665","1993-11-11 08:00","1993","11","11","08:00","","4.7","","2.3","","84","","25","","19","","9.7","","101.02","","","","","","Haze"
"-79.40","43.63","TORONTO ISLAND A","6158665","1993-11-11 09:00","1993","11","11","09:00","","4.7","","2.4","","85","","25","","28","","9.7","","100.99","","","","","","Haze"
"-79.40","43.63","TORONTO ISLAND A","6158665","1993-11-11 10:00","1993","11","11","10:00","","4.8","","2.4","","84","","24","","22","","9.7","","100.92","","","","","","Haze"
"-79.40","43.63","TORONTO ISLAND A","6158665","1993-11-11 11:00","1993","11","11","11:00","","5.7","","2.9","","82","","22","","24","","9.7","","100.92","","","","","","Haze"
"-79.40","43.63","TORONTO ISLAND A","6158665","1993-11-11 12:00","1993","11","11","12:00","","6.6","","1.7","","71","","21","","19","","11.3","","100.75","","","","","","Mainly Clear"
"-79.40","43.63","TORONTO ISLAND A","6158665","1993-11-11 13:00","1993","11","11","13:00","","6.8","","1.2","","68","","19","","9","","12.9","","100.62","","","","","","Mostly Cloudy"
"-79.40","43.63","TORONTO ISLAND A","6158665","1993-11-11 14:00","1993","11","11","14:00","","7.4","","1.2","","65","","15","","6","","14.5","","100.48","","","","","","Cloudy"
"-79.40","43.63","TORONTO ISLAND A","6158665","1993-11-11 15:00","1993","11","11","15:00","","7.8","","3.6","","75","","19","","9","","19.3","","100.35","","","","","","Cloudy"
"-79.40","43.63","TORONTO ISLAND A","6158665","1993-11-11 16:00","1993","11","11","16:00","","8.4","","2.2","","65","","15","","7","","14.5","","100.25","","","","","","Cloudy"
"-79.40","43.63","TORONTO ISLAND A","6158665","1993-11-11 17:00","1993","11","11","17:00","","7.1","","3.7","","79","","10","","9","","12.9","","100.18","","","","","","Cloudy"
"-79.40","43.63","TORONTO ISLAND A","6158665","1993-11-11 18:00","1993","11","11","18:00","","7.9","","5.5","","85","","","","0","","16.1","","100.18","","","","","","Rain Showers"
"-79.40","43.63","TORONTO ISLAND A","6158665","1993-11-11 19:00","1993","11","11","19:00","","10.1","","6.2","","77","","24","","37","","14.5","","100.18","","","","","","Thunderstorms,Rain Showers"
"-79.40","43.63","TORONTO ISLAND A","6158665","1993-11-11 20:00","1993","11","11","20:00","","10.8","","6.4","","74","","27","","15","","19.3","","100.18","","","","","","Cloudy"
"-79.40","43.63","TORONTO ISLAND A","6158665","1993-11-11 21:00","1993","11","11","21:00","","9.8","","5.7","","76","","30","","22","","12.9","","100.21","","","","","","Cloudy"
"-79.40","43.63","TORONTO ISLAND A","6158665","1993-11-11 22:00","1993","11","11","22:00","","8.4","","2.6","","67","","27","","15","","11.3","","100.28","","","","","","Mostly Cloudy"
"-79.40","43.63","TORONTO ISLAND A","6158665","1993-11-11 23:00","1993","11","11","23:00","","","","","","","","27","","11","","","","","","","","","","NA"
"-79.40","43.63","TORONTO ISLAND A","6158665","1993-11-12 00:00","1993","11","12","00:00","","","","","","","","30","","13","","","","","","","","","","NA"
"-79.40","43.63","TORONTO ISLAND A","6158665","1993-11-12 01:00","1993","11","12","01:00","","","","","","","","29","","13","","","","","","","","","","NA"
"-79.40","43.63","TORONTO ISLAND A","6158665","1993-11-12 02:00","1993","11","12","02:00","","","","","","","","30","","9","","","","","","","","","","NA"
"-79.40","43.63","TORONTO ISLAND A","6158665","1993-11-12 03:00","1993","11","12","03:00","","","","","","","","27","","11","","","","","","","","","","NA"
"-79.40","43.63","TORONTO ISLAND A","6158665","1993-11-12 04:00","1993","11","12","04:00","","","","","","","","28","","11","","","","","","","","","","NA"
"-79.40","43.63","TORONTO ISLAND A","6158665","1993-11-12 05:00","1993","11","12","05:00","","","","","","","","26","","11","","","","","","","","","","NA"
"-79.40","43.63","TORONTO ISLAND A","6158665","1993-11-12 06:00","1993","11","12","06:00","","","","","","","","26","","9","","","","","","","","","","NA"
"-79.40","43.63","TORONTO ISLAND A","6158665","1993-11-12 07:00","1993","11","12","07:00","","4.8","","-0.5","","69","","27","","15","","25.0","","101.05","","","","","","Mostly Cloudy"
"-79.40","43.63","TORONTO ISLAND A","6158665","1993-11-12 08:00","1993","11","12","08:00","","4.9","","-0.6","","67","","28","","15","","24.1","","101.22","","","","","","Mostly Cloudy"
"-79.40","43.63","TORONTO ISLAND A","6158665","1993-11-12 09:00","1993","11","12","09:00","","4.2","","-0.5","","71","","35","","17","","25.0","","101.32","","","","","","Mostly Cloudy"
"-79.40","43.63","TORONTO ISLAND A","6158665","1993-11-12 10:00","1993","11","12","10:00","","4.8","","-0.4","","69","","30","","6","","25.0","","101.42","","","","","","Mostly Cloudy"
"-79.40","43.63","TORONTO ISLAND A","6158665","1993-11-12 11:00","1993","11","12","11:00","","4.6","","-1.7","","63","","35","","13","","25.0","","101.52","","","","","","Mostly Cloudy"
"-79.40","43.63","TORONTO ISLAND A","6158665","1993-11-12 12:00","1993","11","12","12:00","","4.8","","-3.0","","57","","34","","13","","25.0","","101.52","","","","","","Mostly Cloudy"
"-79.40","43.63","TORONTO ISLAND A","6158665","1993-11-12 13:00","1993","11","12","13:00","","4.9","","-3.1","","56","","1","","11","","25.0","","101.56","","","","","","Mostly Cloudy"
"-79.40","43.63","TORONTO ISLAND A","6158665","1993-11-12 14:00","1993","11","12","14:00","","5.3","","-3.3","","54","","33","","9","","25.0","","101.56","","","","","","Mainly Clear"
"-79.40","43.63","TORONTO ISLAND A","6158665","1993-11-12 15:00","1993","11","12","15:00","","5.3","","-4.1","","51","","34","","9","","25.0","","101.59","","","","","","Mainly Clear"
"-79.40","43.63","TORONTO ISLAND A","6158665","1993-11-12 16:00","1993","11","12","16:00","","5.1","","-4.4","","50","","36","","7","","25.0","","101.59","","","","","","Mainly Clear"
"-79.40","43.63","TORONTO ISLAND A","6158665","1993-11-12 17:00","1993","11","12","17:00","","4.4","","-4.3","","53","","2","","6","","25.0","","101.66","","","","","","Mainly Clear"
"-79.40","43.63","TORONTO ISLAND A","6158665","1993-11-12 18:00","1993","11","12","18:00","","3.9","","-4.5","","54","","6","","4","","25.0","","101.69","","","","","","Mainly Clear"
"-79.40","43.63","TORONTO ISLAND A","6158665","1993-11-12 19:00","1993","11","12","19:00","","3.7","","-4.5","","55","","5","","7","","25.0","","101.66","","","","","","Mainly Clear"
"-79.40","43.63","TORONTO ISLAND A","6158665","1993-11-12 20:00","1993","11","12","20:00","","2.9","","-3.9","","61","","7","","13","","25.0","","101.66","","","","","","Mainly Clear"
"-79.40","43.63","TORONTO ISLAND A","6158665","1993-11-12 21:00","1993","11","12","21:00","","2.6","","-3.6","","63","","8","","9","","25.0","","101.66","","","","","","Mainly Clear"
"-79.40","43.63","TORONTO ISLAND A","6158665","1993-11-12 22:00","1993","11","12","22:00","","2.7","","-1.9","","72","","7","","13","","25.0","","101.63","","","","","","Clear"
"-79.40","43.63","TORONTO ISLAND A","6158665","1993-11-12 23:00","1993","11","12","23:00","","","","","","","","8","","13","","","","","","","","","","NA"
"-79.40","43.63","TORONTO ISLAND A","6158665","1993-11-13 00:00","1993","11","13","00:00","","","","","","","","12","","17","","","","","","","","","","NA"
"-79.40","43.63","TORONTO ISLAND A","6158665","1993-11-13 01:00","1993","11","13","01:00","","","","","","","","11","","15","","","","","","","","","","NA"
"-79.40","43.63","TORONTO ISLAND A","6158665","1993-11-13 02:00","1993","11","13","02:00","","","","","","","","10","","26","","","","","","","","","","NA"
"-79.40","43.63","TORONTO ISLAND A","6158665","1993-11-13 03:00","1993","11","13","03:00","","","","","","","","9","","26","","","","","","","","","","NA"
"-79.40","43.63","TORONTO ISLAND A","6158665","1993-11-13 04:00","1993","11","13","04:00","","","","","","","","9","","24","","","","","","","","","","NA"
"-79.40","43.63","TORONTO ISLAND A","6158665","1993-11-13 05:00","1993","11","13","05:00","","","","","","","","9","","20","","","","","","","","","","NA"
"-79.40","43.63","TORONTO ISLAND A","6158665","1993-11-13 06:00","1993","11","13","06:00","","","","","","","","9","","17","","","","","","","","","","NA"
"-79.40","43.63","TORONTO ISLAND A","6158665","1993-11-13 07:00","1993","11","13","07:00","","4.7","","4.1","","96","","9","","15","","19.3","","100.92","","","","","","Rain"
"-79.40","43.63","TORONTO ISLAND A","6158665","1993-11-13 08:00","1993","11","13","08:00","","4.9","","4.4","","97","","7","","15","","9.7","","100.82","","","","","","Fog"
"-79.40","43.63","TORONTO ISLAND A","6158665","1993-11-13 09:00","1993","11","13","09:00","","5.4","","4.9","","97","","8","","17","","9.7","","100.68","","","","","","Rain,Fog"
"-79.40","43.63","TORONTO ISLAND A","6158665","1993-11-13 10:00","1993","11","13","10:00","","5.9","","5.2","","95","","8","","19","","11.3","","100.58","","","","","","Cloudy"
"-79.40","43.63","TORONTO ISLAND A","6158665","1993-11-13 11:00","1993","11","13","11:00","","6.9","","5.7","","92","","9","","15","","12.9","","100.52","","","","","","Cloudy"
"-79.40","43.63","TORONTO ISLAND A","6158665","1993-11-13 12:00","1993","11","13","12:00","","8.0","","6.1","","88","","10","","11","","12.9","","100.31","","","","","","Cloudy"
"-79.40","43.63","TORONTO ISLAND A","6158665","1993-11-13 13:00","1993","11","13","13:00","","8.5","","6.7","","89","","12","","6","","12.9","","100.21","","","","","","Cloudy"
"-79.40","43.63","TORONTO ISLAND A","6158665","1993-11-13 14:00","1993","11","13","14:00","","9.0","","6.8","","86","","21","","11","","19.3","","100.15","","","","","","Cloudy"
"-79.40","43.63","TORONTO ISLAND A","6158665","1993-11-13 15:00","1993","11","13","15:00","","8.1","","7.4","","95","","20","","7","","8.0","","100.11","","","","","","Drizzle,Fog"
"-79.40","43.63","TORONTO ISLAND A","6158665","1993-11-13 16:00","1993","11","13","16:00","","8.9","","8.5","","97","","16","","6","","12.9","","100.08","","","","","","Cloudy"
"-79.40","43.63","TORONTO ISLAND A","6158665","1993-11-13 17:00","1993","11","13","17:00","","8.2","","7.6","","96","","26","","4","","14.5","","100.08","","","","","","Cloudy"
"-79.40","43.63","TORONTO ISLAND A","6158665","1993-11-13 18:00","1993","11","13","18:00","","8.4","","7.9","","97","","22","","15","","14.5","","100.08","","","","","","Cloudy"
"-79.40","43.63","TORONTO ISLAND A","6158665","1993-11-13 19:00","1993","11","13","19:00","","9.1","","8.3","","95","","21","","19","","16.1","","100.01","","","","","","Cloudy"
"-79.40","43.63","TORONTO ISLAND A","6158665","1993-11-13 20:00","1993","11","13","20:00","","8.6","","8.4","","99","","22","","13","","12.9","","100.01","","","","","","Cloudy"
"-79.40","43.63","TORONTO ISLAND A","6158665","1993-11-13 21:00","1993","11","13","21:00","","9.2","","8.8","","97","","24","","15","","9.7","","100.08","","","","","","Fog"
"-79.40","43.63","TORONTO ISLAND A","6158665","1993-11-13 22:00","1993","11","13","22:00","","9.6","","9.2","","97","","21","","33","","9.7","","100.01","","","","","","Fog"
"-79.40","43.63","TORONTO ISLAND A","6158665","1993-11-13 23:00","1993","11","13","23:00","","","","","","","","21","","33","","","","","","","","","","NA"
"-79.40","43.63","TORONTO ISLAND A","6158665","1993-11-14 00:00","1993","11","14","00:00","","","","","","","","21","","20","","","","","","","","","","NA"
"-79.40","43.63","TORONTO ISLAND A","6158665","1993-11-14 01:00","1993","11","14","01:00","","","","","","","","24","","11","","","","","","","","","","NA"
"-79.40","43.63","TORONTO ISLAND A","6158665","1993-11-14 02:00","1993","11","14","02:00","","","","","","","","25","","15","","","","","","","","","","NA"
"-79.40","43.63","TORONTO ISLAND A","6158665","1993-11-14 03:00","1993","11","14","03:00","","","","","","","","29","","22","","","","","","","","","","NA"
"-79.40","43.63","TORONTO ISLAND A","6158665","1993-11-14 04:00","1993","11","14","04:00","","","","","","","","27","","17","","","","","","","","","","NA"
"-79.40","43.63","TORONTO ISLAND A","6158665","1993-11-14 05:00","1993","11","14","05:00","","","","","","","","27","","7","","","","","","","","","","NA"
"-79.40","43.63","TORONTO ISLAND A","6158665","1993-11-14 06:00","1993","11","14","06:00","","","","","","","","26","","6","","","","","","","","","","NA"
"-79.40","43.63","TORONTO ISLAND A","6158665","1993-11-14 07:00","1993","11","14","07:00","","9.5","","7.2","","86","","27","","7","","24.1","","100.42","","","","","","Cloudy"
"-79.40","43.63","TORONTO ISLAND A","6158665","1993-11-14 08:00","1993","11","14","08:00","","9.1","","7.5","","90","","27","","6","","19.3","","100.45","","","","","","Cloudy"
"-79.40","43.63","TORONTO ISLAND A","6158665","1993-11-14 09:00","1993","11","14","09:00","","9.9","","7.9","","87","","","","0","","19.3","","100.42","","","","","","Cloudy"
"-79.40","43.63","TORONTO ISLAND A","6158665","1993-11-14 10:00","1993","11","14","10:00","","9.7","","7.6","","87","","28","","7","","12.9","","100.48","","","","","","Rain"
"-79.40","43.63","TORONTO ISLAND A","6158665","1993-11-14 11:00","1993","11","14","11:00","","9.3","","8.2","","93","","21","","6","","12.9","","100.48","","","","","","Rain"
"-79.40","43.63","TORONTO ISLAND A","6158665","1993-11-14 12:00","1993","11","14","12:00","","8.7","","7.9","","95","","","","0","","11.3","","100.38","","","","","","Rain"
"-79.40","43.63","TORONTO ISLAND A","6158665","1993-11-14 13:00","1993","11","14","13:00","","9.6","","8.2","","91","","25","","7","","12.9","","100.38","","","","","","Rain"
"-79.40","43.63","TORONTO ISLAND A","6158665","1993-11-14 14:00","1993","11","14","14:00","","8.5","","7.7","","95","","21","","7","","12.9","","100.31","","","","","","Rain"
"-79.40","43.63","TORONTO ISLAND A","6158665","1993-11-14 15:00","1993","11","14","15:00","","8.6","","8.0","","96","","26","","6","","8.0","","100.38","","","","","","Rain,Fog"
"-79.40","43.63","TORONTO ISLAND A","6158665","1993-11-14 16:00","1993","11","14","16:00","","10.6","","8.8","","88","","33","","7","","9.7","","100.38","","","","","","Rain,Fog"
"-79.40","43.63","TORONTO ISLAND A","6158665","1993-11-14 17:00","1993","11","14","17:00","","10.6","","8.0","","84","","","","0","","11.3","","100.38","","","","","","Cloudy"
"-79.40","43.63","TORONTO ISLAND A","6158665","1993-11-14 18:00","1993","11","14","18:00","","7.1","","7.0","","99","","","","0","","9.7","","100.42","","","","","","Fog"
"-79.40","43.63","TORONTO ISLAND A","6158665","1993-11-14 19:00","1993","11","14","19:00","","6.9","","6.9","","100","","","","0","","2.0","","100.42","","","","","","Fog"
"-79.40","43.63","TORONTO ISLAND A","6158665","1993-11-14 20:00","1993","11","14","20:00","","7.3","","7.3","","100","","","","0","","1.2","","100.31","","","","","","Fog"
"-79.40","43.63","TORONTO ISLAND A","6158665","1993-11-14 21:00","1993","11","14","21:00","","7.2","","7.2","","100","","","","0","","0.4","","100.28","","","","","","Rain,Fog"
"-79.40","43.63","TORONTO ISLAND A","6158665","1993-11-14 22:00","1993","11","14","22:00","","8.0","","8.0","","100","","","","0","","1.6","","100.25","","","","","","Rain,Fog"
"-79.40","43.63","TORONTO ISLAND A","6158665","1993-11-14 23:00","1993","11","14","23:00","","","","","","","","","","0","","","","","","","","","","NA"
"-79.40","43.63","TORONTO ISLAND A","6158665","1993-11-15 00:00","1993","11","15","00:00","","","","","","","","","","0","","","","","","","","","","NA"
"-79.40","43.63","TORONTO ISLAND A","6158665","1993-11-15 01:00","1993","11","15","01:00","","","","","","","","","","0","","","","","","","","","","NA"
"-79.40","43.63","TORONTO ISLAND A","6158665","1993-11-15 02:00","1993","11","15","02:00","","","","","","","","","","0","","","","","","","","","","NA"
"-79.40","43.63","TORONTO ISLAND A","6158665","1993-11-15 03:00","1993","11","15","03:00","","","","","","","","12","","9","","","","","","","","","","NA"
"-79.40","43.63","TORONTO ISLAND A","6158665","1993-11-15 04:00","1993","11","15","04:00","","","","","","","","7","","9","","","","","","","","","","NA"
"-79.40","43.63","TORONTO ISLAND A","6158665","1993-11-15 05:00","1993","11","15","05:00","","","","","","","","7","","9","","","","","","","","","","NA"
"-79.40","43.63","TORONTO ISLAND A","6158665","1993-11-15 06:00","1993","11","15","06:00","","","","","","","","9","","9","","","","","","","","","","NA"
"-79.40","43.63","TORONTO ISLAND A","6158665","1993-11-15 07:00","1993","11","15","07:00","","7.5","","7.5","","100","","24","","4","","1.0","","99.98","","","","","","Drizzle,Fog"
"-79.40","43.63","TORONTO ISLAND A","6158665","1993-11-15 08:00","1993","11","15","08:00","","7.5","","7.5","","100","","25","","7","","1.2","","100.01","","","","","","Fog"
"-79.40","43.63","TORONTO ISLAND A","6158665","1993-11-15 09:00","1993","11","15","09:00","","7.3","","7.3","","100","","25","","9","","3.2","","100.11","","","","","","Fog"
"-79.40","43.63","TORONTO ISLAND A","6158665","1993-11-15 10:00","1993","11","15","10:00","","9.5","","9.2","","98","","26","","28","","19.3","","100.31","","","","","","Cloudy"
"-79.40","43.63","TORONTO ISLAND A","6158665","1993-11-15 11:00","1993","11","15","11:00","","10.3","","7.7","","84","","27","","28","","24.1","","100.48","","","","","","Drizzle"
"-79.40","43.63","TORONTO ISLAND A","6158665","1993-11-15 12:00","1993","11","15","12:00","","10.6","","6.4","","75","","32","","22","","24.1","","100.52","","","","","","Mostly Cloudy"
"-79.40","43.63","TORONTO ISLAND A","6158665","1993-11-15 13:00","1993","11","15","13:00","","9.6","","4.4","","70","","26","","28","","25.0","","100.72","","","","","","Cloudy"
"-79.40","43.63","TORONTO ISLAND A","6158665","1993-11-15 14:00","1993","11","15","14:00","","9.1","","3.6","","68","","27","","28","","25.0","","100.82","","","","","","Mostly Cloudy"
"-79.40","43.63","TORONTO ISLAND A","6158665","1993-11-15 15:00","1993","11","15","15:00","","8.0","","3.1","","71","","28","","22","","24.1","","100.95","","","","","","Cloudy"
"-79.40","43.63","TORONTO ISLAND A","6158665","1993-11-15 16:00","1993","11","15","16:00","","7.5","","2.4","","70","","27","","26","","24.1","","101.09","","","","","","Cloudy"
"-79.40","43.63","TORONTO ISLAND A","6158665","1993-11-15 17:00","1993","11","15","17:00","","7.0","","1.9","","70","","29","","22","","24.1","","101.22","","","","","","Cloudy"
"-79.40","43.63","TORONTO ISLAND A","6158665","1993-11-15 18:00","1993","11","15","18:00","","6.4","","2.3","","75","","30","","24","","24.1","","101.36","","","","","","Cloudy"
"-79.40","43.63","TORONTO ISLAND A","6158665","1993-11-15 19:00","1993","11","15","19:00","","5.9","","2.5","","79","","28","","15","","25.0","","101.42","","","","","","Mainly Clear"
"-79.40","43.63","TORONTO ISLAND A","6158665","1993-11-15 20:00","1993","11","15","20:00","","5.6","","2.1","","78","","29","","19","","25.0","","101.42","","","","","","Mostly Cloudy"
"-79.40","43.63","TORONTO ISLAND A","6158665","1993-11-15 21:00","1993","11","15","21:00","","5.4","","1.8","","77","","29","","15","","25.0","","101.52","","","","","","Mainly Clear"
"-79.40","43.63","TORONTO ISLAND A","6158665","1993-11-15 22:00","1993","11","15","22:00","","5.2","","1.1","","75","","29","","19","","25.0","","101.59","","","","","","Cloudy"
"-79.40","43.63","TORONTO ISLAND A","6158665","1993-11-15 23:00","1993","11","15","23:00","","","","","","","","28","","20","","","","","","","","","","NA"
"-79.40","43.63","TORONTO ISLAND A","6158665","1993-11-16 00:00","1993","11","16","00:00","","","","","","","","28","","9","","","","","","","","","","NA"
"-79.40","43.63","TORONTO ISLAND A","6158665","1993-11-16 01:00","1993","11","16","01:00","","","","","","","","28","","9","","","","","","","","","","NA"
"-79.40","43.63","TORONTO ISLAND A","6158665","1993-11-16 02:00","1993","11","16","02:00","","","","","","","","25","","9","","","","","","","","","","NA"
"-79.40","43.63","TORONTO ISLAND A","6158665","1993-11-16 03:00","1993","11","16","03:00","","","","","","","","27","","6","","","","","","","","","","NA"
"-79.40","43.63","TORONTO ISLAND A","6158665","1993-11-16 04:00","1993","11","16","04:00","","","","","","","","26","","7","","","","","","","","","","NA"
"-79.40","43.63","TORONTO ISLAND A","6158665","1993-11-16 05:00","1993","11","16","05:00","","","","","","","","26","","9","","","","","","","","","","NA"
"-79.40","43.63","TORONTO ISLAND A","6158665","1993-11-16 06:00","1993","11","16","06:00","","","","","","","","27","","6","","","","","","","","","","NA"
"-79.40","43.63","TORONTO ISLAND A","6158665","1993-11-16 07:00","1993","11","16","07:00","","4.6","","-0.7","","68","","25","","9","","25.0","","102.00","","","","","","Cloudy"
"-79.40","43.63","TORONTO ISLAND A","6158665","1993-11-16 08:00","1993","11","16","08:00","","4.8","","-0.2","","70","","25","","6","","24.1","","102.06","","","","","","Cloudy"
"-79.40","43.63","TORONTO ISLAND A","6158665","1993-11-16 09:00","1993","11","16","09:00","","4.8","","-0.1","","71","","28","","9","","24.1","","102.13","","","","","","Cloudy"
"-79.40","43.63","TORONTO ISLAND A","6158665","1993-11-16 10:00","1993","11","16","10:00","","5.1","","0.1","","70","","22","","4","","24.1","","102.13","","","","","","Cloudy"
"-79.40","43.63","TORONTO ISLAND A","6158665","1993-11-16 11:00","1993","11","16","11:00","","5.3","","1.4","","76","","23","","11","","24.1","","102.16","","","","","","Cloudy"
"-79.40","43.63","TORONTO ISLAND A","6158665","1993-11-16 12:00","1993","11","16","12:00","","5.7","","2.3","","78","","16","","11","","24.1","","102.06","","","","","","Cloudy"
"-79.40","43.63","TORONTO ISLAND A","6158665","1993-11-16 13:00","1993","11","16","13:00","","6.0","","2.3","","77","","20","","19","","24.1","","101.96","","","","","","Cloudy"
"-79.40","43.63","TORONTO ISLAND A","6158665","1993-11-16 14:00","1993","11","16","14:00","","6.3","","2.4","","76","","20","","13","","24.1","","101.89","","","","","","Cloudy"
"-79.40","43.63","TORONTO ISLAND A","6158665","1993-11-16 15:00","1993","11","16","15:00","","6.2","","3.3","","81","","23","","11","","24.1","","101.86","","","","","","Cloudy"
"-79.40","43.63","TORONTO ISLAND A","6158665","1993-11-16 16:00","1993","11","16","16:00","","6.2","","3.3","","81","","23","","11","","19.3","","101.83","","","","","","Cloudy"
"-79.40","43.63","TORONTO ISLAND A","6158665","1993-11-16 17:00","1993","11","16","17:00","","6.1","","3.7","","85","","20","","11","","19.3","","101.79","","","","","","Cloudy"
"-79.40","43.63","TORONTO ISLAND A","6158665","1993-11-16 18:00","1993","11","16","18:00","","6.2","","3.8","","84","","20","","7","","24.1","","101.76","","","","","","Cloudy"
"-79.40","43.63","TORONTO ISLAND A","6158665","1993-11-16 19:00","1993","11","16","19:00","","6.1","","4.2","","88","","19","","9","","24.1","","101.76","","","","","","Cloudy"
"-79.40","43.63","TORONTO ISLAND A","6158665","1993-11-16 20:00","1993","11","16","20:00","","6.0","","4.6","","91","","18","","9","","19.3","","101.73","","","","","","Cloudy"
"-79.40","43.63","TORONTO ISLAND A","6158665","1993-11-16 21:00","1993","11","16","21:00","","6.2","","4.3","","87","","18","","13","","19.3","","101.69","","","","","","Cloudy"
"-79.40","43.63","TORONTO ISLAND A","6158665","1993-11-16 22:00","1993","11","16","22:00","","6.2","","4.2","","87","","17","","13","","16.1","","101.59","","","","","","Cloudy"
"-79.40","43.63","TORONTO ISLAND A","6158665","1993-11-16 23:00","1993","11","16","23:00","","","","","","","","26","","7","","","","","","","","","","NA"
"-79.40","43.63","TORONTO ISLAND A","6158665","1993-11-17 00:00","1993","11","17","00:00","","","","","","","","20","","9","","","","","","","","","","NA"
"-79.40","43.63","TORONTO ISLAND A","6158665","1993-11-17 01:00","1993","11","17","01:00","","","","","","","","30","","6","","","","","","","","","","NA"
"-79.40","43.63","TORONTO ISLAND A","6158665","1993-11-17 02:00","1993","11","17","02:00","","","","","","","","15","","6","","","","","","","","","","NA"
"-79.40","43.63","TORONTO ISLAND A","6158665","1993-11-17 03:00","1993","11","17","03:00","","","","","","","","15","","11","","","","","","","","","","NA"
"-79.40","43.63","TORONTO ISLAND A","6158665","1993-11-17 04:00","1993","11","17","04:00","","","","","","","","20","","9","","","","","","","","","","NA"
"-79.40","43.63","TORONTO ISLAND A","6158665","1993-11-17 05:00","1993","11","17","05:00","","","","","","","","","","0","","","","","","","","","","NA"
"-79.40","43.63","TORONTO ISLAND A","6158665","1993-11-17 06:00","1993","11","17","06:00","","","","","","","","","","0","","","","","","","","","","NA"
"-79.40","43.63","TORONTO ISLAND A","6158665","1993-11-17 07:00","1993","11","17","07:00","","5.2","","4.6","","96","","18","","7","","12.9","","100.95","","","","","","Cloudy"
"-79.40","43.63","TORONTO ISLAND A","6158665","1993-11-17 08:00","1993","11","17","08:00","","5.4","","5.0","","97","","36","","4","","8.0","","100.95","","","","","","Fog"
"-79.40","43.63","TORONTO ISLAND A","6158665","1993-11-17 09:00","1993","11","17","09:00","","5.9","","4.8","","93","","","","0","","9.7","","100.89","","","","","","Fog"
"-79.40","43.63","TORONTO ISLAND A","6158665","1993-11-17 10:00","1993","11","17","10:00","","6.5","","4.8","","89","","","","0","","9.7","","100.82","","","","","","Fog"
"-79.40","43.63","TORONTO ISLAND A","6158665","1993-11-17 11:00","1993","11","17","11:00","","7.1","","4.1","","81","","36","","13","","8.0","","100.75","","","","","","Rain,Haze"
"-79.40","43.63","TORONTO ISLAND A","6158665","1993-11-17 12:00","1993","11","17","12:00","","6.7","","4.5","","86","","34","","6","","6.4","","100.68","","","","","","Rain,Fog"
"-79.40","43.63","TORONTO ISLAND A","6158665","1993-11-17 13:00","1993","11","17","13:00","","6.4","","4.6","","88","","4","","13","","8.0","","100.58","","","","","","Rain,Fog"
"-79.40","43.63","TORONTO ISLAND A","6158665","1993-11-17 14:00","1993","11","17","14:00","","6.4","","4.8","","89","","9","","7","","8.0","","100.58","","","","","","Rain,Fog"
"-79.40","43.63","TORONTO ISLAND A","6158665","1993-11-17 15:00","1993","11","17","15:00","","6.0","","5.1","","94","","28","","4","","8.0","","100.58","","","","","","Rain,Fog"
"-79.40","43.63","TORONTO ISLAND A","6158665","1993-11-17 16:00","1993","11","17","16:00","","6.6","","4.6","","87","","33","","9","","12.9","","100.62","","","","","","Cloudy"
"-79.40","43.63","TORONTO ISLAND A","6158665","1993-11-17 17:00","1993","11","17","17:00","","6.6","","4.0","","83","","35","","15","","12.9","","100.62","","","","","","Cloudy"
"-79.40","43.63","TORONTO ISLAND A","6158665","1993-11-17 18:00","1993","11","17","18:00","","6.8","","4.0","","82","","36","","19","","12.9","","100.62","","","","","","Cloudy"
"-79.40","43.63","TORONTO ISLAND A","6158665","1993-11-17 19:00","1993","11","17","19:00","","6.9","","4.3","","83","","32","","15","","12.9","","100.75","","","","","","Cloudy"
"-79.40","43.63","TORONTO ISLAND A","6158665","1993-11-17 20:00","1993","11","17","20:00","","6.9","","3.3","","78","","35","","26","","24.1","","100.75","","","","","","Mostly Cloudy"
"-79.40","43.63","TORONTO ISLAND A","6158665","1993-11-17 21:00","1993","11","17","21:00","","6.2","","1.7","","73","","33","","26","","24.1","","100.82","","","","","","Mostly Cloudy"
"-79.40","43.63","TORONTO ISLAND A","6158665","1993-11-17 22:00","1993","11","17","22:00","","5.8","","1.8","","75","","31","","15","","24.1","","100.95","","","","","","Clear"
"-79.40","43.63","TORONTO ISLAND A","6158665","1993-11-17 23:00","1993","11","17","23:00","","","","","","","","29","","13","","","","","","","","","","NA"
"-79.40","43.63","TORONTO ISLAND A","6158665","1993-11-18 00:00","1993","11","18","00:00","","","","","","","","32","","13","","","","","","","","","","NA"
"-79.40","43.63","TORONTO ISLAND A","6158665","1993-11-18 01:00","1993","11","18","01:00","","","","","","","","30","","11","","","","","","","","","","NA"
"-79.40","43.63","TORONTO ISLAND A","6158665","1993-11-18 02:00","1993","11","18","02:00","","","","","","","","30","","11","","","","","","","","","","NA"
"-79.40","43.63","TORONTO ISLAND A","6158665","1993-11-18 03:00","1993","11","18","03:00","","","","","","","","32","","7","","","","","","","","","","NA"
"-79.40","43.63","TORONTO ISLAND A","6158665","1993-11-18 04:00","1993","11","18","04:00","","","","","","","","31","","9","","","","","","","","","","NA"
"-79.40","43.63","TORONTO ISLAND A","6158665","1993-11-18 05:00","1993","11","18","05:00","","","","","","","","32","","7","","","","","","","","","","NA"
"-79.40","43.63","TORONTO ISLAND A","6158665","1993-11-18 06:00","1993","11","18","06:00","","","","","","","","29","","7","","","","","","","","","","NA"
"-79.40","43.63","TORONTO ISLAND A","6158665","1993-11-18 07:00","1993","11","18","07:00","","6.1","","3.2","","82","","15","","9","","24.1","","101.69","","","","","","Cloudy"
"-79.40","43.63","TORONTO ISLAND A","6158665","1993-11-18 08:00","1993","11","18","08:00","","2.0","","-1.3","","79","","27","","7","","24.1","","101.79","","","","","","Mostly Cloudy"
"-79.40","43.63","TORONTO ISLAND A","6158665","1993-11-18 09:00","1993","11","18","09:00","","2.8","","-2.9","","66","","30","","7","","24.1","","101.86","","","","","","Mainly Clear"
"-79.40","43.63","TORONTO ISLAND A","6158665","1993-11-18 10:00","1993","11","18","10:00","","3.7","","-2.4","","64","","","","0","","24.1","","101.86","","","","","","Mainly Clear"
"-79.40","43.63","TORONTO ISLAND A","6158665","1993-11-18 11:00","1993","11","18","11:00","","4.8","","-2.1","","61","","20","","7","","24.1","","101.86","","","","","","Mainly Clear"
"-79.40","43.63","TORONTO ISLAND A","6158665","1993-11-18 12:00","1993","11","18","12:00","","5.0","","-1.6","","62","","19","","7","","24.1","","101.79","","","","","","Mainly Clear"
"-79.40","43.63","TORONTO ISLAND A","6158665","1993-11-18 13:00","1993","11","18","13:00","","5.1","","-1.1","","64","","17","","7","","24.1","","101.73","","","","","","Mainly Clear"
"-79.40","43.63","TORONTO ISLAND A","6158665","1993-11-18 14:00","1993","11","18","14:00","","5.2","","-1.1","","64","","20","","7","","25.0","","101.66","","","","","","Mainly Clear"
"-79.40","43.63","TORONTO ISLAND A","6158665","1993-11-18 15:00","1993","11","18","15:00","","5.1","","-1.0","","65","","17","","7","","25.0","","101.59","","","","","","Mainly Clear"
"-79.40","43.63","TORONTO ISLAND A","6158665","1993-11-18 16:00","1993","11","18","16:00","","4.6","","-0.5","","69","","13","","7","","25.0","","101.49","","","","","","Mainly Clear"
"-79.40","43.63","TORONTO ISLAND A","6158665","1993-11-18 17:00","1993","11","18","17:00","","3.7","","0.4","","79","","9","","7","","25.0","","101.46","","","","","","Mainly Clear"
"-79.40","43.63","TORONTO ISLAND A","6158665","1993-11-18 18:00","1993","11","18","18:00","","4.1","","1.7","","84","","8","","6","","25.0","","101.46","","","","","","Mainly Clear"
"-79.40","43.63","TORONTO ISLAND A","6158665","1993-11-18 19:00","1993","11","18","19:00","","3.8","","0.1","","77","","13","","15","","24.1","","101.36","","","","","","Clear"
"-79.40","43.63","TORONTO ISLAND A","6158665","1993-11-18 20:00","1993","11","18","20:00","","3.8","","1.8","","87","","14","","13","","24.1","","101.36","","","","","","Clear"
"-79.40","43.63","TORONTO ISLAND A","6158665","1993-11-18 21:00","1993","11","18","21:00","","3.9","","0.8","","80","","12","","15","","24.1","","101.32","","","","","","Clear"
"-79.40","43.63","TORONTO ISLAND A","6158665","1993-11-18 22:00","1993","11","18","22:00","","3.8","","1.5","","85","","12","","15","","24.1","","101.12","","","","","","Clear"
"-79.40","43.63","TORONTO ISLAND A","6158665","1993-11-18 23:00","1993","11","18","23:00","","","","","","","","10","","15","","","","","","","","","","NA"
"-79.40","43.63","TORONTO ISLAND A","6158665","1993-11-19 00:00","1993","11","19","00:00","","","","","","","","10","","15","","","","","","","","","","NA"
"-79.40","43.63","TORONTO ISLAND A","6158665","1993-11-19 01:00","1993","11","19","01:00","","","","","","","","11","","15","","","","","","","","","","NA"
"-79.40","43.63","TORONTO ISLAND A","6158665","1993-11-19 02:00","1993","11","19","02:00","","","","","","","","13","","17","","","","","","","","","","NA"
"-79.40","43.63","TORONTO ISLAND A","6158665","1993-11-19 03:00","1993","11","19","03:00","","","","","","","","14","","15","","","","","","","","","","NA"
"-79.40","43.63","TORONTO ISLAND A","6158665","1993-11-19 04:00","1993","11","19","04:00","","","","","","","","14","","15","","","","","","","","","","NA"
"-79.40","43.63","TORONTO ISLAND A","6158665","1993-11-19 05:00","1993","11","19","05:00","","","","","","","","16","","11","","","","","","","","","","NA"
"-79.40","43.63","TORONTO ISLAND A","6158665","1993-11-19 06:00","1993","11","19","06:00","","","","","","","","16","","11","","","","","","","","","","NA"
"-79.40","43.63","TORONTO ISLAND A","6158665","1993-11-19 07:00","1993","11","19","07:00","","6.1","","3.2","","82","","15","","9","","24.1","","99.94","","","","","","Cloudy"
"-79.40","43.63","TORONTO ISLAND A","6158665","1993-11-19 08:00","1993","11","19","08:00","","5.8","","4.5","","91","","17","","7","","19.3","","99.88","","","","","","Cloudy"
"-79.40","43.63","TORONTO ISLAND A","6158665","1993-11-19 09:00","1993","11","19","09:00","","6.6","","4.6","","87","","21","","11","","16.1","","99.84","","","","","","Cloudy"
"-79.40","43.63","TORONTO ISLAND A","6158665","1993-11-19 10:00","1993","11","19","10:00","","7.0","","4.6","","85","","20","","15","","16.1","","99.71","","","","","","Cloudy"
"-79.40","43.63","TORONTO ISLAND A","6158665","1993-11-19 11:00","1993","11","19","11:00","","7.4","","4.5","","82","","20","","20","","16.1","","99.57","","","","","","Cloudy"
"-79.40","43.63","TORONTO ISLAND A","6158665","1993-11-19 12:00","1993","11","19","12:00","","7.4","","4.8","","83","","21","","28","","12.9","","99.44","","","","","","Cloudy"
"-79.40","43.63","TORONTO ISLAND A","6158665","1993-11-19 13:00","1993","11","19","13:00","","6.8","","5.7","","93","","21","","22","","9.7","","99.34","","","","","","Drizzle,Fog"
"-79.40","43.63","TORONTO ISLAND A","6158665","1993-11-19 14:00","1993","11","19","14:00","","6.9","","5.9","","93","","22","","28","","6.4","","99.17","","","","","","Drizzle,Fog"
"-79.40","43.63","TORONTO ISLAND A","6158665","1993-11-19 15:00","1993","11","19","15:00","","6.9","","5.9","","93","","22","","26","","8.0","","99.07","","","","","","Drizzle,Fog"
"-79.40","43.63","TORONTO ISLAND A","6158665","1993-11-19 16:00","1993","11","19","16:00","","6.6","","6.0","","96","","22","","30","","8.0","","99.04","","","","","","Drizzle,Fog"
"-79.40","43.63","TORONTO ISLAND A","6158665","1993-11-19 17:00","1993","11","19","17:00","","6.5","","6.3","","98","","21","","24","","4.8","","99.00","","","","","","Rain,Fog"
"-79.40","43.63","TORONTO ISLAND A","6158665","1993-11-19 18:00","1993","11","19","18:00","","6.4","","6.2","","99","","24","","22","","19.3","","98.94","","","","","","Rain"
"-79.40","43.63","TORONTO ISLAND A","6158665","1993-11-19 19:00","1993","11","19","19:00","","6.3","","5.5","","95","","22","","22","","24.1","","98.90","","","","","","Cloudy"
"-79.40","43.63","TORONTO ISLAND A","6158665","1993-11-19 20:00","1993","11","19","20:00","","6.6","","5.6","","93","","25","","28","","16.1","","98.87","","","","","","Rain"
"-79.40","43.63","TORONTO ISLAND A","6158665","1993-11-19 21:00","1993","11","19","21:00","","6.8","","3.6","","80","","25","","28","","24.1","","98.87","","","","","","Mostly Cloudy"
"-79.40","43.63","TORONTO ISLAND A","6158665","1993-11-19 22:00","1993","11","19","22:00","","5.9","","2.0","","76","","28","","28","","24.1","","98.87","","","","","","Mostly Cloudy"
"-79.40","43.63","TORONTO ISLAND A","6158665","1993-11-19 23:00","1993","11","19","23:00","","","","","","","","28","","41","","","","","","","","","","NA"
"-79.40","43.63","TORONTO ISLAND A","6158665","1993-11-20 00:00","1993","11","20","00:00","","","","","","","","28","","33","","","","","","","","","","NA"
"-79.40","43.63","TORONTO ISLAND A","6158665","1993-11-20 01:00","1993","11","20","01:00","","","","","","","","27","","33","","","","","","","","","","NA"
"-79.40","43.63","TORONTO ISLAND A","6158665","1993-11-20 02:00","1993","11","20","02:00","","","","","","","","27","","26","","","","","","","","","","NA"
"-79.40","43.63","TORONTO ISLAND A","6158665","1993-11-20 03:00","1993","11","20","03:00","","","","","","","","27","","33","","","","","","","","","","NA"
"-79.40","43.63","TORONTO ISLAND A","6158665","1993-11-20 04:00","1993","11","20","04:00","","","","","","","","26","","33","","","","","","","","","","NA"
"-79.40","43.63","TORONTO ISLAND A","6158665","1993-11-20 05:00","1993","11","20","05:00","","","","","","","","27","","22","","","","","","","","","","NA"
"-79.40","43.63","TORONTO ISLAND A","6158665","1993-11-20 06:00","1993","11","20","06:00","","","","","","","","26","","24","","","","","","","","","","NA"
"-79.40","43.63","TORONTO ISLAND A","6158665","1993-11-20 07:00","1993","11","20","07:00","","-0.6","","-4.1","","77","","26","","31","","12.9","","99.44","","","","-7","","Snow Showers"
"-79.40","43.63","TORONTO ISLAND A","6158665","1993-11-20 08:00","1993","11","20","08:00","","-0.8","","-3.7","","80","","26","","35","","16.1","","99.47","","","","-8","","Mainly Clear"
"-79.40","43.63","TORONTO ISLAND A","6158665","1993-11-20 09:00","1993","11","20","09:00","","-0.6","","-4.4","","76","","26","","35","","25.0","","99.51","","","","-8","","Mainly Clear"
"-79.40","43.63","TORONTO ISLAND A","6158665","1993-11-20 10:00","1993","11","20","10:00","","0.4","","-5.7","","63","","27","","39","","25.0","","99.54","","","","","","Mostly Cloudy"
"-79.40","43.63","TORONTO ISLAND A","6158665","1993-11-20 11:00","1993","11","20","11:00","","0.3","","-4.0","","73","","26","","37","","25.0","","99.61","","","","","","Mainly Clear"
"-79.40","43.63","TORONTO ISLAND A","6158665","1993-11-20 12:00","1993","11","20","12:00","","1.7","","-6.4","","55","","27","","37","","25.0","","99.64","","","","","","Mainly Clear"
"-79.40","43.63","TORONTO ISLAND A","6158665","1993-11-20 13:00","1993","11","20","13:00","","2.2","","-6.4","","53","","27","","43","","25.0","","99.71","","","","","","Mostly Cloudy"
"-79.40","43.63","TORONTO ISLAND A","6158665","1993-11-20 14:00","1993","11","20","14:00","","-0.3","","-1.8","","90","","28","","37","","6.4","","99.84","","","","-8","","Snow Showers"
"-79.40","43.63","TORONTO ISLAND A","6158665","1993-11-20 15:00","1993","11","20","15:00","","0.1","","-4.4","","72","","30","","41","","19.3","","99.91","","","","","","Mostly Cloudy"
"-79.40","43.63","TORONTO ISLAND A","6158665","1993-11-20 16:00","1993","11","20","16:00","","-0.6","","-4.1","","77","","28","","33","","24.1","","100.08","","","","-8","","Snow Showers"
"-79.40","43.63","TORONTO ISLAND A","6158665","1993-11-20 17:00","1993","11","20","17:00","","-0.5","","-5.3","","70","","28","","30","","25.0","","100.15","","","","-7","","Mainly Clear"
"-79.40","43.63","TORONTO ISLAND A","6158665","1993-11-20 18:00","1993","11","20","18:00","","-0.6","","-5.6","","69","","29","","28","","25.0","","100.31","","","","-7","","Clear"
"-79.40","43.63","TORONTO ISLAND A","6158665","1993-11-20 19:00","1993","11","20","19:00","","-0.9","","-5.7","","70","","28","","24","","25.0","","100.42","","","","-7","","Mainly Clear"
"-79.40","43.63","TORONTO ISLAND A","6158665","1993-11-20 20:00","1993","11","20","20:00","","-1.4","","-6.0","","71","","26","","26","","25.0","","100.52","","","","-8","","Mainly Clear"
"-79.40","43.63","TORONTO ISLAND A","6158665","1993-11-20 21:00","1993","11","20","21:00","","-1.6","","-5.2","","76","","26","","15","","25.0","","100.62","","","","-6","","Clear"
"-79.40","43.63","TORONTO ISLAND A","6158665","1993-11-20 22:00","1993","11","20","22:00","","-1.4","","-4.7","","78","","26","","22","","25.0","","100.68","","","","-7","","Mainly Clear"
"-79.40","43.63","TORONTO ISLAND A","6158665","1993-11-20 23:00","1993","11","20","23:00","","","","","","","","25","","26","","","","","","","","","","NA"
"-79.40","43.63","TORONTO ISLAND A","6158665","1993-11-21 00:00","1993","11","21","00:00","","","","","","","","24","","31","","","","","","","","","","NA"
"-79.40","43.63","TORONTO ISLAND A","6158665","1993-11-21 01:00","1993","11","21","01:00","","","","","","","","24","","31","","","","","","","","","","NA"
"-79.40","43.63","TORONTO ISLAND A","6158665","1993-11-21 02:00","1993","11","21","02:00","","","","","","","","25","","24","","","","","","","","","","NA"
"-79.40","43.63","TORONTO ISLAND A","6158665","1993-11-21 03:00","1993","11","21","03:00","","","","","","","","24","","22","","","","","","","","","","NA"
"-79.40","43.63","TORONTO ISLAND A","6158665","1993-11-21 04:00","1993","11","21","04:00","","","","","","","","24","","26","","","","","","","","","","NA"
"-79.40","43.63","TORONTO ISLAND A","6158665","1993-11-21 05:00","1993","11","21","05:00","","","","","","","","24","","22","","","","","","","","","","NA"
"-79.40","43.63","TORONTO ISLAND A","6158665","1993-11-21 06:00","1993","11","21","06:00","","","","","","","","23","","20","","","","","","","","","","NA"
"-79.40","43.63","TORONTO ISLAND A","6158665","1993-11-21 07:00","1993","11","21","07:00","","1.6","","-4.5","","64","","22","","17","","25.0","","100.75","","","","","","Cloudy"
"-79.40","43.63","TORONTO ISLAND A","6158665","1993-11-21 08:00","1993","11","21","08:00","","3.1","","-0.8","","76","","21","","22","","25.0","","100.79","","","","","","Cloudy"
"-79.40","43.63","TORONTO ISLAND A","6158665","1993-11-21 09:00","1993","11","21","09:00","","2.8","","-1.2","","75","","27","","9","","24.1","","100.75","","","","","","Cloudy"
"-79.40","43.63","TORONTO ISLAND A","6158665","1993-11-21 10:00","1993","11","21","10:00","","5.8","","3.4","","85","","22","","26","","24.1","","100.75","","","","","","Cloudy"
"-79.40","43.63","TORONTO ISLAND A","6158665","1993-11-21 11:00","1993","11","21","11:00","","7.0","","3.8","","80","","22","","30","","25.0","","100.75","","","","","","Cloudy"
"-79.40","43.63","TORONTO ISLAND A","6158665","1993-11-21 12:00","1993","11","21","12:00","","7.8","","3.6","","75","","21","","28","","25.0","","100.68","","","","","","Cloudy"
"-79.40","43.63","TORONTO ISLAND A","6158665","1993-11-21 13:00","1993","11","21","13:00","","7.7","","2.5","","69","","22","","33","","25.0","","100.62","","","","","","Mostly Cloudy"
"-79.40","43.63","TORONTO ISLAND A","6158665","1993-11-21 14:00","1993","11","21","14:00","","8.7","","1.5","","60","","22","","41","","25.0","","100.62","","","","","","Mostly Cloudy"
"-79.40","43.63","TORONTO ISLAND A","6158665","1993-11-21 15:00","1993","11","21","15:00","","8.2","","2.0","","65","","23","","37","","25.0","","100.58","","","","","","Mostly Cloudy"
"-79.40","43.63","TORONTO ISLAND A","6158665","1993-11-21 16:00","1993","11","21","16:00","","8.2","","2.0","","65","","23","","37","","25.0","","100.62","","","","","","Mostly Cloudy"
"-79.40","43.63","TORONTO ISLAND A","6158665","1993-11-21 17:00","1993","11","21","17:00","","8.2","","1.0","","60","","24","","41","","25.0","","100.68","","","","","","Mostly Cloudy"
"-79.40","43.63","TORONTO ISLAND A","6158665","1993-11-21 18:00","1993","11","21","18:00","","8.3","","0.7","","59","","23","","37","","25.0","","100.75","","","","","","Mostly Cloudy"
"-79.40","43.63","TORONTO ISLAND A","6158665","1993-11-21 19:00","1993","11","21","19:00","","7.7","","1.1","","63","","23","","37","","25.0","","100.75","","","","","","Cloudy"
"-79.40","43.63","TORONTO ISLAND A","6158665","1993-11-21 20:00","1993","11","21","20:00","","7.7","","1.3","","64","","23","","33","","25.0","","100.79","","","","","","Cloudy"
"-79.40","43.63","TORONTO ISLAND A","6158665","1993-11-21 21:00","1993","11","21","21:00","","7.4","","1.7","","67","","23","","30","","25.0","","100.82","","","","","","Mostly Cloudy"
"-79.40","43.63","TORONTO ISLAND A","6158665","1993-11-21 22:00","1993","11","21","22:00","","6.9","","2.7","","75","","22","","28","","25.0","","100.85","","","","","","Cloudy"
"-79.40","43.63","TORONTO ISLAND A","6158665","1993-11-21 23:00","1993","11","21","23:00","","","","","","","","22","","28","","","","","","","","","","NA"
"-79.40","43.63","TORONTO ISLAND A","6158665","1993-11-22 00:00","1993","11","22","00:00","","","","","","","","22","","26","","","","","","","","","","NA"
"-79.40","43.63","TORONTO ISLAND A","6158665","1993-11-22 01:00","1993","11","22","01:00","","","","","","","","23","","28","","","","","","","","","","NA"
"-79.40","43.63","TORONTO ISLAND A","6158665","1993-11-22 02:00","1993","11","22","02:00","","","","","","","","22","","26","","","","","","","","","","NA"
"-79.40","43.63","TORONTO ISLAND A","6158665","1993-11-22 03:00","1993","11","22","03:00","","","","","","","","21","","13","","","","","","","","","","NA"
"-79.40","43.63","TORONTO ISLAND A","6158665","1993-11-22 04:00","1993","11","22","04:00","","","","","","","","20","","7","","","","","","","","","","NA"
"-79.40","43.63","TORONTO ISLAND A","6158665","1993-11-22 05:00","1993","11","22","05:00","","","","","","","","22","","9","","","","","","","","","","NA"
"-79.40","43.63","TORONTO ISLAND A","6158665","1993-11-22 06:00","1993","11","22","06:00","","","","","","","","22","","7","","","","","","","","","","NA"
"-79.40","43.63","TORONTO ISLAND A","6158665","1993-11-22 07:00","1993","11","22","07:00","","5.2","","-0.1","","68","","24","","9","","25.0","","101.12","","","","","","Mainly Clear"
"-79.40","43.63","TORONTO ISLAND A","6158665","1993-11-22 08:00","1993","11","22","08:00","","5.4","","-0.1","","68","","26","","11","","25.0","","101.19","","","","","","Mainly Clear"
"-79.40","43.63","TORONTO ISLAND A","6158665","1993-11-22 09:00","1993","11","22","09:00","","6.1","","0.4","","67","","25","","19","","24.1","","101.26","","","","","","Mainly Clear"
"-79.40","43.63","TORONTO ISLAND A","6158665","1993-11-22 10:00","1993","11","22","10:00","","6.9","","1.9","","70","","25","","22","","24.1","","101.26","","","","","","Mainly Clear"
"-79.40","43.63","TORONTO ISLAND A","6158665","1993-11-22 11:00","1993","11","22","11:00","","8.0","","1.3","","62","","25","","17","","24.1","","101.32","","","","","","Mainly Clear"
"-79.40","43.63","TORONTO ISLAND A","6158665","1993-11-22 12:00","1993","11","22","12:00","","8.5","","3.1","","69","","20","","9","","24.1","","101.29","","","","","","Mostly Cloudy"
"-79.40","43.63","TORONTO ISLAND A","6158665","1993-11-22 13:00","1993","11","22","13:00","","7.7","","3.9","","77","","24","","11","","24.1","","101.29","","","","","","Mostly Cloudy"
"-79.40","43.63","TORONTO ISLAND A","6158665","1993-11-22 14:00","1993","11","22","14:00","","8.4","","3.9","","73","","23","","17","","24.1","","101.29","","","","","","Mainly Clear"
"-79.40","43.63","TORONTO ISLAND A","6158665","1993-11-22 15:00","1993","11","22","15:00","","8.1","","3.9","","75","","21","","19","","24.1","","101.32","","","","","","Mainly Clear"
"-79.40","43.63","TORONTO ISLAND A","6158665","1993-11-22 16:00","1993","11","22","16:00","","6.7","","4.4","","85","","25","","11","","24.1","","101.42","","","","","","Mostly Cloudy"
"-79.40","43.63","TORONTO ISLAND A","6158665","1993-11-22 17:00","1993","11","22","17:00","","9.3","","2.8","","64","","28","","11","","19.3","","101.56","","","","","","Mostly Cloudy"
"-79.40","43.63","TORONTO ISLAND A","6158665","1993-11-22 18:00","1993","11","22","18:00","","8.9","","3.1","","67","","28","","7","","19.3","","101.63","","","","","","Mostly Cloudy"
"-79.40","43.63","TORONTO ISLAND A","6158665","1993-11-22 19:00","1993","11","22","19:00","","8.5","","3.3","","70","","27","","11","","24.1","","101.69","","","","","","Mostly Cloudy"
"-79.40","43.63","TORONTO ISLAND A","6158665","1993-11-22 20:00","1993","11","22","20:00","","7.9","","3.0","","71","","36","","11","","24.1","","101.73","","","","","","Mostly Cloudy"
"-79.40","43.63","TORONTO ISLAND A","6158665","1993-11-22 21:00","1993","11","22","21:00","","7.3","","2.7","","73","","34","","13","","19.3","","101.79","","","","","","Mostly Cloudy"
"-79.40","43.63","TORONTO ISLAND A","6158665","1993-11-22 22:00","1993","11","22","22:00","","5.6","","2.9","","83","","34","","22","","19.3","","101.79","","","","","","Cloudy"
"-79.40","43.63","TORONTO ISLAND A","6158665","1993-11-22 23:00","1993","11","22","23:00","","","","","","","","36","","7","","","","","","","","","","NA"
"-79.40","43.63","TORONTO ISLAND A","6158665","1993-11-23 00:00","1993","11","23","00:00","","","","","","","","3","","7","","","","","","","","","","NA"
"-79.40","43.63","TORONTO ISLAND A","6158665","1993-11-23 01:00","1993","11","23","01:00","","","","","","","","1","","7","","","","","","","","","","NA"
"-79.40","43.63","TORONTO ISLAND A","6158665","1993-11-23 02:00","1993","11","23","02:00","","","","","","","","4","","11","","","","","","","","","","NA"
"-79.40","43.63","TORONTO ISLAND A","6158665","1993-11-23 03:00","1993","11","23","03:00","","","","","","","","1","","7","","","","","","","","","","NA"
"-79.40","43.63","TORONTO ISLAND A","6158665","1993-11-23 04:00","1993","11","23","04:00","","","","","","","","8","","17","","","","","","","","","","NA"
"-79.40","43.63","TORONTO ISLAND A","6158665","1993-11-23 05:00","1993","11","23","05:00","","","","","","","","7","","22","","","","","","","","","","NA"
"-79.40","43.63","TORONTO ISLAND A","6158665","1993-11-23 06:00","1993","11","23","06:00","","","","","","","","8","","24","","","","","","","","","","NA"
"-79.40","43.63","TORONTO ISLAND A","6158665","1993-11-23 07:00","1993","11","23","07:00","","2.7","","0.5","","85","","8","","30","","24.1","","101.96","","","","","","Cloudy"
"-79.40","43.63","TORONTO ISLAND A","6158665","1993-11-23 08:00","1993","11","23","08:00","","2.6","","0.6","","87","","7","","31","","24.1","","101.93","","","","","","Cloudy"
"-79.40","43.63","TORONTO ISLAND A","6158665","1993-11-23 09:00","1993","11","23","09:00","","2.5","","0.2","","85","","7","","28","","24.1","","101.96","","","","","","Cloudy"
"-79.40","43.63","TORONTO ISLAND A","6158665","1993-11-23 10:00","1993","11","23","10:00","","2.2","","-0.1","","85","","7","","31","","24.1","","101.86","","","","","","Cloudy"
"-79.40","43.63","TORONTO ISLAND A","6158665","1993-11-23 11:00","1993","11","23","11:00","","2.2","","-0.4","","83","","7","","30","","24.1","","101.86","","","","","","Cloudy"
"-79.40","43.63","TORONTO ISLAND A","6158665","1993-11-23 12:00","1993","11","23","12:00","","2.2","","-0.3","","83","","7","","26","","24.1","","101.79","","","","","","Cloudy"
"-79.40","43.63","TORONTO ISLAND A","6158665","1993-11-23 13:00","1993","11","23","13:00","","2.3","","-0.1","","84","","7","","30","","24.1","","101.66","","","","","","Cloudy"
"-79.40","43.63","TORONTO ISLAND A","6158665","1993-11-23 14:00","1993","11","23","14:00","","2.4","","0.6","","88","","7","","28","","24.1","","101.52","","","","","","Cloudy"
"-79.40","43.63","TORONTO ISLAND A","6158665","1993-11-23 15:00","1993","11","23","15:00","","2.6","","1.0","","89","","7","","26","","24.1","","101.42","","","","","","Cloudy"
"-79.40","43.63","TORONTO ISLAND A","6158665","1993-11-23 16:00","1993","11","23","16:00","","2.7","","1.2","","90","","7","","22","","16.1","","101.42","","","","","","Cloudy"
"-79.40","43.63","TORONTO ISLAND A","6158665","1993-11-23 17:00","1993","11","23","17:00","","2.6","","1.1","","90","","7","","22","","12.9","","101.42","","","","","","Cloudy"
"-79.40","43.63","TORONTO ISLAND A","6158665","1993-11-23 18:00","1993","11","23","18:00","","2.9","","1.8","","92","","7","","22","","12.9","","101.36","","","","","","Cloudy"
"-79.40","43.63","TORONTO ISLAND A","6158665","1993-11-23 19:00","1993","11","23","19:00","","3.0","","2.0","","93","","7","","22","","12.9","","101.32","","","","","","Cloudy"
"-79.40","43.63","TORONTO ISLAND A","6158665","1993-11-23 20:00","1993","11","23","20:00","","3.4","","2.5","","94","","7","","22","","12.9","","101.26","","","","","","Cloudy"
"-79.40","43.63","TORONTO ISLAND A","6158665","1993-11-23 21:00","1993","11","23","21:00","","3.7","","2.9","","94","","8","","19","","12.9","","101.22","","","","","","Cloudy"
"-79.40","43.63","TORONTO ISLAND A","6158665","1993-11-23 22:00","1993","11","23","22:00","","4.0","","3.3","","95","","8","","19","","9.7","","101.09","","","","","","Fog"
"-79.40","43.63","TORONTO ISLAND A","6158665","1993-11-23 23:00","1993","11","23","23:00","","","","","","","","6","","15","","","","","","","","","","NA"
"-79.40","43.63","TORONTO ISLAND A","6158665","1993-11-24 00:00","1993","11","24","00:00","","","","","","","","7","","15","","","","","","","","","","NA"
"-79.40","43.63","TORONTO ISLAND A","6158665","1993-11-24 01:00","1993","11","24","01:00","","","","","","","","34","","13","","","","","","","","","","NA"
"-79.40","43.63","TORONTO ISLAND A","6158665","1993-11-24 02:00","1993","11","24","02:00","","","","","","","","5","","13","","","","","","","","","","NA"
"-79.40","43.63","TORONTO ISLAND A","6158665","1993-11-24 03:00","1993","11","24","03:00","","","","","","","","7","","15","","","","","","","","","","NA"
"-79.40","43.63","TORONTO ISLAND A","6158665","1993-11-24 04:00","1993","11","24","04:00","","","","","","","","3","","13","","","","","","","","","","NA"
"-79.40","43.63","TORONTO ISLAND A","6158665","1993-11-24 05:00","1993","11","24","05:00","","","","","","","","2","","11","","","","","","","","","","NA"
"-79.40","43.63","TORONTO ISLAND A","6158665","1993-11-24 06:00","1993","11","24","06:00","","","","","","","","35","","11","","","","","","","","","","NA"
"-79.40","43.63","TORONTO ISLAND A","6158665","1993-11-24 07:00","1993","11","24","07:00","","3.1","","0.9","","85","","1","","20","","16.1","","101.15","","","","","","Cloudy"
"-79.40","43.63","TORONTO ISLAND A","6158665","1993-11-24 08:00","1993","11","24","08:00","","3.1","","0.3","","82","","3","","13","","12.9","","101.22","","","","","","Cloudy"
"-79.40","43.63","TORONTO ISLAND A","6158665","1993-11-24 09:00","1993","11","24","09:00","","2.6","","0.7","","87","","36","","13","","6.4","","101.29","","","","","","Rain,Snow,Fog"
"-79.40","43.63","TORONTO ISLAND A","6158665","1993-11-24 10:00","1993","11","24","10:00","","1.8","","0.6","","92","","3","","15","","4.0","","101.36","","","","","","Snow,Fog"
"-79.40","43.63","TORONTO ISLAND A","6158665","1993-11-24 11:00","1993","11","24","11:00","","1.0","","-0.2","","92","","3","","15","","4.0","","101.42","","","","","","Snow"
"-79.40","43.63","TORONTO ISLAND A","6158665","1993-11-24 12:00","1993","11","24","12:00","","1.2","","0.2","","93","","1","","19","","4.8","","101.42","","","","","","Snow,Fog"
"-79.40","43.63","TORONTO ISLAND A","6158665","1993-11-24 13:00","1993","11","24","13:00","","1.4","","-1.0","","84","","7","","13","","12.9","","101.42","","","","","","Snow"
"-79.40","43.63","TORONTO ISLAND A","6158665","1993-11-24 14:00","1993","11","24","14:00","","1.8","","-1.7","","78","","4","","19","","16.1","","101.42","","","","","","Cloudy"
"-79.40","43.63","TORONTO ISLAND A","6158665","1993-11-24 15:00","1993","11","24","15:00","","1.5","","-2.7","","73","","3","","22","","16.1","","101.46","","","","","","Cloudy"
"-79.40","43.63","TORONTO ISLAND A","6158665","1993-11-24 16:00","1993","11","24","16:00","","1.7","","-3.3","","69","","5","","13","","24.1","","101.59","","","","","","Cloudy"
"-79.40","43.63","TORONTO ISLAND A","6158665","1993-11-24 17:00","1993","11","24","17:00","","1.6","","-5.0","","61","","5","","15","","24.1","","101.69","","","","","","Mostly Cloudy"
"-79.40","43.63","TORONTO ISLAND A","6158665","1993-11-24 18:00","1993","11","24","18:00","","1.2","","-8.4","","49","","6","","19","","24.1","","101.79","","","","","","Mainly Clear"
"-79.40","43.63","TORONTO ISLAND A","6158665","1993-11-24 19:00","1993","11","24","19:00","","0.8","","-12.1","","37","","5","","22","","24.1","","101.89","","","","","","Clear"
"-79.40","43.63","TORONTO ISLAND A","6158665","1993-11-24 20:00","1993","11","24","20:00","","0.1","","-12.7","","37","","5","","22","","24.1","","102.00","","","","","","Clear"
"-79.40","43.63","TORONTO ISLAND A","6158665","1993-11-24 21:00","1993","11","24","21:00","","-1.2","","-11.6","","45","","4","","26","","24.1","","102.13","","","","-8","","Clear"
"-79.40","43.63","TORONTO ISLAND A","6158665","1993-11-24 22:00","1993","11","24","22:00","","-2.8","","-12.7","","46","","4","","26","","24.1","","102.23","","","","-10","","Clear"
"-79.40","43.63","TORONTO ISLAND A","6158665","1993-11-24 23:00","1993","11","24","23:00","","","","","","","","5","","20","","","","","","","","","","NA"
"-79.40","43.63","TORONTO ISLAND A","6158665","1993-11-25 00:00","1993","11","25","00:00","","","","","","","","4","","22","","","","","","","","","","NA"
"-79.40","43.63","TORONTO ISLAND A","6158665","1993-11-25 01:00","1993","11","25","01:00","","","","","","","","4","","20","","","","","","","","","","NA"
"-79.40","43.63","TORONTO ISLAND A","6158665","1993-11-25 02:00","1993","11","25","02:00","","","","","","","","4","","19","","","","","","","","","","NA"
"-79.40","43.63","TORONTO ISLAND A","6158665","1993-11-25 03:00","1993","11","25","03:00","","","","","","","","4","","20","","","","","","","","","","NA"
"-79.40","43.63","TORONTO ISLAND A","6158665","1993-11-25 04:00","1993","11","25","04:00","","","","","","","","5","","15","","","","","","","","","","NA"
"-79.40","43.63","TORONTO ISLAND A","6158665","1993-11-25 05:00","1993","11","25","05:00","","","","","","","","2","","19","","","","","","","","","","NA"
"-79.40","43.63","TORONTO ISLAND A","6158665","1993-11-25 06:00","1993","11","25","06:00","","","","","","","","2","","15","","","","","","","","","","NA"
"-79.40","43.63","TORONTO ISLAND A","6158665","1993-11-25 07:00","1993","11","25","07:00","","-7.6","","-11.6","","73","","5","","19","","24.1","","102.74","","","","-15","","Snow Showers"
"-79.40","43.63","TORONTO ISLAND A","6158665","1993-11-25 08:00","1993","11","25","08:00","","-7.6","","-11.5","","74","","4","","19","","14.5","","102.84","","","","-15","","Snow Showers"
"-79.40","43.63","TORONTO ISLAND A","6158665","1993-11-25 09:00","1993","11","25","09:00","","-7.9","","-10.5","","81","","3","","20","","4.8","","102.90","","","","-15","","Snow Showers"
"-79.40","43.63","TORONTO ISLAND A","6158665","1993-11-25 10:00","1993","11","25","10:00","","-7.8","","-11.3","","76","","4","","19","","12.9","","102.87","","","","-15","","Snow Showers"
"-79.40","43.63","TORONTO ISLAND A","6158665","1993-11-25 11:00","1993","11","25","11:00","","-6.9","","-10.1","","78","","5","","19","","14.5","","102.87","","","","-14","","Cloudy"
"-79.40","43.63","TORONTO ISLAND A","6158665","1993-11-25 12:00","1993","11","25","12:00","","-5.7","","-8.1","","83","","6","","17","","12.9","","102.80","","","","-12","","Snow Showers"
"-79.40","43.63","TORONTO ISLAND A","6158665","1993-11-25 13:00","1993","11","25","13:00","","-4.9","","-7.3","","83","","5","","17","","12.9","","102.74","","","","-11","","Snow Showers"
"-79.40","43.63","TORONTO ISLAND A","6158665","1993-11-25 14:00","1993","11","25","14:00","","-4.1","","-6.6","","83","","7","","24","","24.1","","102.67","","","","-11","","Mostly Cloudy"
"-79.40","43.63","TORONTO ISLAND A","6158665","1993-11-25 15:00","1993","11","25","15:00","","-3.9","","-6.7","","81","","7","","26","","24.1","","102.67","","","","-11","","Mostly Cloudy"
"-79.40","43.63","TORONTO ISLAND A","6158665","1993-11-25 16:00","1993","11","25","16:00","","-2.7","","-5.7","","80","","7","","22","","24.1","","102.53","","","","-9","","Mostly Cloudy"
"-79.40","43.63","TORONTO ISLAND A","6158665","1993-11-25 17:00","1993","11","25","17:00","","-2.0","","-4.7","","82","","7","","26","","24.1","","102.53","","","","-9","","Mostly Cloudy"
"-79.40","43.63","TORONTO ISLAND A","6158665","1993-11-25 18:00","1993","11","25","18:00","","-1.3","","-3.5","","85","","7","","22","","24.1","","102.50","","","","-7","","Mostly Cloudy"
"-79.40","43.63","TORONTO ISLAND A","6158665","1993-11-25 19:00","1993","11","25","19:00","","-0.3","","-2.5","","85","","8","","19","","24.1","","102.43","","","","-5","","Mostly Cloudy"
"-79.40","43.63","TORONTO ISLAND A","6158665","1993-11-25 20:00","1993","11","25","20:00","","0.2","","-3.1","","78","","10","","19","","24.1","","102.40","","","","","","Mainly Clear"
"-79.40","43.63","TORONTO ISLAND A","6158665","1993-11-25 21:00","1993","11","25","21:00","","0.3","","-3.6","","75","","10","","28","","24.1","","102.37","","","","","","Mainly Clear"
"-79.40","43.63","TORONTO ISLAND A","6158665","1993-11-25 22:00","1993","11","25","22:00","","0.2","","-4.4","","71","","10","","28","","24.1","","102.23","","","","","","Clear"
"-79.40","43.63","TORONTO ISLAND A","6158665","1993-11-25 23:00","1993","11","25","23:00","","","","","","","","10","","26","","","","","","","","","","NA"
"-79.40","43.63","TORONTO ISLAND A","6158665","1993-11-26 00:00","1993","11","26","00:00","","","","","","","","10","","24","","","","","","","","","","NA"
"-79.40","43.63","TORONTO ISLAND A","6158665","1993-11-26 01:00","1993","11","26","01:00","","","","","","","","10","","22","","","","","","","","","","NA"
"-79.40","43.63","TORONTO ISLAND A","6158665","1993-11-26 02:00","1993","11","26","02:00","","","","","","","","10","","22","","","","","","","","","","NA"
"-79.40","43.63","TORONTO ISLAND A","6158665","1993-11-26 03:00","1993","11","26","03:00","","","","","","","","10","","19","","","","","","","","","","NA"
"-79.40","43.63","TORONTO ISLAND A","6158665","1993-11-26 04:00","1993","11","26","04:00","","","","","","","","7","","13","","","","","","","","","","NA"
"-79.40","43.63","TORONTO ISLAND A","6158665","1993-11-26 05:00","1993","11","26","05:00","","","","","","","","7","","19","","","","","","","","","","NA"
"-79.40","43.63","TORONTO ISLAND A","6158665","1993-11-26 06:00","1993","11","26","06:00","","","","","","","","7","","22","","","","","","","","","","NA"
"-79.40","43.63","TORONTO ISLAND A","6158665","1993-11-26 07:00","1993","11","26","07:00","","1.8","","0.4","","90","","7","","19","","24.1","","101.79","","","","","","Mostly Cloudy"
"-79.40","43.63","TORONTO ISLAND A","6158665","1993-11-26 08:00","1993","11","26","08:00","","2.6","","0.2","","84","","9","","26","","16.1","","101.76","","","","","","Mostly Cloudy"
"-79.40","43.63","TORONTO ISLAND A","6158665","1993-11-26 09:00","1993","11","26","09:00","","3.3","","0.6","","83","","10","","15","","16.1","","101.79","","","","","","Mostly Cloudy"
"-79.40","43.63","TORONTO ISLAND A","6158665","1993-11-26 10:00","1993","11","26","10:00","","3.2","","0.6","","83","","9","","22","","12.9","","101.79","","","","","","Cloudy"
"-79.40","43.63","TORONTO ISLAND A","6158665","1993-11-26 11:00","1993","11","26","11:00","","3.0","","0.9","","86","","9","","20","","11.3","","101.76","","","","","","Rain"
"-79.40","43.63","TORONTO ISLAND A","6158665","1993-11-26 12:00","1993","11","26","12:00","","2.8","","1.6","","92","","9","","24","","9.7","","101.73","","","","","","Rain,Fog"
"-79.40","43.63","TORONTO ISLAND A","6158665","1993-11-26 13:00","1993","11","26","13:00","","3.0","","1.8","","92","","9","","26","","9.7","","101.66","","","","","","Rain,Fog"
"-79.40","43.63","TORONTO ISLAND A","6158665","1993-11-26 14:00","1993","11","26","14:00","","3.1","","1.8","","91","","8","","26","","12.9","","101.56","","","","","","Cloudy"
"-79.40","43.63","TORONTO ISLAND A","6158665","1993-11-26 15:00","1993","11","26","15:00","","4.0","","1.8","","85","","9","","24","","12.9","","101.66","","","","","","Cloudy"
"-79.40","43.63","TORONTO ISLAND A","6158665","1993-11-26 16:00","1993","11","26","16:00","","4.0","","1.7","","85","","8","","24","","12.9","","101.59","","","","","","Mostly Cloudy"
"-79.40","43.63","TORONTO ISLAND A","6158665","1993-11-26 17:00","1993","11","26","17:00","","4.2","","1.5","","82","","8","","26","","14.5","","101.56","","","","","","Cloudy"
"-79.40","43.63","TORONTO ISLAND A","6158665","1993-11-26 18:00","1993","11","26","18:00","","4.2","","1.5","","82","","8","","30","","19.3","","101.56","","","","","","Cloudy"
"-79.40","43.63","TORONTO ISLAND A","6158665","1993-11-26 19:00","1993","11","26","19:00","","4.6","","1.3","","79","","9","","33","","19.3","","101.49","","","","","","Cloudy"
"-79.40","43.63","TORONTO ISLAND A","6158665","1993-11-26 20:00","1993","11","26","20:00","","4.5","","1.6","","81","","10","","31","","19.3","","101.49","","","","","","Mostly Cloudy"
"-79.40","43.63","TORONTO ISLAND A","6158665","1993-11-26 21:00","1993","11","26","21:00","","4.6","","1.1","","78","","10","","22","","19.3","","101.46","","","","","","Mostly Cloudy"
"-79.40","43.63","TORONTO ISLAND A","6158665","1993-11-26 22:00","1993","11","26","22:00","","4.2","","1.3","","81","","9","","37","","24.1","","101.32","","","","","","Cloudy"
"-79.40","43.63","TORONTO ISLAND A","6158665","1993-11-26 23:00","1993","11","26","23:00","","","","","","","","11","","19","","","","","","","","","","NA"
"-79.40","43.63","TORONTO ISLAND A","6158665","1993-11-27 00:00","1993","11","27","00:00","","","","","","","","10","","15","","","","","","","","","","NA"
"-79.40","43.63","TORONTO ISLAND A","6158665","1993-11-27 01:00","1993","11","27","01:00","","","","","","","","11","","19","","","","","","","","","","NA"
"-79.40","43.63","TORONTO ISLAND A","6158665","1993-11-27 02:00","1993","11","27","02:00","","","","","","","","11","","19","","","","","","","","","","NA"
"-79.40","43.63","TORONTO ISLAND A","6158665","1993-11-27 03:00","1993","11","27","03:00","","","","","","","","11","","24","","","","","","","","","","NA"
"-79.40","43.63","TORONTO ISLAND A","6158665","1993-11-27 04:00","1993","11","27","04:00","","","","","","","","9","","26","","","","","","","","","","NA"
"-79.40","43.63","TORONTO ISLAND A","6158665","1993-11-27 05:00","1993","11","27","05:00","","","","","","","","9","","24","","","","","","","","","","NA"
"-79.40","43.63","TORONTO ISLAND A","6158665","1993-11-27 06:00","1993","11","27","06:00","","","","","","","","9","","26","","","","","","","","","","NA"
"-79.40","43.63","TORONTO ISLAND A","6158665","1993-11-27 07:00","1993","11","27","07:00","","4.7","","4.0","","95","","8","","22","","16.1","","101.15","","","","","","Cloudy"
"-79.40","43.63","TORONTO ISLAND A","6158665","1993-11-27 08:00","1993","11","27","08:00","","4.7","","4.2","","97","","8","","19","","8.0","","101.26","","","","","","Rain,Fog"
"-79.40","43.63","TORONTO ISLAND A","6158665","1993-11-27 09:00","1993","11","27","09:00","","4.9","","4.8","","99","","9","","20","","4.8","","101.26","","","","","","Moderate Rain,Fog"
"-79.40","43.63","TORONTO ISLAND A","6158665","1993-11-27 10:00","1993","11","27","10:00","","5.2","","5.2","","100","","10","","22","","6.4","","101.26","","","","","","Rain,Fog"
"-79.40","43.63","TORONTO ISLAND A","6158665","1993-11-27 11:00","1993","11","27","11:00","","5.4","","5.4","","100","","9","","20","","4.8","","101.22","","","","","","Rain,Fog"
"-79.40","43.63","TORONTO ISLAND A","6158665","1993-11-27 12:00","1993","11","27","12:00","","5.7","","5.7","","100","","9","","19","","6.4","","101.09","","","","","","Rain,Fog"
"-79.40","43.63","TORONTO ISLAND A","6158665","1993-11-27 13:00","1993","11","27","13:00","","6.2","","6.2","","100","","11","","17","","6.4","","101.02","","","","","","Rain,Fog"
"-79.40","43.63","TORONTO ISLAND A","6158665","1993-11-27 14:00","1993","11","27","14:00","","6.0","","6.0","","100","","10","","17","","4.8","","100.95","","","","","","Rain,Fog"
"-79.40","43.63","TORONTO ISLAND A","6158665","1993-11-27 15:00","1993","11","27","15:00","","5.7","","5.7","","100","","9","","19","","3.2","","100.92","","","","","","Rain,Fog"
"-79.40","43.63","TORONTO ISLAND A","6158665","1993-11-27 16:00","1993","11","27","16:00","","5.6","","5.6","","100","","10","","22","","2.4","","100.85","","","","","","Moderate Rain,Fog"
"-79.40","43.63","TORONTO ISLAND A","6158665","1993-11-27 17:00","1993","11","27","17:00","","5.7","","5.7","","100","","10","","22","","1.6","","100.85","","","","","","Moderate Rain,Fog"
"-79.40","43.63","TORONTO ISLAND A","6158665","1993-11-27 18:00","1993","11","27","18:00","","5.5","","5.5","","100","","9","","26","","2.0","","100.72","","","","","","Rain,Fog"
"-79.40","43.63","TORONTO ISLAND A","6158665","1993-11-27 19:00","1993","11","27","19:00","","5.5","","5.5","","100","","9","","24","","2.0","","100.68","","","","","","Rain,Fog"
"-79.40","43.63","TORONTO ISLAND A","6158665","1993-11-27 20:00","1993","11","27","20:00","","5.5","","5.5","","100","","10","","26","","2.0","","100.58","","","","","","Rain,Fog"
"-79.40","43.63","TORONTO ISLAND A","6158665","1993-11-27 21:00","1993","11","27","21:00","","5.5","","5.5","","100","","9","","19","","2.0","","100.48","","","","","","Rain,Fog"
"-79.40","43.63","TORONTO ISLAND A","6158665","1993-11-27 22:00","1993","11","27","22:00","","5.8","","5.8","","100","","10","","19","","1.6","","100.45","","","","","","Rain,Fog"
"-79.40","43.63","TORONTO ISLAND A","6158665","1993-11-27 23:00","1993","11","27","23:00","","","","","","","","8","","13","","","","","","","","","","NA"
"-79.40","43.63","TORONTO ISLAND A","6158665","1993-11-28 00:00","1993","11","28","00:00","","","","","","","","7","","11","","","","","","","","","","NA"
"-79.40","43.63","TORONTO ISLAND A","6158665","1993-11-28 01:00","1993","11","28","01:00","","","","","","","","34","","20","","","","","","","","","","NA"
"-79.40","43.63","TORONTO ISLAND A","6158665","1993-11-28 02:00","1993","11","28","02:00","","","","","","","","36","","15","","","","","","","","","","NA"
"-79.40","43.63","TORONTO ISLAND A","6158665","1993-11-28 03:00","1993","11","28","03:00","","","","","","","","33","","13","","","","","","","","","","NA"
"-79.40","43.63","TORONTO ISLAND A","6158665","1993-11-28 04:00","1993","11","28","04:00","","","","","","","","33","","19","","","","","","","","","","NA"
"-79.40","43.63","TORONTO ISLAND A","6158665","1993-11-28 05:00","1993","11","28","05:00","","","","","","","","34","","19","","","","","","","","","","NA"
"-79.40","43.63","TORONTO ISLAND A","6158665","1993-11-28 06:00","1993","11","28","06:00","","","","","","","","33","","24","","","","","","","","","","NA"
"-79.40","43.63","TORONTO ISLAND A","6158665","1993-11-28 07:00","1993","11","28","07:00","","2.6","","1.9","","95","","33","","19","","25.0","","99.88","","","","","","Cloudy"
"-79.40","43.63","TORONTO ISLAND A","6158665","1993-11-28 08:00","1993","11","28","08:00","","2.6","","2.0","","96","","32","","19","","24.1","","99.78","","","","","","Cloudy"
"-79.40","43.63","TORONTO ISLAND A","6158665","1993-11-28 09:00","1993","11","28","09:00","","2.9","","1.4","","90","","32","","15","","24.1","","99.81","","","","","","Cloudy"
"-79.40","43.63","TORONTO ISLAND A","6158665","1993-11-28 10:00","1993","11","28","10:00","","3.4","","1.6","","88","","29","","19","","12.9","","99.81","","","","","","Cloudy"
"-79.40","43.63","TORONTO ISLAND A","6158665","1993-11-28 11:00","1993","11","28","11:00","","3.3","","1.8","","90","","30","","17","","16.1","","99.71","","","","","","Drizzle"
"-79.40","43.63","TORONTO ISLAND A","6158665","1993-11-28 12:00","1993","11","28","12:00","","3.7","","0.8","","81","","29","","19","","25.0","","99.64","","","","","","Mostly Cloudy"
"-79.40","43.63","TORONTO ISLAND A","6158665","1993-11-28 13:00","1993","11","28","13:00","","3.0","","-0.1","","80","","28","","20","","25.0","","99.57","","","","","","Mostly Cloudy"
"-79.40","43.63","TORONTO ISLAND A","6158665","1993-11-28 14:00","1993","11","28","14:00","","3.2","","-0.8","","75","","26","","22","","25.0","","99.54","","","","","","Mostly Cloudy"
"-79.40","43.63","TORONTO ISLAND A","6158665","1993-11-28 15:00","1993","11","28","15:00","","3.3","","-3.4","","62","","31","","19","","25.0","","99.54","","","","","","Mostly Cloudy"
"-79.40","43.63","TORONTO ISLAND A","6158665","1993-11-28 16:00","1993","11","28","16:00","","2.6","","-2.8","","68","","29","","26","","25.0","","99.61","","","","","","Mostly Cloudy"
"-79.40","43.63","TORONTO ISLAND A","6158665","1993-11-28 17:00","1993","11","28","17:00","","2.2","","-3.0","","68","","28","","22","","25.0","","99.74","","","","","","Mainly Clear"
"-79.40","43.63","TORONTO ISLAND A","6158665","1993-11-28 18:00","1993","11","28","18:00","","1.8","","-3.1","","70","","27","","22","","25.0","","99.84","","","","","","Mainly Clear"
"-79.40","43.63","TORONTO ISLAND A","6158665","1993-11-28 19:00","1993","11","28","19:00","","1.7","","-2.9","","71","","27","","22","","25.0","","99.94","","","","","","Mainly Clear"
"-79.40","43.63","TORONTO ISLAND A","6158665","1993-11-28 20:00","1993","11","28","20:00","","1.1","","-3.8","","70","","27","","22","","25.0","","100.01","","","","","","Mostly Cloudy"
"-79.40","43.63","TORONTO ISLAND A","6158665","1993-11-28 21:00","1993","11","28","21:00","","0.8","","-3.3","","74","","27","","22","","25.0","","100.08","","","","","","Mainly Clear"
"-79.40","43.63","TORONTO ISLAND A","6158665","1993-11-28 22:00","1993","11","28","22:00","","0.4","","-3.4","","76","","26","","19","","25.0","","100.15","","","","","","Mainly Clear"
"-79.40","43.63","TORONTO ISLAND A","6158665","1993-11-28 23:00","1993","11","28","23:00","","","","","","","","27","","13","","","","","","","","","","NA"
"-79.40","43.63","TORONTO ISLAND A","6158665","1993-11-29 00:00","1993","11","29","00:00","","","","","","","","26","","15","","","","","","","","","","NA"
"-79.40","43.63","TORONTO ISLAND A","6158665","1993-11-29 01:00","1993","11","29","01:00","","","","","","","","26","","17","","","","","","","","","","NA"
"-79.40","43.63","TORONTO ISLAND A","6158665","1993-11-29 02:00","1993","11","29","02:00","","","","","","","","26","","19","","","","","","","","","","NA"
"-79.40","43.63","TORONTO ISLAND A","6158665","1993-11-29 03:00","1993","11","29","03:00","","","","","","","","26","","19","","","","","","","","","","NA"
"-79.40","43.63","TORONTO ISLAND A","6158665","1993-11-29 04:00","1993","11","29","04:00","","","","","","","","26","","22","","","","","","","","","","NA"
"-79.40","43.63","TORONTO ISLAND A","6158665","1993-11-29 05:00","1993","11","29","05:00","","","","","","","","26","","17","","","","","","","","","","NA"
"-79.40","43.63","TORONTO ISLAND A","6158665","1993-11-29 06:00","1993","11","29","06:00","","","","","","","","26","","13","","","","","","","","","","NA"
"-79.40","43.63","TORONTO ISLAND A","6158665","1993-11-29 07:00","1993","11","29","07:00","","-0.3","","-3.1","","81","","27","","9","","24.1","","100.52","","","","-3","","Mostly Cloudy"
"-79.40","43.63","TORONTO ISLAND A","6158665","1993-11-29 08:00","1993","11","29","08:00","","0.5","","-3.1","","77","","27","","17","","11.3","","100.58","","","","","","Mostly Cloudy"
"-79.40","43.63","TORONTO ISLAND A","6158665","1993-11-29 09:00","1993","11","29","09:00","","1.1","","-2.8","","75","","27","","13","","12.9","","100.62","","","","","","Mostly Cloudy"
"-79.40","43.63","TORONTO ISLAND A","6158665","1993-11-29 10:00","1993","11","29","10:00","","1.5","","-2.6","","74","","24","","15","","16.1","","100.72","","","","","","Mostly Cloudy"
"-79.40","43.63","TORONTO ISLAND A","6158665","1993-11-29 11:00","1993","11","29","11:00","","1.6","","-3.2","","70","","24","","17","","24.1","","100.75","","","","","","Mostly Cloudy"
"-79.40","43.63","TORONTO ISLAND A","6158665","1993-11-29 12:00","1993","11","29","12:00","","2.2","","-3.9","","64","","24","","17","","24.1","","100.75","","","","","","Cloudy"
"-79.40","43.63","TORONTO ISLAND A","6158665","1993-11-29 13:00","1993","11","29","13:00","","2.8","","-3.2","","65","","22","","17","","24.1","","100.75","","","","","","Cloudy"
"-79.40","43.63","TORONTO ISLAND A","6158665","1993-11-29 14:00","1993","11","29","14:00","","2.8","","-3.7","","62","","26","","15","","24.1","","100.79","","","","","","Mostly Cloudy"
"-79.40","43.63","TORONTO ISLAND A","6158665","1993-11-29 15:00","1993","11","29","15:00","","2.6","","-4.3","","60","","28","","19","","25.0","","100.85","","","","","","Mostly Cloudy"
"-79.40","43.63","TORONTO ISLAND A","6158665","1993-11-29 16:00","1993","11","29","16:00","","2.4","","-4.7","","59","","27","","17","","16.1","","100.92","","","","","","Mainly Clear"
"-79.40","43.63","TORONTO ISLAND A","6158665","1993-11-29 17:00","1993","11","29","17:00","","2.1","","-3.3","","67","","26","","19","","12.9","","101.05","","","","","","Snow Showers"
"-79.40","43.63","TORONTO ISLAND A","6158665","1993-11-29 18:00","1993","11","29","18:00","","1.7","","-2.3","","75","","26","","13","","16.1","","101.15","","","","","","Snow Showers"
"-79.40","43.63","TORONTO ISLAND A","6158665","1993-11-29 19:00","1993","11","29","19:00","","1.4","","-2.9","","73","","28","","19","","19.3","","101.26","","","","","","Mainly Clear"
"-79.40","43.63","TORONTO ISLAND A","6158665","1993-11-29 20:00","1993","11","29","20:00","","1.3","","-2.5","","76","","28","","13","","24.1","","101.36","","","","","","Cloudy"
"-79.40","43.63","TORONTO ISLAND A","6158665","1993-11-29 21:00","1993","11","29","21:00","","1.2","","-3.2","","72","","29","","15","","24.1","","101.42","","","","","","Mostly Cloudy"
"-79.40","43.63","TORONTO ISLAND A","6158665","1993-11-29 22:00","1993","11","29","22:00","","0.7","","-3.5","","73","","28","","17","","24.1","","101.46","","","","","","Clear"
"-79.40","43.63","TORONTO ISLAND A","6158665","1993-11-29 23:00","1993","11","29","23:00","","","","","","","","28","","13","","","","","","","","","","NA"
"-79.40","43.63","TORONTO ISLAND A","6158665","1993-11-30 00:00","1993","11","30","00:00","","","","","","","","28","","7","","","","","","","","","","NA"
"-79.40","43.63","TORONTO ISLAND A","6158665","1993-11-30 01:00","1993","11","30","01:00","","","","","","","","31","","7","","","","","","","","","","NA"
"-79.40","43.63","TORONTO ISLAND A","6158665","1993-11-30 02:00","1993","11","30","02:00","","","","","","","","32","","7","","","","","","","","","","NA"
"-79.40","43.63","TORONTO ISLAND A","6158665","1993-11-30 03:00","1993","11","30","03:00","","","","","","","","31","","13","","","","","","","","","","NA"
"-79.40","43.63","TORONTO ISLAND A","6158665","1993-11-30 04:00","1993","11","30","04:00","","","","","","","","31","","11","","","","","","","","","","NA"
"-79.40","43.63","TORONTO ISLAND A","6158665","1993-11-30 05:00","1993","11","30","05:00","","","","","","","","33","","9","","","","","","","","","","NA"
"-79.40","43.63","TORONTO ISLAND A","6158665","1993-11-30 06:00","1993","11","30","06:00","","","","","","","","34","","15","","","","","","","","","","NA"
"-79.40","43.63","TORONTO ISLAND A","6158665","1993-11-30 07:00","1993","11","30","07:00","","-1.1","","-4.5","","78","","35","","17","","24.1","","102.43","","","","-6","","Mostly Cloudy"
"-79.40","43.63","TORONTO ISLAND A","6158665","1993-11-30 08:00","1993","11","30","08:00","","-0.6","","-4.9","","73","","3","","7","","19.3","","102.53","","","","-3","","Mostly Cloudy"
"-79.40","43.63","TORONTO ISLAND A","6158665","1993-11-30 09:00","1993","11","30","09:00","","-0.2","","-5.8","","66","","36","","9","","24.1","","102.63","","","","-3","","Mostly Cloudy"
"-79.40","43.63","TORONTO ISLAND A","6158665","1993-11-30 10:00","1993","11","30","10:00","","-0.1","","-5.4","","67","","36","","9","","19.3","","102.74","","","","-3","","Mostly Cloudy"
"-79.40","43.63","TORONTO ISLAND A","6158665","1993-11-30 11:00","1993","11","30","11:00","","0.8","","-5.4","","63","","11","","6","","24.1","","102.84","","","","","","Mainly Clear"
"-79.40","43.63","TORONTO ISLAND A","6158665","1993-11-30 12:00","1993","11","30","12:00","","1.3","","-4.7","","64","","16","","6","","19.3","","102.84","","","","","","Mainly Clear"
"-79.40","43.63","TORONTO ISLAND A","6158665","1993-11-30 13:00","1993","11","30","13:00","","0.4","","-4.8","","68","","13","","7","","24.1","","102.87","","","","","","Mostly Cloudy"
"-79.40","43.63","TORONTO ISLAND A","6158665","1993-11-30 14:00","1993","11","30","14:00","","0.8","","-4.9","","66","","16","","7","","24.1","","102.90","","","","","","Mostly Cloudy"
"-79.40","43.63","TORONTO ISLAND A","6158665","1993-11-30 15:00","1993","11","30","15:00","","0.8","","-5.1","","65","","12","","6","","24.1","","102.94","","","","","","Mostly Cloudy"
"-79.40","43.63","TORONTO ISLAND A","6158665","1993-11-30 16:00","1993","11","30","16:00","","0.8","","-5.1","","65","","15","","4","","24.1","","102.94","","","","","","Mostly Cloudy"
"-79.40","43.63","TORONTO ISLAND A","6158665","1993-11-30 17:00","1993","11","30","17:00","","-0.3","","-5.0","","70","","10","","7","","24.1","","103.00","","","","-3","","Mainly Clear"
"-79.40","43.63","TORONTO ISLAND A","6158665","1993-11-30 18:00","1993","11","30","18:00","","0.0","","-4.7","","70","","11","","7","","24.1","","103.00","","","","-2","","Mostly Cloudy"
"-79.40","43.63","TORONTO ISLAND A","6158665","1993-11-30 19:00","1993","11","30","19:00","","-0.3","","-5.2","","69","","11","","6","","24.1","","103.04","","","","-2","","Mainly Clear"
"-79.40","43.63","TORONTO ISLAND A","6158665","1993-11-30 20:00","1993","11","30","20:00","","-0.7","","-4.9","","73","","12","","7","","24.1","","103.04","","","","-3","","Mainly Clear"
"-79.40","43.63","TORONTO ISLAND A","6158665","1993-11-30 21:00","1993","11","30","21:00","","0.0","","-4.8","","70","","11","","11","","24.1","","103.07","","","","-4","","Mostly Cloudy"
"-79.40","43.63","TORONTO ISLAND A","6158665","1993-11-30 22:00","1993","11","30","22:00","","-0.2","","-4.8","","71","","12","","9","","24.1","","103.11","","","","-3","","Mostly Cloudy"
"-79.40","43.63","TORONTO ISLAND A","6158665","1993-11-30 23:00","1993","11","30","23:00","","","","","","","","12","","9","","","","","","","","","","NA"
