"Longitude (x)","Latitude (y)","Station Name","Climate ID","Date/Time (LST)","Year","Month","Day","Time (LST)","Flag","Temp (°C)","Temp Flag","Dew Point Temp (°C)","Dew Point Temp Flag","Rel Hum (%)","Rel Hum Flag","Wind Dir (10s deg)","Wind Dir Flag","Wind Spd (km/h)","Wind Spd Flag","Visibility (km)","Visibility Flag","Stn Press (kPa)","Stn Press Flag","Hmdx","Hmdx Flag","Wind Chill","Wind Chill Flag","Weather"
"-79.40","43.63","TORONTO ISLAND A","6158665","1997-12-01 00:00","1997","12","01","00:00","","2.0","","-4.0","","64","","35","","17","","15.0","","99.60","","","","","",""
"-79.40","43.63","TORONTO ISLAND A","6158665","1997-12-01 01:00","1997","12","01","01:00","","1.3","","-3.4","","71","","34","","19","","15.0","","99.67","","","","","",""
"-79.40","43.63","TORONTO ISLAND A","6158665","1997-12-01 02:00","1997","12","01","02:00","","0.9","","-3.5","","72","","32","","15","","15.0","","99.73","","","","","",""
"-79.40","43.63","TORONTO ISLAND A","6158665","1997-12-01 03:00","1997","12","01","03:00","","0.9","","-4.9","","65","","35","","24","","15.0","","99.80","","","","","",""
"-79.40","43.63","TORONTO ISLAND A","6158665","1997-12-01 04:00","1997","12","01","04:00","","0.5","","-6.5","","59","","34","","17","","15.0","","99.87","","","","","",""
"-79.40","43.63","TORONTO ISLAND A","6158665","1997-12-01 05:00","1997","12","01","05:00","","0.4","","-5.6","","64","","33","","26","","15.0","","99.97","","","","","",""
"-79.40","43.63","TORONTO ISLAND A","6158665","1997-12-01 06:00","1997","12","01","06:00","","-0.2","","-6.1","","64","","34","","15","","15.0","","100.07","","","","-5","",""
"-79.40","43.63","TORONTO ISLAND A","6158665","1997-12-01 07:00","1997","12","01","07:00","","-0.2","","-6.1","","64","","33","","17","","15.0","","100.17","","","","-5","",""
"-79.40","43.63","TORONTO ISLAND A","6158665","1997-12-01 08:00","1997","12","01","08:00","","-0.7","","-6.5","","65","","33","","19","","15.0","","100.27","","","","-6","",""
"-79.40","43.63","TORONTO ISLAND A","6158665","1997-12-01 09:00","1997","12","01","09:00","","-0.3","","-7.0","","61","","32","","33","","15.0","","100.37","","","","-7","",""
"-79.40","43.63","TORONTO ISLAND A","6158665","1997-12-01 10:00","1997","12","01","10:00","","0.0","","-7.2","","58","","33","","37","","15.0","","100.41","","","","-7","",""
"-79.40","43.63","TORONTO ISLAND A","6158665","1997-12-01 11:00","1997","12","01","11:00","","0.8","","-6.9","","56","","33","","32","","15.0","","100.47","","","","","",""
"-79.40","43.63","TORONTO ISLAND A","6158665","1997-12-01 12:00","1997","12","01","12:00","","1.6","","-6.5","","55","","33","","24","","15.0","","100.44","","","","","",""
"-79.40","43.63","TORONTO ISLAND A","6158665","1997-12-01 13:00","1997","12","01","13:00","","2.2","","-6.5","","53","","32","","32","","15.0","","100.41","","","","","",""
"-79.40","43.63","TORONTO ISLAND A","6158665","1997-12-01 14:00","1997","12","01","14:00","","2.4","","-6.1","","53","","32","","28","","15.0","","100.41","","","","","",""
"-79.40","43.63","TORONTO ISLAND A","6158665","1997-12-01 15:00","1997","12","01","15:00","","2.4","","-5.5","","56","","32","","30","","15.0","","100.47","","","","","",""
"-79.40","43.63","TORONTO ISLAND A","6158665","1997-12-01 16:00","1997","12","01","16:00","","1.9","","-5.6","","57","","33","","26","","15.0","","100.54","","","","","",""
"-79.40","43.63","TORONTO ISLAND A","6158665","1997-12-01 17:00","1997","12","01","17:00","","0.7","","-6.2","","60","","32","","32","","15.0","","100.61","","","","","",""
"-79.40","43.63","TORONTO ISLAND A","6158665","1997-12-01 18:00","1997","12","01","18:00","","0.2","","-5.7","","64","","30","","22","","15.0","","100.64","","","","","",""
"-79.40","43.63","TORONTO ISLAND A","6158665","1997-12-01 19:00","1997","12","01","19:00","","-0.1","","-5.6","","66","","30","","22","","15.0","","100.64","","","","-6","",""
"-79.40","43.63","TORONTO ISLAND A","6158665","1997-12-01 20:00","1997","12","01","20:00","","-0.6","","-5.7","","68","","30","","20","","15.0","","100.64","","","","-6","",""
"-79.40","43.63","TORONTO ISLAND A","6158665","1997-12-01 21:00","1997","12","01","21:00","","-0.2","","-5.8","","66","","30","","20","","15.0","","100.67","","","","-5","",""
"-79.40","43.63","TORONTO ISLAND A","6158665","1997-12-01 22:00","1997","12","01","22:00","","-0.1","","-5.8","","65","","30","","17","","15.0","","100.71","","","","-5","",""
"-79.40","43.63","TORONTO ISLAND A","6158665","1997-12-01 23:00","1997","12","01","23:00","","0.4","","-5.6","","64","","31","","20","","15.0","","100.71","","","","","",""
"-79.40","43.63","TORONTO ISLAND A","6158665","1997-12-02 00:00","1997","12","02","00:00","","0.3","","-5.7","","64","","31","","26","","15.0","","100.71","","","","","",""
"-79.40","43.63","TORONTO ISLAND A","6158665","1997-12-02 01:00","1997","12","02","01:00","","-0.3","","-6.1","","65","","31","","22","","15.0","","100.77","","","","-6","",""
"-79.40","43.63","TORONTO ISLAND A","6158665","1997-12-02 02:00","1997","12","02","02:00","","-0.6","","-5.9","","67","","32","","30","","15.0","","100.81","","","","-7","",""
"-79.40","43.63","TORONTO ISLAND A","6158665","1997-12-02 03:00","1997","12","02","03:00","","-1.1","","-5.7","","71","","30","","17","","15.0","","100.88","","","","-6","",""
"-79.40","43.63","TORONTO ISLAND A","6158665","1997-12-02 04:00","1997","12","02","04:00","","-1.2","","-6.3","","68","","31","","17","","15.0","","100.94","","","","-6","",""
"-79.40","43.63","TORONTO ISLAND A","6158665","1997-12-02 05:00","1997","12","02","05:00","","-1.1","","-6.7","","66","","32","","28","","15.0","","100.94","","","","-8","",""
"-79.40","43.63","TORONTO ISLAND A","6158665","1997-12-02 06:00","1997","12","02","06:00","","-1.5","","-6.8","","67","","30","","20","","15.0","","101.01","","","","-7","",""
"-79.40","43.63","TORONTO ISLAND A","6158665","1997-12-02 07:00","1997","12","02","07:00","","-2.1","","-6.7","","71","","30","","20","","15.0","","101.08","","","","-8","",""
"-79.40","43.63","TORONTO ISLAND A","6158665","1997-12-02 08:00","1997","12","02","08:00","","-1.8","","-6.8","","69","","29","","24","","15.0","","101.14","","","","-8","",""
"-79.40","43.63","TORONTO ISLAND A","6158665","1997-12-02 09:00","1997","12","02","09:00","","-1.1","","-6.8","","65","","30","","26","","15.0","","101.21","","","","-7","",""
"-79.40","43.63","TORONTO ISLAND A","6158665","1997-12-02 10:00","1997","12","02","10:00","","0.0","","-5.7","","65","","32","","28","","15.0","","101.25","","","","-6","",""
"-79.40","43.63","TORONTO ISLAND A","6158665","1997-12-02 11:00","1997","12","02","11:00","","1.0","","-5.4","","62","","32","","19","","15.0","","101.28","","","","","",""
"-79.40","43.63","TORONTO ISLAND A","6158665","1997-12-02 12:00","1997","12","02","12:00","","2.2","","-6.4","","53","","28","","28","","15.0","","101.25","","","","","",""
"-79.40","43.63","TORONTO ISLAND A","6158665","1997-12-02 13:00","1997","12","02","13:00","","3.0","","-7.4","","46","","29","","28","","15.0","","101.21","","","","","",""
"-79.40","43.63","TORONTO ISLAND A","6158665","1997-12-02 14:00","1997","12","02","14:00","","3.5","","-8.0","","43","","29","","24","","15.0","","101.25","","","","","",""
"-79.40","43.63","TORONTO ISLAND A","6158665","1997-12-02 15:00","1997","12","02","15:00","","3.7","","-9.1","","39","","32","","22","","15.0","","101.21","","","","","",""
"-79.40","43.63","TORONTO ISLAND A","6158665","1997-12-02 16:00","1997","12","02","16:00","","3.0","","-8.6","","42","","31","","19","","15.0","","101.28","","","","","",""
"-79.40","43.63","TORONTO ISLAND A","6158665","1997-12-02 17:00","1997","12","02","17:00","","1.9","","-7.4","","50","","32","","9","","15.0","","101.31","","","","","",""
"-79.40","43.63","TORONTO ISLAND A","6158665","1997-12-02 18:00","1997","12","02","18:00","","1.1","","-6.1","","59","","32","","15","","15.0","","101.35","","","","","",""
"-79.40","43.63","TORONTO ISLAND A","6158665","1997-12-02 19:00","1997","12","02","19:00","","-0.1","","-5.4","","67","","34","","11","","15.0","","101.35","","","","-4","",""
"-79.40","43.63","TORONTO ISLAND A","6158665","1997-12-02 20:00","1997","12","02","20:00","","-0.5","","-5.1","","71","","32","","11","","15.0","","101.38","","","","-4","",""
"-79.40","43.63","TORONTO ISLAND A","6158665","1997-12-02 21:00","1997","12","02","21:00","","-0.9","","-5.0","","74","","31","","6","","15.0","","101.41","","","","-3","",""
"-79.40","43.63","TORONTO ISLAND A","6158665","1997-12-02 22:00","1997","12","02","22:00","","-1.2","","-5.3","","74","","27","","6","","15.0","","101.35","","","","-3","",""
"-79.40","43.63","TORONTO ISLAND A","6158665","1997-12-02 23:00","1997","12","02","23:00","","-2.0","","-4.8","","81","","28","","6","","15.0","","101.35","","","","-4","",""
"-79.40","43.63","TORONTO ISLAND A","6158665","1997-12-03 00:00","1997","12","03","00:00","","-1.3","","-4.5","","79","","","","0","","15.0","","101.31","","","","","",""
"-79.40","43.63","TORONTO ISLAND A","6158665","1997-12-03 01:00","1997","12","03","01:00","","-2.0","","-4.6","","82","","30","","7","","15.0","","101.31","","","","-5","",""
"-79.40","43.63","TORONTO ISLAND A","6158665","1997-12-03 02:00","1997","12","03","02:00","","-1.9","","-4.7","","81","","30","","6","","15.0","","101.28","","","","-4","",""
"-79.40","43.63","TORONTO ISLAND A","6158665","1997-12-03 03:00","1997","12","03","03:00","","-2.0","","-4.6","","82","","33","","6","","15.0","","101.28","","","","-4","",""
"-79.40","43.63","TORONTO ISLAND A","6158665","1997-12-03 04:00","1997","12","03","04:00","","-2.4","","-4.9","","83","","31","","7","","15.0","","101.25","","","","-5","",""
"-79.40","43.63","TORONTO ISLAND A","6158665","1997-12-03 05:00","1997","12","03","05:00","","-2.6","","-4.6","","86","","","","0","","9.7","","101.21","","","","","",""
"-79.40","43.63","TORONTO ISLAND A","6158665","1997-12-03 06:00","1997","12","03","06:00","","-2.5","","-4.6","","85","","2","","4","","12.9","","101.14","","","","-4","",""
"-79.40","43.63","TORONTO ISLAND A","6158665","1997-12-03 07:00","1997","12","03","07:00","","-2.0","","-4.0","","86","","","","0","","15.0","","101.14","","","","","",""
"-79.40","43.63","TORONTO ISLAND A","6158665","1997-12-03 08:00","1997","12","03","08:00","","-1.1","","-2.9","","88","","8","","11","","11.3","","101.01","","","","-5","",""
"-79.40","43.63","TORONTO ISLAND A","6158665","1997-12-03 09:00","1997","12","03","09:00","","0.6","","-1.2","","88","","9","","6","","15.0","","100.98","","","","","",""
"-79.40","43.63","TORONTO ISLAND A","6158665","1997-12-03 10:00","1997","12","03","10:00","","0.6","","-0.2","","94","","7","","17","","11.3","","100.88","","","","","",""
"-79.40","43.63","TORONTO ISLAND A","6158665","1997-12-03 11:00","1997","12","03","11:00","","2.0","","-1.0","","80","","10","","11","","15.0","","100.81","","","","","",""
"-79.40","43.63","TORONTO ISLAND A","6158665","1997-12-03 12:00","1997","12","03","12:00","","2.3","","-1.3","","77","","10","","11","","15.0","","100.64","","","","","",""
"-79.40","43.63","TORONTO ISLAND A","6158665","1997-12-03 13:00","1997","12","03","13:00","","2.6","","-0.8","","78","","9","","19","","15.0","","100.54","","","","","",""
"-79.40","43.63","TORONTO ISLAND A","6158665","1997-12-03 14:00","1997","12","03","14:00","","2.4","","-0.7","","80","","7","","22","","15.0","","100.44","","","","","",""
"-79.40","43.63","TORONTO ISLAND A","6158665","1997-12-03 15:00","1997","12","03","15:00","","2.6","","0.0","","83","","7","","46","","15.0","","100.07","","","","","","Rain"
"-79.40","43.63","TORONTO ISLAND A","6158665","1997-12-03 16:00","1997","12","03","16:00","","3.0","","0.2","","82","","8","","32","","15.0","","100.07","","","","","",""
"-79.40","43.63","TORONTO ISLAND A","6158665","1997-12-03 17:00","1997","12","03","17:00","","3.5","","1.0","","84","","7","","30","","15.0","","100.04","","","","","",""
"-79.40","43.63","TORONTO ISLAND A","6158665","1997-12-03 18:00","1997","12","03","18:00","","3.7","","1.4","","85","","7","","37","","15.0","","99.80","","","","","",""
"-79.40","43.63","TORONTO ISLAND A","6158665","1997-12-03 19:00","1997","12","03","19:00","","3.7","","1.9","","88","","8","","28","","12.9","","99.77","","","","","","Rain"
"-79.40","43.63","TORONTO ISLAND A","6158665","1997-12-03 20:00","1997","12","03","20:00","","3.8","","2.9","","94","","7","","24","","9.7","","99.67","","","","","","Rain"
"-79.40","43.63","TORONTO ISLAND A","6158665","1997-12-03 21:00","1997","12","03","21:00","","3.9","","3.3","","96","","9","","11","","5.6","","99.53","","","","","","Rain"
"-79.40","43.63","TORONTO ISLAND A","6158665","1997-12-03 22:00","1997","12","03","22:00","","3.7","","3.5","","99","","8","","17","","3.9","","99.43","","","","","","Moderate Rain"
"-79.40","43.63","TORONTO ISLAND A","6158665","1997-12-03 23:00","1997","12","03","23:00","","3.8","","3.8","","100","","8","","15","","3.7","","99.33","","","","","","Rain"
"-79.40","43.63","TORONTO ISLAND A","6158665","1997-12-04 00:00","1997","12","04","00:00","","4.0","","3.9","","99","","8","","15","","4.8","","99.26","","","","","","Rain"
"-79.40","43.63","TORONTO ISLAND A","6158665","1997-12-04 01:00","1997","12","04","01:00","","4.3","","4.3","","100","","5","","19","","3.9","","99.20","","","","","",""
"-79.40","43.63","TORONTO ISLAND A","6158665","1997-12-04 02:00","1997","12","04","02:00","","3.9","","3.9","","100","","6","","15","","3.4","","99.20","","","","","","Drizzle"
"-79.40","43.63","TORONTO ISLAND A","6158665","1997-12-04 03:00","1997","12","04","03:00","","3.6","","3.6","","100","","7","","9","","3.4","","99.23","","","","","",""
"-79.40","43.63","TORONTO ISLAND A","6158665","1997-12-04 04:00","1997","12","04","04:00","","3.5","","3.5","","100","","13","","4","","1.1","","99.23","","","","","",""
"-79.40","43.63","TORONTO ISLAND A","6158665","1997-12-04 05:00","1997","12","04","05:00","","3.9","","3.9","","100","","23","","9","","1.1","","99.26","","","","","",""
"-79.40","43.63","TORONTO ISLAND A","6158665","1997-12-04 06:00","1997","12","04","06:00","","3.8","","3.8","","100","","23","","19","","6.4","","99.30","","","","","",""
"-79.40","43.63","TORONTO ISLAND A","6158665","1997-12-04 07:00","1997","12","04","07:00","","4.3","","3.6","","95","","24","","19","","8.0","","99.33","","","","","",""
"-79.40","43.63","TORONTO ISLAND A","6158665","1997-12-04 08:00","1997","12","04","08:00","","4.4","","3.7","","95","","23","","24","","9.7","","99.36","","","","","",""
"-79.40","43.63","TORONTO ISLAND A","6158665","1997-12-04 09:00","1997","12","04","09:00","","4.1","","2.9","","92","","28","","24","","8.0","","99.40","","","","","","Rain"
"-79.40","43.63","TORONTO ISLAND A","6158665","1997-12-04 10:00","1997","12","04","10:00","","4.1","","2.8","","91","","25","","22","","15.0","","99.43","","","","","","Rain"
"-79.40","43.63","TORONTO ISLAND A","6158665","1997-12-04 11:00","1997","12","04","11:00","","4.4","","1.2","","80","","27","","26","","15.0","","99.40","","","","","",""
"-79.40","43.63","TORONTO ISLAND A","6158665","1997-12-04 12:00","1997","12","04","12:00","","4.6","","-0.4","","70","","26","","37","","15.0","","99.36","","","","","",""
"-79.40","43.63","TORONTO ISLAND A","6158665","1997-12-04 13:00","1997","12","04","13:00","","4.7","","-0.7","","68","","26","","28","","15.0","","99.33","","","","","",""
"-79.40","43.63","TORONTO ISLAND A","6158665","1997-12-04 14:00","1997","12","04","14:00","","4.9","","-1.5","","63","","26","","28","","15.0","","99.30","","","","","",""
"-79.40","43.63","TORONTO ISLAND A","6158665","1997-12-04 15:00","1997","12","04","15:00","","4.4","","-1.7","","65","","27","","22","","15.0","","99.33","","","","","",""
"-79.40","43.63","TORONTO ISLAND A","6158665","1997-12-04 16:00","1997","12","04","16:00","","4.3","","-2.0","","64","","26","","17","","15.0","","99.36","","","","","",""
"-79.40","43.63","TORONTO ISLAND A","6158665","1997-12-04 17:00","1997","12","04","17:00","","4.4","","-1.9","","64","","24","","19","","15.0","","99.40","","","","","",""
"-79.40","43.63","TORONTO ISLAND A","6158665","1997-12-04 18:00","1997","12","04","18:00","","4.1","","-0.5","","72","","24","","22","","15.0","","99.43","","","","","","Rain"
"-79.40","43.63","TORONTO ISLAND A","6158665","1997-12-04 19:00","1997","12","04","19:00","","4.1","","-0.3","","73","","24","","20","","15.0","","99.43","","","","","",""
"-79.40","43.63","TORONTO ISLAND A","6158665","1997-12-04 20:00","1997","12","04","20:00","","3.6","","-0.2","","76","","24","","22","","15.0","","99.40","","","","","",""
"-79.40","43.63","TORONTO ISLAND A","6158665","1997-12-04 21:00","1997","12","04","21:00","","3.3","","-0.4","","77","","25","","17","","15.0","","99.36","","","","","",""
"-79.40","43.63","TORONTO ISLAND A","6158665","1997-12-04 22:00","1997","12","04","22:00","","3.0","","0.1","","81","","24","","17","","15.0","","99.30","","","","","",""
"-79.40","43.63","TORONTO ISLAND A","6158665","1997-12-04 23:00","1997","12","04","23:00","","2.7","","0.1","","83","","24","","15","","15.0","","99.30","","","","","",""
"-79.40","43.63","TORONTO ISLAND A","6158665","1997-12-05 00:00","1997","12","05","00:00","","1.9","","-0.7","","83","","27","","7","","15.0","","99.23","","","","","",""
"-79.40","43.63","TORONTO ISLAND A","6158665","1997-12-05 01:00","1997","12","05","01:00","","1.9","","-0.2","","86","","27","","7","","12.9","","99.20","","","","","",""
"-79.40","43.63","TORONTO ISLAND A","6158665","1997-12-05 02:00","1997","12","05","02:00","","2.1","","0.2","","87","","24","","11","","12.9","","99.16","","","","","",""
"-79.40","43.63","TORONTO ISLAND A","6158665","1997-12-05 03:00","1997","12","05","03:00","","2.5","","0.7","","88","","23","","11","","11.3","","99.16","","","","","",""
"-79.40","43.63","TORONTO ISLAND A","6158665","1997-12-05 04:00","1997","12","05","04:00","","2.0","","0.7","","91","","26","","11","","8.0","","99.13","","","","","",""
"-79.40","43.63","TORONTO ISLAND A","6158665","1997-12-05 05:00","1997","12","05","05:00","","2.1","","0.8","","91","","26","","15","","8.0","","99.13","","","","","","Rain"
"-79.40","43.63","TORONTO ISLAND A","6158665","1997-12-05 06:00","1997","12","05","06:00","","1.7","","0.9","","94","","24","","15","","6.4","","99.13","","","","","","Rain"
"-79.40","43.63","TORONTO ISLAND A","6158665","1997-12-05 07:00","1997","12","05","07:00","","1.6","","0.5","","92","","27","","15","","9.7","","99.13","","","","","",""
"-79.40","43.63","TORONTO ISLAND A","6158665","1997-12-05 08:00","1997","12","05","08:00","","1.7","","-0.3","","87","","27","","13","","12.9","","99.13","","","","","",""
"-79.40","43.63","TORONTO ISLAND A","6158665","1997-12-05 09:00","1997","12","05","09:00","","2.0","","-0.7","","82","","26","","17","","15.0","","99.13","","","","","",""
"-79.40","43.63","TORONTO ISLAND A","6158665","1997-12-05 10:00","1997","12","05","10:00","","2.9","","-0.6","","78","","26","","19","","15.0","","99.16","","","","","",""
"-79.40","43.63","TORONTO ISLAND A","6158665","1997-12-05 11:00","1997","12","05","11:00","","4.0","","-0.4","","73","","25","","20","","15.0","","99.13","","","","","",""
"-79.40","43.63","TORONTO ISLAND A","6158665","1997-12-05 12:00","1997","12","05","12:00","","3.7","","-1.1","","71","","26","","30","","15.0","","99.09","","","","","","Snow"
"-79.40","43.63","TORONTO ISLAND A","6158665","1997-12-05 13:00","1997","12","05","13:00","","2.7","","-0.4","","80","","27","","30","","15.0","","99.06","","","","","",""
"-79.40","43.63","TORONTO ISLAND A","6158665","1997-12-05 14:00","1997","12","05","14:00","","3.2","","-0.6","","76","","28","","26","","15.0","","99.03","","","","","","Rain"
"-79.40","43.63","TORONTO ISLAND A","6158665","1997-12-05 15:00","1997","12","05","15:00","","3.6","","-3.4","","60","","28","","30","","15.0","","99.09","","","","","",""
"-79.40","43.63","TORONTO ISLAND A","6158665","1997-12-05 16:00","1997","12","05","16:00","","2.8","","-4.4","","59","","29","","24","","15.0","","99.16","","","","","",""
"-79.40","43.63","TORONTO ISLAND A","6158665","1997-12-05 17:00","1997","12","05","17:00","","2.3","","-5.5","","56","","30","","28","","15.0","","99.23","","","","","",""
"-79.40","43.63","TORONTO ISLAND A","6158665","1997-12-05 18:00","1997","12","05","18:00","","2.0","","-5.4","","58","","29","","28","","15.0","","99.30","","","","","",""
"-79.40","43.63","TORONTO ISLAND A","6158665","1997-12-05 19:00","1997","12","05","19:00","","2.0","","-5.9","","56","","27","","24","","15.0","","99.30","","","","","",""
"-79.40","43.63","TORONTO ISLAND A","6158665","1997-12-05 20:00","1997","12","05","20:00","","1.4","","-5.5","","60","","26","","32","","15.0","","99.30","","","","","",""
"-79.40","43.63","TORONTO ISLAND A","6158665","1997-12-05 21:00","1997","12","05","21:00","","0.8","","-5.2","","64","","27","","20","","15.0","","99.30","","","","","",""
"-79.40","43.63","TORONTO ISLAND A","6158665","1997-12-05 22:00","1997","12","05","22:00","","1.1","","-4.8","","65","","26","","35","","15.0","","99.26","","","","","",""
"-79.40","43.63","TORONTO ISLAND A","6158665","1997-12-05 23:00","1997","12","05","23:00","","0.6","","-4.4","","69","","26","","30","","15.0","","99.20","","","","","",""
"-79.40","43.63","TORONTO ISLAND A","6158665","1997-12-06 00:00","1997","12","06","00:00","","0.3","","-4.6","","70","","25","","26","","15.0","","99.20","","","","","",""
"-79.40","43.63","TORONTO ISLAND A","6158665","1997-12-06 01:00","1997","12","06","01:00","","-0.2","","-4.1","","75","","24","","33","","15.0","","99.16","","","","-7","",""
"-79.40","43.63","TORONTO ISLAND A","6158665","1997-12-06 02:00","1997","12","06","02:00","","-0.2","","-3.7","","77","","24","","32","","15.0","","99.13","","","","-7","",""
"-79.40","43.63","TORONTO ISLAND A","6158665","1997-12-06 03:00","1997","12","06","03:00","","0.0","","-3.8","","76","","24","","35","","15.0","","99.13","","","","-7","",""
"-79.40","43.63","TORONTO ISLAND A","6158665","1997-12-06 04:00","1997","12","06","04:00","","-0.1","","-3.7","","77","","24","","33","","15.0","","99.06","","","","-7","",""
"-79.40","43.63","TORONTO ISLAND A","6158665","1997-12-06 05:00","1997","12","06","05:00","","0.0","","-3.2","","79","","24","","35","","15.0","","99.03","","","","-7","",""
"-79.40","43.63","TORONTO ISLAND A","6158665","1997-12-06 06:00","1997","12","06","06:00","","-0.2","","-3.9","","76","","25","","33","","15.0","","99.03","","","","-7","",""
"-79.40","43.63","TORONTO ISLAND A","6158665","1997-12-06 07:00","1997","12","06","07:00","","-0.3","","-3.2","","81","","24","","33","","15.0","","98.99","","","","-7","","Snow"
"-79.40","43.63","TORONTO ISLAND A","6158665","1997-12-06 08:00","1997","12","06","08:00","","0.2","","-2.3","","83","","24","","32","","15.0","","98.96","","","","","","Snow"
"-79.40","43.63","TORONTO ISLAND A","6158665","1997-12-06 09:00","1997","12","06","09:00","","0.7","","-2.3","","80","","25","","28","","12.9","","98.96","","","","","","Snow"
"-79.40","43.63","TORONTO ISLAND A","6158665","1997-12-06 10:00","1997","12","06","10:00","","1.5","","-1.5","","80","","25","","28","","12.9","","98.93","","","","","","Snow"
"-79.40","43.63","TORONTO ISLAND A","6158665","1997-12-06 11:00","1997","12","06","11:00","","1.6","","-0.4","","87","","26","","30","","5.6","","98.93","","","","","",""
"-79.40","43.63","TORONTO ISLAND A","6158665","1997-12-06 12:00","1997","12","06","12:00","","1.8","","0.7","","92","","25","","33","","9.7","","98.86","","","","","",""
"-79.40","43.63","TORONTO ISLAND A","6158665","1997-12-06 13:00","1997","12","06","13:00","","1.3","","0.4","","94","","28","","24","","3.1","","98.83","","","","","",""
"-79.40","43.63","TORONTO ISLAND A","6158665","1997-12-06 14:00","1997","12","06","14:00","","2.3","","0.1","","85","","28","","17","","15.0","","98.83","","","","","",""
"-79.40","43.63","TORONTO ISLAND A","6158665","1997-12-06 15:00","1997","12","06","15:00","","2.9","","-0.8","","77","","28","","24","","15.0","","98.86","","","","","",""
"-79.40","43.63","TORONTO ISLAND A","6158665","1997-12-06 16:00","1997","12","06","16:00","","2.5","","-0.7","","79","","28","","24","","15.0","","98.89","","","","","","Snow"
"-79.40","43.63","TORONTO ISLAND A","6158665","1997-12-06 17:00","1997","12","06","17:00","","2.4","","-0.3","","82","","28","","17","","15.0","","98.96","","","","","",""
"-79.40","43.63","TORONTO ISLAND A","6158665","1997-12-06 18:00","1997","12","06","18:00","","2.2","","0.1","","86","","28","","19","","15.0","","99.03","","","","","","Rain"
"-79.40","43.63","TORONTO ISLAND A","6158665","1997-12-06 19:00","1997","12","06","19:00","","1.7","","0.7","","93","","30","","15","","15.0","","99.09","","","","","","Rain"
"-79.40","43.63","TORONTO ISLAND A","6158665","1997-12-06 20:00","1997","12","06","20:00","","1.4","","0.4","","93","","30","","11","","15.0","","99.13","","","","","","Rain"
"-79.40","43.63","TORONTO ISLAND A","6158665","1997-12-06 21:00","1997","12","06","21:00","","1.4","","0.6","","94","","29","","11","","15.0","","99.20","","","","","",""
"-79.40","43.63","TORONTO ISLAND A","6158665","1997-12-06 22:00","1997","12","06","22:00","","1.3","","0.8","","96","","31","","9","","15.0","","99.23","","","","","","Rain"
"-79.40","43.63","TORONTO ISLAND A","6158665","1997-12-06 23:00","1997","12","06","23:00","","1.2","","0.4","","94","","30","","13","","15.0","","99.30","","","","","",""
"-79.40","43.63","TORONTO ISLAND A","6158665","1997-12-07 00:00","1997","12","07","00:00","","1.4","","-0.7","","86","","32","","13","","15.0","","99.33","","","","","",""
"-79.40","43.63","TORONTO ISLAND A","6158665","1997-12-07 01:00","1997","12","07","01:00","","1.3","","-0.9","","85","","32","","13","","15.0","","99.40","","","","","",""
"-79.40","43.63","TORONTO ISLAND A","6158665","1997-12-07 02:00","1997","12","07","02:00","","1.4","","-1.0","","84","","32","","11","","15.0","","99.50","","","","","",""
"-79.40","43.63","TORONTO ISLAND A","6158665","1997-12-07 03:00","1997","12","07","03:00","","1.4","","-0.9","","85","","32","","15","","15.0","","99.60","","","","","",""
"-79.40","43.63","TORONTO ISLAND A","6158665","1997-12-07 04:00","1997","12","07","04:00","","1.4","","-0.8","","85","","30","","9","","15.0","","99.67","","","","","",""
"-79.40","43.63","TORONTO ISLAND A","6158665","1997-12-07 05:00","1997","12","07","05:00","","1.4","","-0.6","","87","","30","","13","","15.0","","99.73","","","","","",""
"-79.40","43.63","TORONTO ISLAND A","6158665","1997-12-07 06:00","1997","12","07","06:00","","1.6","","-0.4","","87","","29","","13","","15.0","","99.80","","","","","",""
"-79.40","43.63","TORONTO ISLAND A","6158665","1997-12-07 07:00","1997","12","07","07:00","","1.8","","-0.3","","86","","27","","17","","15.0","","99.90","","","","","",""
"-79.40","43.63","TORONTO ISLAND A","6158665","1997-12-07 08:00","1997","12","07","08:00","","1.9","","-0.1","","87","","28","","17","","15.0","","99.97","","","","","",""
"-79.40","43.63","TORONTO ISLAND A","6158665","1997-12-07 09:00","1997","12","07","09:00","","2.3","","0.1","","85","","28","","19","","15.0","","100.07","","","","","",""
"-79.40","43.63","TORONTO ISLAND A","6158665","1997-12-07 10:00","1997","12","07","10:00","","2.8","","0.5","","85","","28","","24","","15.0","","100.14","","","","","",""
"-79.40","43.63","TORONTO ISLAND A","6158665","1997-12-07 11:00","1997","12","07","11:00","","3.2","","0.1","","80","","29","","24","","15.0","","100.14","","","","","",""
"-79.40","43.63","TORONTO ISLAND A","6158665","1997-12-07 12:00","1997","12","07","12:00","","4.4","","-0.8","","69","","31","","20","","15.0","","100.07","","","","","",""
"-79.40","43.63","TORONTO ISLAND A","6158665","1997-12-07 13:00","1997","12","07","13:00","","5.0","","-1.2","","64","","30","","22","","15.0","","100.07","","","","","",""
"-79.40","43.63","TORONTO ISLAND A","6158665","1997-12-07 14:00","1997","12","07","14:00","","5.7","","-1.8","","58","","31","","19","","15.0","","100.07","","","","","",""
"-79.40","43.63","TORONTO ISLAND A","6158665","1997-12-07 15:00","1997","12","07","15:00","","5.1","","-1.8","","61","","28","","26","","15.0","","100.10","","","","","",""
"-79.40","43.63","TORONTO ISLAND A","6158665","1997-12-07 16:00","1997","12","07","16:00","","4.4","","-1.4","","66","","28","","32","","15.0","","100.20","","","","","",""
"-79.40","43.63","TORONTO ISLAND A","6158665","1997-12-07 17:00","1997","12","07","17:00","","4.1","","-1.1","","69","","27","","22","","15.0","","100.27","","","","","",""
"-79.40","43.63","TORONTO ISLAND A","6158665","1997-12-07 18:00","1997","12","07","18:00","","3.7","","-0.7","","73","","29","","26","","15.0","","100.37","","","","","",""
"-79.40","43.63","TORONTO ISLAND A","6158665","1997-12-07 19:00","1997","12","07","19:00","","3.5","","-1.1","","72","","30","","22","","15.0","","100.41","","","","","",""
"-79.40","43.63","TORONTO ISLAND A","6158665","1997-12-07 20:00","1997","12","07","20:00","","3.1","","-1.7","","71","","28","","28","","15.0","","100.47","","","","","",""
"-79.40","43.63","TORONTO ISLAND A","6158665","1997-12-07 21:00","1997","12","07","21:00","","2.7","","-1.5","","74","","28","","22","","15.0","","100.54","","","","","",""
"-79.40","43.63","TORONTO ISLAND A","6158665","1997-12-07 22:00","1997","12","07","22:00","","2.6","","-1.0","","77","","27","","15","","15.0","","100.57","","","","","",""
"-79.40","43.63","TORONTO ISLAND A","6158665","1997-12-07 23:00","1997","12","07","23:00","","2.5","","-2.5","","70","","29","","20","","15.0","","100.61","","","","","",""
"-79.40","43.63","TORONTO ISLAND A","6158665","1997-12-08 00:00","1997","12","08","00:00","","2.4","","-2.9","","68","","28","","24","","15.0","","100.61","","","","","",""
"-79.40","43.63","TORONTO ISLAND A","6158665","1997-12-08 01:00","1997","12","08","01:00","","1.7","","-3.2","","70","","29","","17","","15.0","","100.64","","","","","",""
"-79.40","43.63","TORONTO ISLAND A","6158665","1997-12-08 02:00","1997","12","08","02:00","","1.7","","-3.3","","69","","28","","17","","15.0","","100.67","","","","","",""
"-79.40","43.63","TORONTO ISLAND A","6158665","1997-12-08 03:00","1997","12","08","03:00","","1.7","","-3.4","","69","","29","","17","","15.0","","100.74","","","","","",""
"-79.40","43.63","TORONTO ISLAND A","6158665","1997-12-08 04:00","1997","12","08","04:00","","1.6","","-3.8","","67","","29","","15","","15.0","","100.74","","","","","",""
"-79.40","43.63","TORONTO ISLAND A","6158665","1997-12-08 05:00","1997","12","08","05:00","","1.3","","-4.0","","68","","32","","11","","15.0","","100.77","","","","","",""
"-79.40","43.63","TORONTO ISLAND A","6158665","1997-12-08 06:00","1997","12","08","06:00","","1.2","","-3.9","","69","","32","","13","","15.0","","100.88","","","","","",""
"-79.40","43.63","TORONTO ISLAND A","6158665","1997-12-08 07:00","1997","12","08","07:00","","1.2","","-4.0","","68","","34","","9","","15.0","","100.91","","","","","",""
"-79.40","43.63","TORONTO ISLAND A","6158665","1997-12-08 08:00","1997","12","08","08:00","","1.0","","-4.2","","68","","32","","17","","15.0","","100.98","","","","","",""
"-79.40","43.63","TORONTO ISLAND A","6158665","1997-12-08 09:00","1997","12","08","09:00","","1.2","","-4.2","","67","","30","","15","","15.0","","101.01","","","","","",""
"-79.40","43.63","TORONTO ISLAND A","6158665","1997-12-08 10:00","1997","12","08","10:00","","1.6","","-3.9","","67","","28","","15","","15.0","","101.11","","","","","",""
"-79.40","43.63","TORONTO ISLAND A","6158665","1997-12-08 11:00","1997","12","08","11:00","","2.0","","-4.1","","64","","27","","19","","15.0","","101.08","","","","","",""
"-79.40","43.63","TORONTO ISLAND A","6158665","1997-12-08 12:00","1997","12","08","12:00","","2.3","","-4.0","","63","","29","","20","","15.0","","101.01","","","","","",""
"-79.40","43.63","TORONTO ISLAND A","6158665","1997-12-08 13:00","1997","12","08","13:00","","2.4","","-4.1","","62","","28","","4","","15.0","","100.91","","","","","",""
"-79.40","43.63","TORONTO ISLAND A","6158665","1997-12-08 14:00","1997","12","08","14:00","","2.5","","-4.4","","60","","21","","6","","15.0","","100.88","","","","","",""
"-79.40","43.63","TORONTO ISLAND A","6158665","1997-12-08 15:00","1997","12","08","15:00","","2.5","","-4.4","","60","","18","","7","","15.0","","100.88","","","","","",""
"-79.40","43.63","TORONTO ISLAND A","6158665","1997-12-08 16:00","1997","12","08","16:00","","2.4","","-3.9","","63","","20","","11","","15.0","","100.88","","","","","",""
"-79.40","43.63","TORONTO ISLAND A","6158665","1997-12-08 17:00","1997","12","08","17:00","","2.4","","-3.8","","64","","21","","15","","15.0","","100.88","","","","","",""
"-79.40","43.63","TORONTO ISLAND A","6158665","1997-12-08 18:00","1997","12","08","18:00","","2.4","","-3.6","","65","","21","","6","","15.0","","100.88","","","","","",""
"-79.40","43.63","TORONTO ISLAND A","6158665","1997-12-08 19:00","1997","12","08","19:00","","2.5","","-4.1","","62","","26","","17","","15.0","","100.91","","","","","",""
"-79.40","43.63","TORONTO ISLAND A","6158665","1997-12-08 20:00","1997","12","08","20:00","","2.4","","-4.3","","61","","22","","13","","15.0","","100.94","","","","","",""
"-79.40","43.63","TORONTO ISLAND A","6158665","1997-12-08 21:00","1997","12","08","21:00","","2.1","","-4.2","","63","","28","","6","","15.0","","100.88","","","","","",""
"-79.40","43.63","TORONTO ISLAND A","6158665","1997-12-08 22:00","1997","12","08","22:00","","2.2","","-4.5","","61","","","","0","","15.0","","100.84","","","","","",""
"-79.40","43.63","TORONTO ISLAND A","6158665","1997-12-08 23:00","1997","12","08","23:00","","1.8","","-4.2","","64","","","","0","","15.0","","100.81","","","","","",""
"-79.40","43.63","TORONTO ISLAND A","6158665","1997-12-09 00:00","1997","12","09","00:00","","1.9","","-4.2","","64","","20","","6","","15.0","","100.77","","","","","",""
"-79.40","43.63","TORONTO ISLAND A","6158665","1997-12-09 01:00","1997","12","09","01:00","","1.5","","-4.3","","65","","10","","6","","15.0","","100.74","","","","","",""
"-79.40","43.63","TORONTO ISLAND A","6158665","1997-12-09 02:00","1997","12","09","02:00","","1.7","","-3.1","","70","","8","","6","","15.0","","100.71","","","","","",""
"-79.40","43.63","TORONTO ISLAND A","6158665","1997-12-09 03:00","1997","12","09","03:00","","1.7","","-3.4","","69","","14","","6","","15.0","","100.74","","","","","",""
"-79.40","43.63","TORONTO ISLAND A","6158665","1997-12-09 04:00","1997","12","09","04:00","","1.8","","-3.8","","66","","19","","9","","15.0","","100.71","","","","","",""
"-79.40","43.63","TORONTO ISLAND A","6158665","1997-12-09 05:00","1997","12","09","05:00","","1.8","","-3.9","","66","","16","","6","","15.0","","100.67","","","","","",""
"-79.40","43.63","TORONTO ISLAND A","6158665","1997-12-09 06:00","1997","12","09","06:00","","2.0","","-4.1","","64","","12","","7","","15.0","","100.64","","","","","",""
"-79.40","43.63","TORONTO ISLAND A","6158665","1997-12-09 07:00","1997","12","09","07:00","","1.5","","-2.2","","76","","6","","7","","15.0","","100.64","","","","","",""
"-79.40","43.63","TORONTO ISLAND A","6158665","1997-12-09 08:00","1997","12","09","08:00","","1.6","","-2.6","","74","","5","","6","","15.0","","100.64","","","","","",""
"-79.40","43.63","TORONTO ISLAND A","6158665","1997-12-09 09:00","1997","12","09","09:00","","1.9","","-2.3","","74","","6","","7","","15.0","","100.67","","","","","",""
"-79.40","43.63","TORONTO ISLAND A","6158665","1997-12-09 10:00","1997","12","09","10:00","","2.1","","-3.1","","68","","7","","17","","15.0","","100.67","","","","","",""
"-79.40","43.63","TORONTO ISLAND A","6158665","1997-12-09 11:00","1997","12","09","11:00","","2.2","","-3.2","","67","","8","","17","","15.0","","100.64","","","","","",""
"-79.40","43.63","TORONTO ISLAND A","6158665","1997-12-09 12:00","1997","12","09","12:00","","2.5","","-2.9","","67","","7","","19","","15.0","","100.57","","","","","",""
"-79.40","43.63","TORONTO ISLAND A","6158665","1997-12-09 13:00","1997","12","09","13:00","","2.3","","-2.7","","69","","9","","11","","15.0","","100.51","","","","","",""
"-79.40","43.63","TORONTO ISLAND A","6158665","1997-12-09 14:00","1997","12","09","14:00","","2.1","","-1.2","","79","","6","","28","","15.0","","100.47","","","","","",""
"-79.40","43.63","TORONTO ISLAND A","6158665","1997-12-09 15:00","1997","12","09","15:00","","1.8","","-1.0","","82","","6","","26","","15.0","","100.47","","","","","",""
"-79.40","43.63","TORONTO ISLAND A","6158665","1997-12-09 16:00","1997","12","09","16:00","","1.8","","-1.1","","81","","6","","26","","15.0","","100.51","","","","","",""
"-79.40","43.63","TORONTO ISLAND A","6158665","1997-12-09 17:00","1997","12","09","17:00","","1.9","","-1.2","","80","","6","","20","","15.0","","100.54","","","","","",""
"-79.40","43.63","TORONTO ISLAND A","6158665","1997-12-09 18:00","1997","12","09","18:00","","2.0","","-1.0","","80","","6","","20","","15.0","","100.57","","","","","",""
"-79.40","43.63","TORONTO ISLAND A","6158665","1997-12-09 19:00","1997","12","09","19:00","","1.7","","-1.4","","80","","6","","19","","15.0","","100.57","","","","","",""
"-79.40","43.63","TORONTO ISLAND A","6158665","1997-12-09 20:00","1997","12","09","20:00","","1.6","","-1.9","","78","","5","","15","","15.0","","100.57","","","","","",""
"-79.40","43.63","TORONTO ISLAND A","6158665","1997-12-09 21:00","1997","12","09","21:00","","1.4","","-2.7","","74","","5","","13","","15.0","","100.61","","","","","",""
"-79.40","43.63","TORONTO ISLAND A","6158665","1997-12-09 22:00","1997","12","09","22:00","","1.3","","-2.7","","75","","6","","13","","15.0","","100.57","","","","","",""
"-79.40","43.63","TORONTO ISLAND A","6158665","1997-12-09 23:00","1997","12","09","23:00","","1.2","","-2.5","","76","","4","","13","","15.0","","100.57","","","","","",""
"-79.40","43.63","TORONTO ISLAND A","6158665","1997-12-10 00:00","1997","12","10","00:00","","1.1","","-2.3","","78","","5","","17","","15.0","","100.54","","","","","",""
"-79.40","43.63","TORONTO ISLAND A","6158665","1997-12-10 01:00","1997","12","10","01:00","","1.1","","-1.6","","82","","6","","19","","15.0","","100.51","","","","","",""
"-79.40","43.63","TORONTO ISLAND A","6158665","1997-12-10 02:00","1997","12","10","02:00","","1.3","","-1.7","","80","","5","","22","","15.0","","100.54","","","","","",""
"-79.40","43.63","TORONTO ISLAND A","6158665","1997-12-10 03:00","1997","12","10","03:00","","1.3","","-2.1","","78","","3","","24","","15.0","","100.47","","","","","",""
"-79.40","43.63","TORONTO ISLAND A","6158665","1997-12-10 04:00","1997","12","10","04:00","","0.9","","-2.2","","80","","4","","28","","15.0","","100.30","","","","","",""
"-79.40","43.63","TORONTO ISLAND A","6158665","1997-12-10 05:00","1997","12","10","05:00","","0.2","","-3.4","","77","","6","","24","","15.0","","100.41","","","","","",""
"-79.40","43.63","TORONTO ISLAND A","6158665","1997-12-10 06:00","1997","12","10","06:00","","-0.1","","-3.5","","78","","4","","24","","15.0","","100.30","","","","-6","",""
"-79.40","43.63","TORONTO ISLAND A","6158665","1997-12-10 07:00","1997","12","10","07:00","","-0.1","","-3.2","","80","","6","","28","","15.0","","100.30","","","","-6","",""
"-79.40","43.63","TORONTO ISLAND A","6158665","1997-12-10 08:00","1997","12","10","08:00","","-0.9","","-3.4","","83","","5","","22","","15.0","","100.27","","","","-7","",""
"-79.40","43.63","TORONTO ISLAND A","6158665","1997-12-10 09:00","1997","12","10","09:00","","-1.3","","-3.6","","84","","5","","33","","15.0","","100.20","","","","-8","",""
"-79.40","43.63","TORONTO ISLAND A","6158665","1997-12-10 10:00","1997","12","10","10:00","","-2.0","","-4.9","","81","","5","","33","","15.0","","100.20","","","","-9","",""
"-79.40","43.63","TORONTO ISLAND A","6158665","1997-12-10 11:00","1997","12","10","11:00","","-1.0","","-3.9","","81","","7","","37","","15.0","","100.14","","","","-8","",""
"-79.40","43.63","TORONTO ISLAND A","6158665","1997-12-10 12:00","1997","12","10","12:00","","-1.0","","-3.6","","82","","6","","41","","15.0","","99.90","","","","-9","",""
"-79.40","43.63","TORONTO ISLAND A","6158665","1997-12-10 13:00","1997","12","10","13:00","","-0.9","","-3.2","","84","","5","","44","","15.0","","99.80","","","","-9","",""
"-79.40","43.63","TORONTO ISLAND A","6158665","1997-12-10 14:00","1997","12","10","14:00","","-0.1","","-3.5","","78","","5","","41","","15.0","","99.73","","","","-8","",""
"-79.40","43.63","TORONTO ISLAND A","6158665","1997-12-10 15:00","1997","12","10","15:00","","0.4","","-5.1","","67","","5","","50","","15.0","","99.67","","","","","",""
"-79.40","43.63","TORONTO ISLAND A","6158665","1997-12-10 16:00","1997","12","10","16:00","","-0.1","","-6.8","","61","","4","","46","","15.0","","99.63","","","","-8","","Snow"
"-79.40","43.63","TORONTO ISLAND A","6158665","1997-12-10 17:00","1997","12","10","17:00","","-0.5","","-6.1","","66","","6","","46","","5.6","","99.67","","","","-9","","Snow"
"-79.40","43.63","TORONTO ISLAND A","6158665","1997-12-10 18:00","1997","12","10","18:00","","-1.9","","-3.5","","89","","5","","33","","0.8","","99.73","","","","-9","","Snow"
"-79.40","43.63","TORONTO ISLAND A","6158665","1997-12-10 19:00","1997","12","10","19:00","","-1.4","","-3.8","","84","","5","","46","","1.8","","99.77","","","","-10","","Snow"
"-79.40","43.63","TORONTO ISLAND A","6158665","1997-12-10 20:00","1997","12","10","20:00","","-0.9","","-5.2","","73","","5","","35","","5.6","","99.77","","","","-8","","Snow"
"-79.40","43.63","TORONTO ISLAND A","6158665","1997-12-10 21:00","1997","12","10","21:00","","-0.9","","-5.5","","71","","5","","37","","8.0","","99.87","","","","-8","","Snow"
"-79.40","43.63","TORONTO ISLAND A","6158665","1997-12-10 22:00","1997","12","10","22:00","","-1.4","","-7.0","","66","","5","","33","","15.0","","99.93","","","","-9","","Snow"
"-79.40","43.63","TORONTO ISLAND A","6158665","1997-12-10 23:00","1997","12","10","23:00","","-2.3","","-6.6","","72","","4","","28","","5.6","","99.97","","","","-9","","Snow"
"-79.40","43.63","TORONTO ISLAND A","6158665","1997-12-11 00:00","1997","12","11","00:00","","-2.1","","-7.9","","64","","4","","28","","15.0","","100.00","","","","-9","","Snow"
"-79.40","43.63","TORONTO ISLAND A","6158665","1997-12-11 01:00","1997","12","11","01:00","","-2.3","","-7.9","","65","","4","","24","","15.0","","100.07","","","","-9","",""
"-79.40","43.63","TORONTO ISLAND A","6158665","1997-12-11 02:00","1997","12","11","02:00","","-2.3","","-8.9","","60","","4","","20","","15.0","","100.14","","","","-8","",""
"-79.40","43.63","TORONTO ISLAND A","6158665","1997-12-11 03:00","1997","12","11","03:00","","-2.6","","-9.0","","61","","4","","24","","15.0","","100.24","","","","-9","",""
"-79.40","43.63","TORONTO ISLAND A","6158665","1997-12-11 04:00","1997","12","11","04:00","","-2.8","","-9.0","","62","","3","","20","","15.0","","","M","","","-9","",""
"-79.40","43.63","TORONTO ISLAND A","6158665","1997-12-11 05:00","1997","12","11","05:00","","-3.2","","-9.2","","63","","4","","15","","15.0","","100.37","","","","-8","",""
"-79.40","43.63","TORONTO ISLAND A","6158665","1997-12-11 06:00","1997","12","11","06:00","","-3.7","","-9.4","","65","","3","","11","","15.0","","100.47","","","","-8","",""
"-79.40","43.63","TORONTO ISLAND A","6158665","1997-12-11 07:00","1997","12","11","07:00","","-3.7","","-8.9","","67","","3","","15","","15.0","","100.54","","","","-9","",""
"-79.40","43.63","TORONTO ISLAND A","6158665","1997-12-11 08:00","1997","12","11","08:00","","-3.5","","-8.9","","66","","2","","11","","15.0","","100.61","","","","-8","",""
"-79.40","43.63","TORONTO ISLAND A","6158665","1997-12-11 09:00","1997","12","11","09:00","","-3.5","","-8.5","","68","","5","","9","","15.0","","100.67","","","","-7","",""
"-79.40","43.63","TORONTO ISLAND A","6158665","1997-12-11 10:00","1997","12","11","10:00","","-3.2","","-8.2","","68","","1","","7","","15.0","","100.74","","","","-6","",""
"-79.40","43.63","TORONTO ISLAND A","6158665","1997-12-11 11:00","1997","12","11","11:00","","-2.9","","-7.7","","69","","7","","9","","15.0","","100.74","","","","-6","",""
"-79.40","43.63","TORONTO ISLAND A","6158665","1997-12-11 12:00","1997","12","11","12:00","","-2.4","","-7.3","","69","","36","","6","","15.0","","100.74","","","","-5","",""
"-79.40","43.63","TORONTO ISLAND A","6158665","1997-12-11 13:00","1997","12","11","13:00","","-2.3","","-7.0","","70","","29","","7","","15.0","","100.71","","","","-5","",""
"-79.40","43.63","TORONTO ISLAND A","6158665","1997-12-11 14:00","1997","12","11","14:00","","-2.0","","-6.6","","71","","31","","7","","15.0","","100.74","","","","-5","",""
"-79.40","43.63","TORONTO ISLAND A","6158665","1997-12-11 15:00","1997","12","11","15:00","","-1.9","","-6.5","","71","","30","","7","","15.0","","100.77","","","","-5","",""
"-79.40","43.63","TORONTO ISLAND A","6158665","1997-12-11 16:00","1997","12","11","16:00","","-1.6","","-5.8","","73","","33","","9","","15.0","","100.81","","","","-5","",""
"-79.40","43.63","TORONTO ISLAND A","6158665","1997-12-11 17:00","1997","12","11","17:00","","-1.7","","-5.8","","74","","5","","11","","15.0","","100.84","","","","-6","",""
"-79.40","43.63","TORONTO ISLAND A","6158665","1997-12-11 18:00","1997","12","11","18:00","","-1.9","","-6.2","","72","","32","","7","","15.0","","100.91","","","","-5","",""
"-79.40","43.63","TORONTO ISLAND A","6158665","1997-12-11 19:00","1997","12","11","19:00","","-1.7","","-6.0","","72","","31","","7","","15.0","","100.91","","","","-4","",""
"-79.40","43.63","TORONTO ISLAND A","6158665","1997-12-11 20:00","1997","12","11","20:00","","-1.8","","-5.6","","75","","32","","11","","15.0","","100.94","","","","-6","",""
"-79.40","43.63","TORONTO ISLAND A","6158665","1997-12-11 21:00","1997","12","11","21:00","","-1.9","","-5.1","","79","","31","","6","","11.3","","100.94","","","","-4","","Snow"
"-79.40","43.63","TORONTO ISLAND A","6158665","1997-12-11 22:00","1997","12","11","22:00","","-2.2","","-4.8","","82","","30","","9","","8.0","","100.94","","","","-6","","Snow"
"-79.40","43.63","TORONTO ISLAND A","6158665","1997-12-11 23:00","1997","12","11","23:00","","-2.5","","-4.6","","85","","30","","7","","3.9","","100.94","","","","-5","","Snow"
"-79.40","43.63","TORONTO ISLAND A","6158665","1997-12-12 00:00","1997","12","12","00:00","","-2.8","","-4.5","","88","","30","","9","","4.8","","100.94","","","","-6","","Snow"
"-79.40","43.63","TORONTO ISLAND A","6158665","1997-12-12 01:00","1997","12","12","01:00","","-2.7","","-4.5","","87","","32","","7","","5.6","","100.91","","","","-6","","Snow"
"-79.40","43.63","TORONTO ISLAND A","6158665","1997-12-12 02:00","1997","12","12","02:00","","-2.6","","-4.7","","85","","31","","7","","9.7","","100.94","","","","-5","","Snow"
"-79.40","43.63","TORONTO ISLAND A","6158665","1997-12-12 03:00","1997","12","12","03:00","","-2.6","","-5.1","","83","","31","","9","","11.3","","100.94","","","","-6","","Snow"
"-79.40","43.63","TORONTO ISLAND A","6158665","1997-12-12 04:00","1997","12","12","04:00","","-2.3","","-4.9","","82","","31","","7","","15.0","","100.88","","","","-5","","Snow"
"-79.40","43.63","TORONTO ISLAND A","6158665","1997-12-12 05:00","1997","12","12","05:00","","-2.1","","-4.6","","83","","31","","9","","9.7","","100.84","","","","-6","","Snow"
"-79.40","43.63","TORONTO ISLAND A","6158665","1997-12-12 06:00","1997","12","12","06:00","","-2.1","","-4.6","","83","","30","","7","","15.0","","100.81","","","","-5","",""
"-79.40","43.63","TORONTO ISLAND A","6158665","1997-12-12 07:00","1997","12","12","07:00","","-2.0","","-4.6","","82","","28","","13","","15.0","","100.84","","","","-6","",""
"-79.40","43.63","TORONTO ISLAND A","6158665","1997-12-12 08:00","1997","12","12","08:00","","-3.0","","-6.1","","79","","29","","11","","15.0","","100.88","","","","-7","",""
"-79.40","43.63","TORONTO ISLAND A","6158665","1997-12-12 09:00","1997","12","12","09:00","","-3.2","","-7.4","","73","","29","","19","","15.0","","100.91","","","","-9","",""
"-79.40","43.63","TORONTO ISLAND A","6158665","1997-12-12 10:00","1997","12","12","10:00","","-2.8","","-6.9","","73","","29","","22","","15.0","","100.94","","","","-9","",""
"-79.40","43.63","TORONTO ISLAND A","6158665","1997-12-12 11:00","1997","12","12","11:00","","-1.9","","-5.8","","75","","25","","15","","15.0","","100.88","","","","-7","",""
"-79.40","43.63","TORONTO ISLAND A","6158665","1997-12-12 12:00","1997","12","12","12:00","","-1.1","","-5.1","","74","","24","","15","","15.0","","100.77","","","","-6","",""
"-79.40","43.63","TORONTO ISLAND A","6158665","1997-12-12 13:00","1997","12","12","13:00","","-0.7","","-3.4","","82","","24","","20","","15.0","","100.67","","","","-6","",""
"-79.40","43.63","TORONTO ISLAND A","6158665","1997-12-12 14:00","1997","12","12","14:00","","0.3","","-4.5","","70","","26","","33","","15.0","","100.57","","","","","",""
"-79.40","43.63","TORONTO ISLAND A","6158665","1997-12-12 15:00","1997","12","12","15:00","","-0.1","","-5.6","","66","","25","","26","","15.0","","100.54","","","","-6","",""
"-79.40","43.63","TORONTO ISLAND A","6158665","1997-12-12 16:00","1997","12","12","16:00","","-0.2","","-5.5","","67","","24","","33","","15.0","","100.51","","","","-7","",""
"-79.40","43.63","TORONTO ISLAND A","6158665","1997-12-12 17:00","1997","12","12","17:00","","-0.6","","-5.2","","71","","23","","32","","15.0","","100.51","","","","-7","",""
"-79.40","43.63","TORONTO ISLAND A","6158665","1997-12-12 18:00","1997","12","12","18:00","","-0.3","","-4.7","","72","","24","","35","","15.0","","100.51","","","","-7","",""
"-79.40","43.63","TORONTO ISLAND A","6158665","1997-12-12 19:00","1997","12","12","19:00","","0.0","","-4.2","","73","","23","","32","","15.0","","100.44","","","","-7","",""
"-79.40","43.63","TORONTO ISLAND A","6158665","1997-12-12 20:00","1997","12","12","20:00","","0.3","","-3.5","","76","","23","","43","","15.0","","100.37","","","","","",""
"-79.40","43.63","TORONTO ISLAND A","6158665","1997-12-12 21:00","1997","12","12","21:00","","0.5","","-3.1","","77","","23","","37","","15.0","","100.27","","","","","",""
"-79.40","43.63","TORONTO ISLAND A","6158665","1997-12-12 22:00","1997","12","12","22:00","","0.5","","-3.3","","76","","24","","43","","15.0","","100.24","","","","","",""
"-79.40","43.63","TORONTO ISLAND A","6158665","1997-12-12 23:00","1997","12","12","23:00","","0.6","","-3.0","","77","","24","","43","","15.0","","100.20","","","","","",""
"-79.40","43.63","TORONTO ISLAND A","6158665","1997-12-13 00:00","1997","12","13","00:00","","0.7","","-3.1","","76","","25","","33","","15.0","","100.17","","","","","",""
"-79.40","43.63","TORONTO ISLAND A","6158665","1997-12-13 01:00","1997","12","13","01:00","","0.8","","-3.0","","76","","24","","33","","15.0","","100.10","","","","","",""
"-79.40","43.63","TORONTO ISLAND A","6158665","1997-12-13 02:00","1997","12","13","02:00","","0.6","","-2.7","","79","","23","","39","","15.0","","100.07","","","","","","Snow"
"-79.40","43.63","TORONTO ISLAND A","6158665","1997-12-13 03:00","1997","12","13","03:00","","0.6","","-3.0","","77","","23","","32","","15.0","","100.07","","","","","",""
"-79.40","43.63","TORONTO ISLAND A","6158665","1997-12-13 04:00","1997","12","13","04:00","","-0.6","","-2.2","","89","","23","","30","","2.4","","100.04","","","","-7","","Snow"
"-79.40","43.63","TORONTO ISLAND A","6158665","1997-12-13 05:00","1997","12","13","05:00","","-0.2","","-2.7","","83","","23","","37","","11.3","","99.93","","","","-7","","Snow"
"-79.40","43.63","TORONTO ISLAND A","6158665","1997-12-13 06:00","1997","12","13","06:00","","-0.2","","-3.0","","81","","24","","30","","6.4","","99.93","","","","-7","","Snow"
"-79.40","43.63","TORONTO ISLAND A","6158665","1997-12-13 07:00","1997","12","13","07:00","","-0.3","","-3.0","","82","","23","","37","","12.9","","99.93","","","","-8","",""
"-79.40","43.63","TORONTO ISLAND A","6158665","1997-12-13 08:00","1997","12","13","08:00","","-0.7","","-2.4","","88","","23","","35","","9.7","","99.97","","","","-8","",""
"-79.40","43.63","TORONTO ISLAND A","6158665","1997-12-13 09:00","1997","12","13","09:00","","-0.8","","-2.4","","89","","23","","44","","6.4","","100.04","","","","-9","","Snow"
"-79.40","43.63","TORONTO ISLAND A","6158665","1997-12-13 10:00","1997","12","13","10:00","","-0.6","","-1.9","","91","","23","","43","","6.4","","100.04","","","","-8","","Snow"
"-79.40","43.63","TORONTO ISLAND A","6158665","1997-12-13 11:00","1997","12","13","11:00","","-0.1","","-2.2","","86","","23","","37","","11.3","","99.97","","","","-7","",""
"-79.40","43.63","TORONTO ISLAND A","6158665","1997-12-13 12:00","1997","12","13","12:00","","0.5","","-2.1","","83","","23","","35","","11.3","","99.93","","","","","",""
"-79.40","43.63","TORONTO ISLAND A","6158665","1997-12-13 13:00","1997","12","13","13:00","","1.4","","-1.6","","80","","24","","28","","9.7","","99.87","","","","","",""
"-79.40","43.63","TORONTO ISLAND A","6158665","1997-12-13 14:00","1997","12","13","14:00","","1.9","","-2.0","","75","","26","","30","","11.3","","99.83","","","","","",""
"-79.40","43.63","TORONTO ISLAND A","6158665","1997-12-13 15:00","1997","12","13","15:00","","2.5","","-1.9","","73","","26","","28","","12.9","","99.90","","","","","",""
"-79.40","43.63","TORONTO ISLAND A","6158665","1997-12-13 16:00","1997","12","13","16:00","","2.4","","-2.2","","72","","26","","30","","15.0","","99.93","","","","","",""
"-79.40","43.63","TORONTO ISLAND A","6158665","1997-12-13 17:00","1997","12","13","17:00","","1.7","","-1.8","","78","","25","","33","","12.9","","99.97","","","","","","Snow"
"-79.40","43.63","TORONTO ISLAND A","6158665","1997-12-13 18:00","1997","12","13","18:00","","1.5","","-1.1","","83","","23","","35","","11.3","","100.00","","","","","","Snow"
"-79.40","43.63","TORONTO ISLAND A","6158665","1997-12-13 19:00","1997","12","13","19:00","","1.7","","-0.8","","83","","24","","33","","8.0","","100.07","","","","","",""
"-79.40","43.63","TORONTO ISLAND A","6158665","1997-12-13 20:00","1997","12","13","20:00","","1.4","","-0.9","","85","","25","","33","","8.0","","100.10","","","","","",""
"-79.40","43.63","TORONTO ISLAND A","6158665","1997-12-13 21:00","1997","12","13","21:00","","1.6","","-0.9","","83","","25","","33","","9.7","","100.14","","","","","",""
"-79.40","43.63","TORONTO ISLAND A","6158665","1997-12-13 22:00","1997","12","13","22:00","","1.3","","-1.3","","83","","23","","30","","15.0","","100.14","","","","","",""
"-79.40","43.63","TORONTO ISLAND A","6158665","1997-12-13 23:00","1997","12","13","23:00","","1.0","","-1.1","","86","","24","","30","","11.3","","100.10","","","","","",""
"-79.40","43.63","TORONTO ISLAND A","6158665","1997-12-14 00:00","1997","12","14","00:00","","1.0","","-1.4","","84","","25","","28","","11.3","","100.07","","","","","",""
"-79.40","43.63","TORONTO ISLAND A","6158665","1997-12-14 01:00","1997","12","14","01:00","","1.3","","-2.5","","76","","27","","33","","15.0","","100.04","","","","","",""
"-79.40","43.63","TORONTO ISLAND A","6158665","1997-12-14 02:00","1997","12","14","02:00","","1.2","","-2.2","","78","","26","","35","","15.0","","100.00","","","","","",""
"-79.40","43.63","TORONTO ISLAND A","6158665","1997-12-14 03:00","1997","12","14","03:00","","1.1","","-2.2","","79","","25","","30","","15.0","","100.00","","","","","",""
"-79.40","43.63","TORONTO ISLAND A","6158665","1997-12-14 04:00","1997","12","14","04:00","","1.4","","-2.4","","76","","25","","37","","15.0","","99.93","","","","","",""
"-79.40","43.63","TORONTO ISLAND A","6158665","1997-12-14 05:00","1997","12","14","05:00","","1.6","","-2.0","","77","","27","","30","","15.0","","99.97","","","","","",""
"-79.40","43.63","TORONTO ISLAND A","6158665","1997-12-14 06:00","1997","12","14","06:00","","2.3","","-2.5","","71","","31","","19","","15.0","","100.14","","","","","","Snow"
"-79.40","43.63","TORONTO ISLAND A","6158665","1997-12-14 07:00","1997","12","14","07:00","","1.8","","-6.3","","55","","30","","20","","15.0","","100.24","","","","","",""
"-79.40","43.63","TORONTO ISLAND A","6158665","1997-12-14 08:00","1997","12","14","08:00","","1.6","","-6.7","","54","","31","","28","","15.0","","100.37","","","","","",""
"-79.40","43.63","TORONTO ISLAND A","6158665","1997-12-14 09:00","1997","12","14","09:00","","-1.1","","-7.7","","61","","32","","32","","15.0","","100.67","","","","-8","",""
"-79.40","43.63","TORONTO ISLAND A","6158665","1997-12-14 10:00","1997","12","14","10:00","","-1.9","","-9.5","","56","","33","","26","","15.0","","100.84","","","","-8","",""
"-79.40","43.63","TORONTO ISLAND A","6158665","1997-12-14 11:00","1997","12","14","11:00","","-1.3","","-10.9","","48","","35","","19","","15.0","","100.88","","","","-7","",""
"-79.40","43.63","TORONTO ISLAND A","6158665","1997-12-14 12:00","1997","12","14","12:00","","-1.2","","-10.1","","51","","32","","28","","15.0","","100.91","","","","-8","",""
"-79.40","43.63","TORONTO ISLAND A","6158665","1997-12-14 13:00","1997","12","14","13:00","","-0.9","","-10.1","","50","","33","","17","","15.0","","100.88","","","","-6","",""
"-79.40","43.63","TORONTO ISLAND A","6158665","1997-12-14 14:00","1997","12","14","14:00","","-0.9","","-9.6","","52","","34","","19","","15.0","","100.91","","","","-6","",""
"-79.40","43.63","TORONTO ISLAND A","6158665","1997-12-14 15:00","1997","12","14","15:00","","-0.6","","-9.4","","51","","32","","11","","15.0","","100.94","","","","-4","",""
"-79.40","43.63","TORONTO ISLAND A","6158665","1997-12-14 16:00","1997","12","14","16:00","","-1.7","","-9.9","","53","","34","","13","","15.0","","100.98","","","","-6","",""
"-79.40","43.63","TORONTO ISLAND A","6158665","1997-12-14 17:00","1997","12","14","17:00","","-3.0","","-10.2","","58","","35","","20","","15.0","","101.01","","","","-9","",""
"-79.40","43.63","TORONTO ISLAND A","6158665","1997-12-14 18:00","1997","12","14","18:00","","-3.6","","-10.4","","59","","34","","11","","15.0","","101.01","","","","-8","",""
"-79.40","43.63","TORONTO ISLAND A","6158665","1997-12-14 19:00","1997","12","14","19:00","","-4.2","","-10.1","","63","","31","","9","","15.0","","100.94","","","","-8","",""
"-79.40","43.63","TORONTO ISLAND A","6158665","1997-12-14 20:00","1997","12","14","20:00","","-4.2","","-10.0","","64","","32","","13","","15.0","","101.04","","","","-9","",""
"-79.40","43.63","TORONTO ISLAND A","6158665","1997-12-14 21:00","1997","12","14","21:00","","-4.4","","-10.2","","64","","30","","6","","15.0","","101.04","","","","-7","",""
"-79.40","43.63","TORONTO ISLAND A","6158665","1997-12-14 22:00","1997","12","14","22:00","","-4.0","","-9.2","","67","","25","","13","","15.0","","101.01","","","","-9","",""
"-79.40","43.63","TORONTO ISLAND A","6158665","1997-12-14 23:00","1997","12","14","23:00","","-2.9","","-9.1","","62","","25","","15","","15.0","","100.98","","","","-8","",""
"-79.40","43.63","TORONTO ISLAND A","6158665","1997-12-15 00:00","1997","12","15","00:00","","-2.3","","-8.1","","64","","25","","24","","15.0","","100.98","","","","-9","",""
"-79.40","43.63","TORONTO ISLAND A","6158665","1997-12-15 01:00","1997","12","15","01:00","","-1.5","","-6.6","","68","","24","","17","","15.0","","100.91","","","","-7","",""
"-79.40","43.63","TORONTO ISLAND A","6158665","1997-12-15 02:00","1997","12","15","02:00","","-0.1","","-4.5","","72","","23","","30","","15.0","","100.84","","","","-7","",""
"-79.40","43.63","TORONTO ISLAND A","6158665","1997-12-15 03:00","1997","12","15","03:00","","0.2","","-4.6","","70","","23","","32","","15.0","","100.77","","","","","",""
"-79.40","43.63","TORONTO ISLAND A","6158665","1997-12-15 04:00","1997","12","15","04:00","","0.2","","-4.0","","73","","24","","28","","15.0","","100.71","","","","","",""
"-79.40","43.63","TORONTO ISLAND A","6158665","1997-12-15 05:00","1997","12","15","05:00","","0.8","","-2.4","","79","","24","","39","","15.0","","100.64","","","","","",""
"-79.40","43.63","TORONTO ISLAND A","6158665","1997-12-15 06:00","1997","12","15","06:00","","1.1","","-1.5","","83","","23","","37","","15.0","","100.54","","","","","",""
"-79.40","43.63","TORONTO ISLAND A","6158665","1997-12-15 07:00","1997","12","15","07:00","","1.3","","-1.7","","80","","23","","35","","15.0","","100.47","","","","","",""
"-79.40","43.63","TORONTO ISLAND A","6158665","1997-12-15 08:00","1997","12","15","08:00","","1.4","","-2.3","","76","","23","","32","","15.0","","100.41","","","","","",""
"-79.40","43.63","TORONTO ISLAND A","6158665","1997-12-15 09:00","1997","12","15","09:00","","2.0","","-3.0","","69","","22","","33","","15.0","","100.41","","","","","",""
"-79.40","43.63","TORONTO ISLAND A","6158665","1997-12-15 10:00","1997","12","15","10:00","","2.5","","-3.0","","67","","22","","39","","15.0","","100.37","","","","","",""
"-79.40","43.63","TORONTO ISLAND A","6158665","1997-12-15 11:00","1997","12","15","11:00","","3.7","","-2.2","","65","","22","","33","","15.0","","100.27","","","","","",""
"-79.40","43.63","TORONTO ISLAND A","6158665","1997-12-15 12:00","1997","12","15","12:00","","4.8","","-0.6","","68","","22","","33","","15.0","","100.17","","","","","",""
"-79.40","43.63","TORONTO ISLAND A","6158665","1997-12-15 13:00","1997","12","15","13:00","","5.3","","-0.5","","66","","22","","35","","15.0","","100.14","","","","","",""
"-79.40","43.63","TORONTO ISLAND A","6158665","1997-12-15 14:00","1997","12","15","14:00","","5.7","","-0.1","","66","","22","","39","","15.0","","100.07","","","","","",""
"-79.40","43.63","TORONTO ISLAND A","6158665","1997-12-15 15:00","1997","12","15","15:00","","5.7","","0.1","","67","","21","","35","","15.0","","100.10","","","","","",""
"-79.40","43.63","TORONTO ISLAND A","6158665","1997-12-15 16:00","1997","12","15","16:00","","5.3","","0.8","","73","","20","","33","","15.0","","100.14","","","","","",""
"-79.40","43.63","TORONTO ISLAND A","6158665","1997-12-15 17:00","1997","12","15","17:00","","5.1","","0.1","","70","","21","","43","","15.0","","100.14","","","","","",""
"-79.40","43.63","TORONTO ISLAND A","6158665","1997-12-15 18:00","1997","12","15","18:00","","4.4","","-0.9","","68","","23","","30","","15.0","","100.24","","","","","",""
"-79.40","43.63","TORONTO ISLAND A","6158665","1997-12-15 19:00","1997","12","15","19:00","","4.1","","-0.1","","74","","24","","35","","15.0","","100.27","","","","","",""
"-79.40","43.63","TORONTO ISLAND A","6158665","1997-12-15 20:00","1997","12","15","20:00","","4.1","","-0.2","","74","","23","","37","","15.0","","100.30","","","","","",""
"-79.40","43.63","TORONTO ISLAND A","6158665","1997-12-15 21:00","1997","12","15","21:00","","4.1","","0.1","","75","","24","","33","","15.0","","100.27","","","","","",""
"-79.40","43.63","TORONTO ISLAND A","6158665","1997-12-15 22:00","1997","12","15","22:00","","4.4","","0.6","","76","","23","","33","","15.0","","100.27","","","","","",""
"-79.40","43.63","TORONTO ISLAND A","6158665","1997-12-15 23:00","1997","12","15","23:00","","4.3","","0.7","","77","","23","","28","","15.0","","100.34","","","","","",""
"-79.40","43.63","TORONTO ISLAND A","6158665","1997-12-16 00:00","1997","12","16","00:00","","4.4","","0.7","","77","","23","","39","","15.0","","100.34","","","","","",""
"-79.40","43.63","TORONTO ISLAND A","6158665","1997-12-16 01:00","1997","12","16","01:00","","4.1","","0.7","","78","","23","","35","","15.0","","100.34","","","","","",""
"-79.40","43.63","TORONTO ISLAND A","6158665","1997-12-16 02:00","1997","12","16","02:00","","4.1","","0.8","","79","","22","","35","","15.0","","100.37","","","","","",""
"-79.40","43.63","TORONTO ISLAND A","6158665","1997-12-16 03:00","1997","12","16","03:00","","3.8","","0.9","","81","","22","","30","","15.0","","100.41","","","","","",""
"-79.40","43.63","TORONTO ISLAND A","6158665","1997-12-16 04:00","1997","12","16","04:00","","3.9","","0.2","","77","","23","","26","","15.0","","100.37","","","","","",""
"-79.40","43.63","TORONTO ISLAND A","6158665","1997-12-16 05:00","1997","12","16","05:00","","3.6","","0.7","","81","","23","","20","","15.0","","100.41","","","","","",""
"-79.40","43.63","TORONTO ISLAND A","6158665","1997-12-16 06:00","1997","12","16","06:00","","3.7","","0.3","","78","","22","","28","","15.0","","100.41","","","","","",""
"-79.40","43.63","TORONTO ISLAND A","6158665","1997-12-16 07:00","1997","12","16","07:00","","3.7","","-0.4","","75","","23","","32","","15.0","","100.41","","","","","",""
"-79.40","43.63","TORONTO ISLAND A","6158665","1997-12-16 08:00","1997","12","16","08:00","","3.7","","0.0","","77","","24","","28","","15.0","","100.41","","","","","",""
"-79.40","43.63","TORONTO ISLAND A","6158665","1997-12-16 09:00","1997","12","16","09:00","","4.5","","0.8","","77","","23","","28","","15.0","","100.44","","","","","",""
"-79.40","43.63","TORONTO ISLAND A","6158665","1997-12-16 10:00","1997","12","16","10:00","","5.2","","1.1","","75","","23","","32","","15.0","","100.47","","","","","",""
"-79.40","43.63","TORONTO ISLAND A","6158665","1997-12-16 11:00","1997","12","16","11:00","","5.6","","1.3","","74","","22","","28","","15.0","","100.41","","","","","",""
"-79.40","43.63","TORONTO ISLAND A","6158665","1997-12-16 12:00","1997","12","16","12:00","","6.1","","1.9","","74","","22","","32","","15.0","","100.34","","","","","",""
"-79.40","43.63","TORONTO ISLAND A","6158665","1997-12-16 13:00","1997","12","16","13:00","","6.8","","2.1","","72","","21","","28","","15.0","","100.27","","","","","",""
"-79.40","43.63","TORONTO ISLAND A","6158665","1997-12-16 14:00","1997","12","16","14:00","","6.6","","2.4","","75","","20","","26","","15.0","","100.20","","","","","",""
"-79.40","43.63","TORONTO ISLAND A","6158665","1997-12-16 15:00","1997","12","16","15:00","","6.1","","2.5","","78","","20","","30","","15.0","","100.17","","","","","",""
"-79.40","43.63","TORONTO ISLAND A","6158665","1997-12-16 16:00","1997","12","16","16:00","","5.7","","2.3","","79","","20","","30","","15.0","","100.14","","","","","",""
"-79.40","43.63","TORONTO ISLAND A","6158665","1997-12-16 17:00","1997","12","16","17:00","","5.1","","2.1","","81","","20","","30","","15.0","","100.14","","","","","",""
"-79.40","43.63","TORONTO ISLAND A","6158665","1997-12-16 18:00","1997","12","16","18:00","","4.9","","1.9","","81","","22","","24","","15.0","","100.10","","","","","",""
"-79.40","43.63","TORONTO ISLAND A","6158665","1997-12-16 19:00","1997","12","16","19:00","","4.8","","0.0","","71","","25","","19","","15.0","","100.10","","","","","",""
"-79.40","43.63","TORONTO ISLAND A","6158665","1997-12-16 20:00","1997","12","16","20:00","","5.0","","-2.3","","59","","27","","17","","15.0","","100.14","","","","","",""
"-79.40","43.63","TORONTO ISLAND A","6158665","1997-12-16 21:00","1997","12","16","21:00","","4.9","","-0.4","","69","","24","","22","","15.0","","100.10","","","","","",""
"-79.40","43.63","TORONTO ISLAND A","6158665","1997-12-16 22:00","1997","12","16","22:00","","5.0","","-0.4","","68","","25","","26","","15.0","","100.10","","","","","",""
"-79.40","43.63","TORONTO ISLAND A","6158665","1997-12-16 23:00","1997","12","16","23:00","","4.1","","0.0","","75","","25","","15","","15.0","","100.14","","","","","",""
"-79.40","43.63","TORONTO ISLAND A","6158665","1997-12-17 00:00","1997","12","17","00:00","","3.4","","-0.7","","74","","27","","13","","15.0","","100.17","","","","","",""
"-79.40","43.63","TORONTO ISLAND A","6158665","1997-12-17 01:00","1997","12","17","01:00","","3.2","","0.2","","81","","25","","15","","15.0","","100.17","","","","","",""
"-79.40","43.63","TORONTO ISLAND A","6158665","1997-12-17 02:00","1997","12","17","02:00","","2.8","","0.5","","85","","25","","15","","11.3","","100.20","","","","","",""
"-79.40","43.63","TORONTO ISLAND A","6158665","1997-12-17 03:00","1997","12","17","03:00","","2.7","","0.6","","86","","24","","15","","11.3","","100.20","","","","","",""
"-79.40","43.63","TORONTO ISLAND A","6158665","1997-12-17 04:00","1997","12","17","04:00","","2.3","","0.6","","89","","26","","9","","9.7","","100.24","","","","","",""
"-79.40","43.63","TORONTO ISLAND A","6158665","1997-12-17 05:00","1997","12","17","05:00","","1.3","","-0.5","","88","","26","","9","","11.3","","100.24","","","","","",""
"-79.40","43.63","TORONTO ISLAND A","6158665","1997-12-17 06:00","1997","12","17","06:00","","1.3","","-0.4","","88","","26","","11","","11.3","","100.30","","","","","",""
"-79.40","43.63","TORONTO ISLAND A","6158665","1997-12-17 07:00","1997","12","17","07:00","","1.1","","-0.2","","91","","25","","7","","8.0","","100.37","","","","","",""
"-79.40","43.63","TORONTO ISLAND A","6158665","1997-12-17 08:00","1997","12","17","08:00","","0.5","","-1.1","","89","","27","","7","","8.0","","100.41","","","","","",""
"-79.40","43.63","TORONTO ISLAND A","6158665","1997-12-17 09:00","1997","12","17","09:00","","1.3","","-0.3","","89","","28","","7","","8.0","","100.47","","","","","",""
"-79.40","43.63","TORONTO ISLAND A","6158665","1997-12-17 10:00","1997","12","17","10:00","","3.2","","0.5","","82","","27","","13","","11.3","","100.51","","","","","",""
"-79.40","43.63","TORONTO ISLAND A","6158665","1997-12-17 11:00","1997","12","17","11:00","","4.5","","0.9","","77","","24","","19","","15.0","","100.51","","","","","",""
"-79.40","43.63","TORONTO ISLAND A","6158665","1997-12-17 12:00","1997","12","17","12:00","","4.9","","0.2","","72","","25","","15","","15.0","","100.47","","","","","",""
"-79.40","43.63","TORONTO ISLAND A","6158665","1997-12-17 13:00","1997","12","17","13:00","","5.1","","1.5","","78","","21","","19","","15.0","","100.41","","","","","",""
"-79.40","43.63","TORONTO ISLAND A","6158665","1997-12-17 14:00","1997","12","17","14:00","","5.8","","0.5","","69","","25","","24","","15.0","","100.41","","","","","",""
"-79.40","43.63","TORONTO ISLAND A","6158665","1997-12-17 15:00","1997","12","17","15:00","","5.8","","0.0","","66","","24","","22","","15.0","","100.44","","","","","",""
"-79.40","43.63","TORONTO ISLAND A","6158665","1997-12-17 16:00","1997","12","17","16:00","","5.5","","-2.5","","56","","27","","19","","15.0","","100.47","","","","","",""
"-79.40","43.63","TORONTO ISLAND A","6158665","1997-12-17 17:00","1997","12","17","17:00","","4.2","","-1.7","","65","","27","","17","","15.0","","100.54","","","","","",""
"-79.40","43.63","TORONTO ISLAND A","6158665","1997-12-17 18:00","1997","12","17","18:00","","3.8","","-2.2","","65","","27","","17","","15.0","","100.61","","","","","",""
"-79.40","43.63","TORONTO ISLAND A","6158665","1997-12-17 19:00","1997","12","17","19:00","","2.4","","-2.3","","71","","27","","13","","15.0","","100.67","","","","","",""
"-79.40","43.63","TORONTO ISLAND A","6158665","1997-12-17 20:00","1997","12","17","20:00","","1.6","","-2.4","","75","","26","","11","","15.0","","100.67","","","","","",""
"-79.40","43.63","TORONTO ISLAND A","6158665","1997-12-17 21:00","1997","12","17","21:00","","1.6","","-1.6","","79","","26","","15","","15.0","","100.71","","","","","",""
"-79.40","43.63","TORONTO ISLAND A","6158665","1997-12-17 22:00","1997","12","17","22:00","","0.9","","-2.6","","77","","27","","13","","15.0","","100.77","","","","","",""
"-79.40","43.63","TORONTO ISLAND A","6158665","1997-12-17 23:00","1997","12","17","23:00","","0.3","","-2.8","","80","","28","","9","","15.0","","100.77","","","","","",""
"-79.40","43.63","TORONTO ISLAND A","6158665","1997-12-18 00:00","1997","12","18","00:00","","0.6","","-2.3","","81","","25","","6","","15.0","","100.81","","","","","",""
"-79.40","43.63","TORONTO ISLAND A","6158665","1997-12-18 01:00","1997","12","18","01:00","","-0.1","","-2.9","","81","","25","","11","","15.0","","100.77","","","","-4","",""
"-79.40","43.63","TORONTO ISLAND A","6158665","1997-12-18 02:00","1997","12","18","02:00","","0.1","","-2.4","","83","","25","","13","","15.0","","100.81","","","","","",""
"-79.40","43.63","TORONTO ISLAND A","6158665","1997-12-18 03:00","1997","12","18","03:00","","-0.9","","-2.8","","87","","28","","6","","15.0","","100.88","","","","-3","",""
"-79.40","43.63","TORONTO ISLAND A","6158665","1997-12-18 04:00","1997","12","18","04:00","","-0.4","","-2.9","","83","","30","","4","","15.0","","100.84","","","","-2","",""
"-79.40","43.63","TORONTO ISLAND A","6158665","1997-12-18 05:00","1997","12","18","05:00","","-0.9","","-2.8","","87","","28","","6","","15.0","","100.84","","","","-3","",""
"-79.40","43.63","TORONTO ISLAND A","6158665","1997-12-18 06:00","1997","12","18","06:00","","-1.2","","-3.2","","86","","30","","4","","12.9","","100.84","","","","-3","",""
"-79.40","43.63","TORONTO ISLAND A","6158665","1997-12-18 07:00","1997","12","18","07:00","","-0.7","","-2.5","","88","","28","","4","","12.9","","100.88","","","","-2","",""
"-79.40","43.63","TORONTO ISLAND A","6158665","1997-12-18 08:00","1997","12","18","08:00","","-1.5","","-2.8","","91","","28","","4","","12.9","","100.84","","","","-3","",""
"-79.40","43.63","TORONTO ISLAND A","6158665","1997-12-18 09:00","1997","12","18","09:00","","0.2","","-0.7","","94","","27","","7","","9.7","","100.88","","","","","",""
"-79.40","43.63","TORONTO ISLAND A","6158665","1997-12-18 10:00","1997","12","18","10:00","","1.1","","-0.1","","92","","25","","24","","5.6","","100.91","","","","","",""
"-79.40","43.63","TORONTO ISLAND A","6158665","1997-12-18 11:00","1997","12","18","11:00","","1.8","","0.7","","92","","22","","19","","5.6","","100.88","","","","","",""
"-79.40","43.63","TORONTO ISLAND A","6158665","1997-12-18 12:00","1997","12","18","12:00","","2.2","","0.8","","90","","21","","24","","9.7","","100.77","","","","","","NA"
"-79.40","43.63","TORONTO ISLAND A","6158665","1997-12-18 13:00","1997","12","18","13:00","","2.8","","0.8","","87","","","M","","M","9.7","","100.67","","","","","",""
"-79.40","43.63","TORONTO ISLAND A","6158665","1997-12-18 14:00","1997","12","18","14:00","","3.1","","1.0","","86","","21","","19","","9.7","","100.61","","","","","",""
"-79.40","43.63","TORONTO ISLAND A","6158665","1997-12-18 15:00","1997","12","18","15:00","","3.5","","1.6","","87","","21","","11","","12.9","","100.54","","","","","",""
"-79.40","43.63","TORONTO ISLAND A","6158665","1997-12-18 16:00","1997","12","18","16:00","","4.1","","-0.2","","74","","19","","24","","15.0","","100.51","","","","","",""
"-79.40","43.63","TORONTO ISLAND A","6158665","1997-12-18 17:00","1997","12","18","17:00","","4.0","","-0.5","","72","","20","","32","","15.0","","100.51","","","","","",""
"-79.40","43.63","TORONTO ISLAND A","6158665","1997-12-18 18:00","1997","12","18","18:00","","3.9","","-0.4","","73","","21","","28","","15.0","","100.44","","","","","",""
"-79.40","43.63","TORONTO ISLAND A","6158665","1997-12-18 19:00","1997","12","18","19:00","","4.1","","0.3","","76","","22","","32","","15.0","","100.41","","","","","",""
"-79.40","43.63","TORONTO ISLAND A","6158665","1997-12-18 20:00","1997","12","18","20:00","","4.1","","1.5","","83","","22","","24","","12.9","","100.30","","","","","",""
"-79.40","43.63","TORONTO ISLAND A","6158665","1997-12-18 21:00","1997","12","18","21:00","","4.1","","2.0","","86","","24","","20","","8.0","","100.27","","","","","",""
"-79.40","43.63","TORONTO ISLAND A","6158665","1997-12-18 22:00","1997","12","18","22:00","","4.2","","1.6","","83","","23","","19","","9.7","","100.20","","","","","",""
"-79.40","43.63","TORONTO ISLAND A","6158665","1997-12-18 23:00","1997","12","18","23:00","","4.5","","1.8","","83","","23","","28","","9.7","","100.20","","","","","",""
"-79.40","43.63","TORONTO ISLAND A","6158665","1997-12-19 00:00","1997","12","19","00:00","","4.2","","2.1","","86","","23","","24","","8.0","","100.17","","","","","",""
"-79.40","43.63","TORONTO ISLAND A","6158665","1997-12-19 01:00","1997","12","19","01:00","","5.0","","1.8","","80","","25","","22","","8.0","","100.17","","","","","",""
"-79.40","43.63","TORONTO ISLAND A","6158665","1997-12-19 02:00","1997","12","19","02:00","","4.7","","1.6","","80","","25","","24","","8.0","","100.17","","","","","",""
"-79.40","43.63","TORONTO ISLAND A","6158665","1997-12-19 03:00","1997","12","19","03:00","","4.5","","1.5","","81","","25","","22","","8.0","","100.20","","","","","",""
"-79.40","43.63","TORONTO ISLAND A","6158665","1997-12-19 04:00","1997","12","19","04:00","","4.5","","1.4","","80","","26","","24","","8.0","","100.20","","","","","",""
"-79.40","43.63","TORONTO ISLAND A","6158665","1997-12-19 05:00","1997","12","19","05:00","","4.1","","1.2","","81","","27","","22","","8.0","","100.20","","","","","",""
"-79.40","43.63","TORONTO ISLAND A","6158665","1997-12-19 06:00","1997","12","19","06:00","","3.8","","1.0","","82","","28","","17","","8.0","","100.30","","","","","",""
"-79.40","43.63","TORONTO ISLAND A","6158665","1997-12-19 07:00","1997","12","19","07:00","","3.6","","1.5","","86","","25","","17","","6.4","","100.34","","","","","",""
"-79.40","43.63","TORONTO ISLAND A","6158665","1997-12-19 08:00","1997","12","19","08:00","","3.7","","1.6","","86","","24","","20","","6.4","","100.44","","","","","",""
"-79.40","43.63","TORONTO ISLAND A","6158665","1997-12-19 09:00","1997","12","19","09:00","","4.0","","1.6","","84","","26","","15","","6.4","","100.51","","","","","",""
"-79.40","43.63","TORONTO ISLAND A","6158665","1997-12-19 10:00","1997","12","19","10:00","","4.4","","1.6","","82","","25","","19","","6.4","","100.57","","","","","",""
"-79.40","43.63","TORONTO ISLAND A","6158665","1997-12-19 11:00","1997","12","19","11:00","","4.5","","1.6","","81","","25","","19","","8.0","","100.61","","","","","",""
"-79.40","43.63","TORONTO ISLAND A","6158665","1997-12-19 12:00","1997","12","19","12:00","","4.6","","1.9","","83","","24","","20","","8.0","","100.54","","","","","",""
"-79.40","43.63","TORONTO ISLAND A","6158665","1997-12-19 13:00","1997","12","19","13:00","","4.7","","2.3","","84","","23","","24","","8.0","","100.51","","","","","",""
"-79.40","43.63","TORONTO ISLAND A","6158665","1997-12-19 14:00","1997","12","19","14:00","","5.7","","2.8","","82","","24","","22","","8.0","","100.51","","","","","",""
"-79.40","43.63","TORONTO ISLAND A","6158665","1997-12-19 15:00","1997","12","19","15:00","","6.6","","0.4","","65","","27","","26","","15.0","","100.54","","","","","",""
"-79.40","43.63","TORONTO ISLAND A","6158665","1997-12-19 16:00","1997","12","19","16:00","","6.1","","0.5","","67","","27","","24","","15.0","","100.57","","","","","",""
"-79.40","43.63","TORONTO ISLAND A","6158665","1997-12-19 17:00","1997","12","19","17:00","","5.5","","0.3","","69","","27","","19","","15.0","","100.67","","","","","",""
"-79.40","43.63","TORONTO ISLAND A","6158665","1997-12-19 18:00","1997","12","19","18:00","","5.2","","-0.7","","66","","29","","19","","15.0","","100.71","","","","","",""
"-79.40","43.63","TORONTO ISLAND A","6158665","1997-12-19 19:00","1997","12","19","19:00","","4.5","","-1.1","","67","","28","","13","","15.0","","100.74","","","","","",""
"-79.40","43.63","TORONTO ISLAND A","6158665","1997-12-19 20:00","1997","12","19","20:00","","4.1","","-1.5","","67","","30","","11","","15.0","","100.74","","","","","",""
"-79.40","43.63","TORONTO ISLAND A","6158665","1997-12-19 21:00","1997","12","19","21:00","","3.6","","0.5","","80","","24","","17","","15.0","","100.77","","","","","",""
"-79.40","43.63","TORONTO ISLAND A","6158665","1997-12-19 22:00","1997","12","19","22:00","","3.0","","0.3","","82","","26","","15","","15.0","","100.77","","","","","",""
"-79.40","43.63","TORONTO ISLAND A","6158665","1997-12-19 23:00","1997","12","19","23:00","","3.0","","0.3","","82","","25","","19","","15.0","","100.74","","","","","",""
"-79.40","43.63","TORONTO ISLAND A","6158665","1997-12-20 00:00","1997","12","20","00:00","","3.0","","0.2","","82","","26","","15","","15.0","","100.71","","","","","",""
"-79.40","43.63","TORONTO ISLAND A","6158665","1997-12-20 01:00","1997","12","20","01:00","","3.2","","0.2","","81","","25","","15","","15.0","","100.71","","","","","",""
"-79.40","43.63","TORONTO ISLAND A","6158665","1997-12-20 02:00","1997","12","20","02:00","","3.2","","-0.3","","78","","26","","17","","15.0","","100.71","","","","","",""
"-79.40","43.63","TORONTO ISLAND A","6158665","1997-12-20 03:00","1997","12","20","03:00","","2.7","","0.5","","85","","26","","19","","15.0","","100.71","","","","","","Rain"
"-79.40","43.63","TORONTO ISLAND A","6158665","1997-12-20 04:00","1997","12","20","04:00","","2.5","","0.8","","89","","25","","13","","15.0","","100.61","","","","","",""
"-79.40","43.63","TORONTO ISLAND A","6158665","1997-12-20 05:00","1997","12","20","05:00","","2.3","","1.0","","91","","24","","19","","15.0","","100.57","","","","","",""
"-79.40","43.63","TORONTO ISLAND A","6158665","1997-12-20 06:00","1997","12","20","06:00","","2.2","","0.8","","90","","26","","13","","12.9","","100.64","","","","","","Rain"
"-79.40","43.63","TORONTO ISLAND A","6158665","1997-12-20 07:00","1997","12","20","07:00","","2.4","","0.9","","90","","25","","15","","15.0","","100.64","","","","","","Rain"
"-79.40","43.63","TORONTO ISLAND A","6158665","1997-12-20 08:00","1997","12","20","08:00","","2.0","","0.6","","90","","26","","15","","15.0","","100.67","","","","","","Rain"
"-79.40","43.63","TORONTO ISLAND A","6158665","1997-12-20 09:00","1997","12","20","09:00","","2.3","","0.8","","90","","25","","17","","15.0","","100.74","","","","","",""
"-79.40","43.63","TORONTO ISLAND A","6158665","1997-12-20 10:00","1997","12","20","10:00","","2.6","","0.6","","87","","27","","11","","15.0","","100.77","","","","","",""
"-79.40","43.63","TORONTO ISLAND A","6158665","1997-12-20 11:00","1997","12","20","11:00","","2.7","","-2.0","","71","","31","","22","","15.0","","100.81","","","","","",""
"-79.40","43.63","TORONTO ISLAND A","6158665","1997-12-20 12:00","1997","12","20","12:00","","3.0","","-2.3","","68","","30","","20","","15.0","","100.77","","","","","",""
"-79.40","43.63","TORONTO ISLAND A","6158665","1997-12-20 13:00","1997","12","20","13:00","","2.1","","-2.7","","70","","36","","24","","15.0","","100.81","","","","","",""
"-79.40","43.63","TORONTO ISLAND A","6158665","1997-12-20 14:00","1997","12","20","14:00","","1.9","","-5.5","","58","","32","","20","","15.0","","100.94","","","","","",""
"-79.40","43.63","TORONTO ISLAND A","6158665","1997-12-20 15:00","1997","12","20","15:00","","1.1","","-5.1","","63","","32","","26","","15.0","","100.98","","","","","",""
"-79.40","43.63","TORONTO ISLAND A","6158665","1997-12-20 16:00","1997","12","20","16:00","","0.7","","-5.0","","66","","33","","26","","15.0","","101.04","","","","","",""
"-79.40","43.63","TORONTO ISLAND A","6158665","1997-12-20 17:00","1997","12","20","17:00","","-0.2","","-5.4","","68","","31","","19","","15.0","","101.14","","","","-5","",""
"-79.40","43.63","TORONTO ISLAND A","6158665","1997-12-20 18:00","1997","12","20","18:00","","-1.1","","-6.1","","69","","32","","17","","15.0","","101.21","","","","-6","",""
"-79.40","43.63","TORONTO ISLAND A","6158665","1997-12-20 19:00","1997","12","20","19:00","","-1.9","","-6.9","","69","","32","","17","","15.0","","101.31","","","","-7","",""
"-79.40","43.63","TORONTO ISLAND A","6158665","1997-12-20 20:00","1997","12","20","20:00","","-2.2","","-7.2","","69","","30","","11","","15.0","","101.45","","","","-6","",""
"-79.40","43.63","TORONTO ISLAND A","6158665","1997-12-20 21:00","1997","12","20","21:00","","-2.5","","-6.8","","72","","32","","19","","15.0","","101.48","","","","-8","",""
"-79.40","43.63","TORONTO ISLAND A","6158665","1997-12-20 22:00","1997","12","20","22:00","","-3.0","","-6.9","","74","","32","","11","","15.0","","101.51","","","","-7","",""
"-79.40","43.63","TORONTO ISLAND A","6158665","1997-12-20 23:00","1997","12","20","23:00","","-2.9","","-8.0","","68","","31","","13","","15.0","","101.51","","","","-8","",""
"-79.40","43.63","TORONTO ISLAND A","6158665","1997-12-21 00:00","1997","12","21","00:00","","-3.2","","-8.4","","67","","31","","13","","15.0","","101.55","","","","-8","",""
"-79.40","43.63","TORONTO ISLAND A","6158665","1997-12-21 01:00","1997","12","21","01:00","","-3.6","","-8.3","","70","","31","","7","","15.0","","101.55","","","","-7","",""
"-79.40","43.63","TORONTO ISLAND A","6158665","1997-12-21 02:00","1997","12","21","02:00","","-4.2","","-8.0","","75","","33","","7","","15.0","","101.58","","","","-7","",""
"-79.40","43.63","TORONTO ISLAND A","6158665","1997-12-21 03:00","1997","12","21","03:00","","-4.0","","-9.0","","68","","35","","11","","15.0","","101.68","","","","-8","",""
"-79.40","43.63","TORONTO ISLAND A","6158665","1997-12-21 04:00","1997","12","21","04:00","","-5.7","","-9.7","","73","","3","","11","","15.0","","101.72","","","","-10","",""
"-79.40","43.63","TORONTO ISLAND A","6158665","1997-12-21 05:00","1997","12","21","05:00","","-6.4","","-10.4","","73","","4","","9","","15.0","","101.78","","","","-11","",""
"-79.40","43.63","TORONTO ISLAND A","6158665","1997-12-21 06:00","1997","12","21","06:00","","-6.3","","-11.1","","69","","7","","11","","15.0","","101.82","","","","-11","",""
"-79.40","43.63","TORONTO ISLAND A","6158665","1997-12-21 07:00","1997","12","21","07:00","","-7.1","","-11.9","","69","","5","","7","","15.0","","101.85","","","","-11","",""
"-79.40","43.63","TORONTO ISLAND A","6158665","1997-12-21 08:00","1997","12","21","08:00","","-6.8","","-11.8","","68","","32","","7","","15.0","","101.92","","","","-10","",""
"-79.40","43.63","TORONTO ISLAND A","6158665","1997-12-21 09:00","1997","12","21","09:00","","-5.4","","-10.7","","66","","31","","6","","15.0","","101.99","","","","-8","",""
"-79.40","43.63","TORONTO ISLAND A","6158665","1997-12-21 10:00","1997","12","21","10:00","","-4.2","","-10.8","","60","","31","","4","","15.0","","102.09","","","","-6","",""
"-79.40","43.63","TORONTO ISLAND A","6158665","1997-12-21 11:00","1997","12","21","11:00","","-2.9","","-9.7","","59","","21","","6","","15.0","","102.09","","","","-5","",""
"-79.40","43.63","TORONTO ISLAND A","6158665","1997-12-21 12:00","1997","12","21","12:00","","-1.8","","-9.1","","57","","22","","7","","15.0","","101.99","","","","-4","",""
"-79.40","43.63","TORONTO ISLAND A","6158665","1997-12-21 13:00","1997","12","21","13:00","","-1.2","","-10.0","","51","","35","","11","","15.0","","101.95","","","","-5","",""
"-79.40","43.63","TORONTO ISLAND A","6158665","1997-12-21 14:00","1997","12","21","14:00","","-0.8","","-10.2","","49","","32","","7","","15.0","","101.95","","","","-3","",""
"-79.40","43.63","TORONTO ISLAND A","6158665","1997-12-21 15:00","1997","12","21","15:00","","-0.7","","-7.8","","59","","12","","11","","15.0","","101.92","","","","-4","",""
"-79.40","43.63","TORONTO ISLAND A","6158665","1997-12-21 16:00","1997","12","21","16:00","","-1.7","","-8.1","","62","","12","","9","","15.0","","101.99","","","","-5","",""
"-79.40","43.63","TORONTO ISLAND A","6158665","1997-12-21 17:00","1997","12","21","17:00","","-2.4","","-8.2","","64","","10","","4","","15.0","","101.95","","","","-4","",""
"-79.40","43.63","TORONTO ISLAND A","6158665","1997-12-21 18:00","1997","12","21","18:00","","-2.4","","-8.4","","63","","11","","4","","15.0","","101.95","","","","-4","",""
"-79.40","43.63","TORONTO ISLAND A","6158665","1997-12-21 19:00","1997","12","21","19:00","","-2.8","","-8.8","","63","","6","","17","","15.0","","101.95","","","","-8","",""
"-79.40","43.63","TORONTO ISLAND A","6158665","1997-12-21 20:00","1997","12","21","20:00","","-2.5","","-9.4","","59","","5","","17","","15.0","","101.92","","","","-8","",""
"-79.40","43.63","TORONTO ISLAND A","6158665","1997-12-21 21:00","1997","12","21","21:00","","-3.1","","-9.3","","62","","5","","17","","15.0","","101.95","","","","-9","",""
"-79.40","43.63","TORONTO ISLAND A","6158665","1997-12-21 22:00","1997","12","21","22:00","","-3.7","","-9.6","","64","","6","","13","","15.0","","101.95","","","","-9","",""
"-79.40","43.63","TORONTO ISLAND A","6158665","1997-12-21 23:00","1997","12","21","23:00","","-3.5","","-9.0","","66","","4","","9","","15.0","","101.99","","","","-7","",""
"-79.40","43.63","TORONTO ISLAND A","6158665","1997-12-22 00:00","1997","12","22","00:00","","-3.5","","-8.4","","69","","4","","13","","15.0","","101.95","","","","-8","",""
"-79.40","43.63","TORONTO ISLAND A","6158665","1997-12-22 01:00","1997","12","22","01:00","","-3.9","","-8.9","","68","","4","","13","","15.0","","101.88","","","","-9","",""
"-79.40","43.63","TORONTO ISLAND A","6158665","1997-12-22 02:00","1997","12","22","02:00","","-3.8","","-8.7","","69","","3","","20","","15.0","","101.85","","","","-10","",""
"-79.40","43.63","TORONTO ISLAND A","6158665","1997-12-22 03:00","1997","12","22","03:00","","-3.6","","-10.0","","61","","4","","22","","15.0","","101.82","","","","-10","",""
"-79.40","43.63","TORONTO ISLAND A","6158665","1997-12-22 04:00","1997","12","22","04:00","","-4.2","","-10.0","","64","","4","","22","","15.0","","101.75","","","","-11","",""
"-79.40","43.63","TORONTO ISLAND A","6158665","1997-12-22 05:00","1997","12","22","05:00","","-3.2","","-7.6","","72","","5","","28","","15.0","","101.68","","","","-10","",""
"-79.40","43.63","TORONTO ISLAND A","6158665","1997-12-22 06:00","1997","12","22","06:00","","-2.1","","-4.1","","86","","5","","30","","15.0","","101.65","","","","-9","",""
"-79.40","43.63","TORONTO ISLAND A","6158665","1997-12-22 07:00","1997","12","22","07:00","","-0.2","","-4.5","","73","","9","","28","","15.0","","101.68","","","","-7","",""
"-79.40","43.63","TORONTO ISLAND A","6158665","1997-12-22 08:00","1997","12","22","08:00","","-0.2","","-4.5","","73","","8","","41","","15.0","","101.55","","","","-8","",""
"-79.40","43.63","TORONTO ISLAND A","6158665","1997-12-22 09:00","1997","12","22","09:00","","0.0","","-3.8","","76","","9","","30","","15.0","","101.62","","","","-6","",""
"-79.40","43.63","TORONTO ISLAND A","6158665","1997-12-22 10:00","1997","12","22","10:00","","-0.1","","-4.7","","71","","9","","37","","15.0","","101.55","","","","-7","",""
"-79.40","43.63","TORONTO ISLAND A","6158665","1997-12-22 11:00","1997","12","22","11:00","","-0.1","","-4.7","","71","","8","","33","","15.0","","101.41","","","","-7","",""
"-79.40","43.63","TORONTO ISLAND A","6158665","1997-12-22 12:00","1997","12","22","12:00","","0.6","","-5.0","","66","","7","","54","","15.0","","101.14","","","","","",""
"-79.40","43.63","TORONTO ISLAND A","6158665","1997-12-22 13:00","1997","12","22","13:00","","0.8","","-4.9","","66","","9","","39","","15.0","","101.04","","","","","",""
"-79.40","43.63","TORONTO ISLAND A","6158665","1997-12-22 14:00","1997","12","22","14:00","","1.1","","-4.6","","66","","9","","37","","15.0","","100.94","","","","","",""
"-79.40","43.63","TORONTO ISLAND A","6158665","1997-12-22 15:00","1997","12","22","15:00","","1.5","","-4.1","","66","","9","","32","","15.0","","100.84","","","","","",""
"-79.40","43.63","TORONTO ISLAND A","6158665","1997-12-22 16:00","1997","12","22","16:00","","1.5","","-4.7","","63","","9","","32","","15.0","","100.74","","","","","",""
"-79.40","43.63","TORONTO ISLAND A","6158665","1997-12-22 17:00","1997","12","22","17:00","","1.6","","-5.1","","61","","8","","32","","15.0","","100.67","","","","","",""
"-79.40","43.63","TORONTO ISLAND A","6158665","1997-12-22 18:00","1997","12","22","18:00","","1.5","","-4.7","","63","","9","","24","","15.0","","100.61","","","","","","Snow"
"-79.40","43.63","TORONTO ISLAND A","6158665","1997-12-22 19:00","1997","12","22","19:00","","0.1","","-0.5","","96","","9","","17","","1.8","","100.54","","","","","","Heavy Freezing Drizzle"
"-79.40","43.63","TORONTO ISLAND A","6158665","1997-12-22 20:00","1997","12","22","20:00","","0.5","","0.1","","97","","9","","19","","1.3","","100.47","","","","","",""
"-79.40","43.63","TORONTO ISLAND A","6158665","1997-12-22 21:00","1997","12","22","21:00","","0.9","","0.5","","97","","9","","13","","4.0","","","M","","","","",""
"-79.40","43.63","TORONTO ISLAND A","6158665","1997-12-22 22:00","1997","12","22","22:00","","0.9","","0.5","","97","","10","","15","","2.9","","100.27","","","","","",""
"-79.40","43.63","TORONTO ISLAND A","6158665","1997-12-22 23:00","1997","12","22","23:00","","0.9","","0.5","","97","","10","","17","","2.7","","100.20","","","","","",""
"-79.40","43.63","TORONTO ISLAND A","6158665","1997-12-23 00:00","1997","12","23","00:00","","1.0","","0.8","","99","","9","","13","","4.0","","100.14","","","","","",""
"-79.40","43.63","TORONTO ISLAND A","6158665","1997-12-23 01:00","1997","12","23","01:00","","1.2","","0.9","","98","","8","","13","","4.8","","100.07","","","","","",""
"-79.40","43.63","TORONTO ISLAND A","6158665","1997-12-23 02:00","1997","12","23","02:00","","1.4","","1.2","","99","","7","","9","","8.0","","100.04","","","","","","Rain"
"-79.40","43.63","TORONTO ISLAND A","6158665","1997-12-23 03:00","1997","12","23","03:00","","1.5","","1.4","","99","","5","","6","","8.0","","100.00","","","","","","Rain"
"-79.40","43.63","TORONTO ISLAND A","6158665","1997-12-23 04:00","1997","12","23","04:00","","1.4","","1.3","","99","","31","","4","","11.3","","99.93","","","","","","Rain"
"-79.40","43.63","TORONTO ISLAND A","6158665","1997-12-23 05:00","1997","12","23","05:00","","1.1","","0.9","","99","","32","","9","","3.9","","100.00","","","","","","Rain"
"-79.40","43.63","TORONTO ISLAND A","6158665","1997-12-23 06:00","1997","12","23","06:00","","0.6","","-0.1","","95","","32","","13","","6.4","","100.10","","","","","",""
"-79.40","43.63","TORONTO ISLAND A","6158665","1997-12-23 07:00","1997","12","23","07:00","","0.4","","-1.0","","90","","31","","13","","12.9","","100.17","","","","","",""
"-79.40","43.63","TORONTO ISLAND A","6158665","1997-12-23 08:00","1997","12","23","08:00","","0.2","","-1.2","","90","","26","","20","","11.3","","100.27","","","","","",""
"-79.40","43.63","TORONTO ISLAND A","6158665","1997-12-23 09:00","1997","12","23","09:00","","0.7","","-1.2","","87","","26","","13","","11.3","","100.37","","","","","",""
"-79.40","43.63","TORONTO ISLAND A","6158665","1997-12-23 10:00","1997","12","23","10:00","","1.1","","-0.4","","90","","23","","11","","5.6","","100.44","","","","","",""
"-79.40","43.63","TORONTO ISLAND A","6158665","1997-12-23 11:00","1997","12","23","11:00","","1.8","","0.5","","91","","25","","20","","8.0","","","M","","","","","Rain"
"-79.40","43.63","TORONTO ISLAND A","6158665","1997-12-23 12:00","1997","12","23","12:00","","2.1","","0.9","","92","","24","","15","","5.6","","100.41","","","","","","Rain"
"-79.40","43.63","TORONTO ISLAND A","6158665","1997-12-23 13:00","1997","12","23","13:00","","2.5","","1.3","","92","","25","","22","","4.8","","100.37","","","","","",""
"-79.40","43.63","TORONTO ISLAND A","6158665","1997-12-23 14:00","1997","12","23","14:00","","2.7","","1.8","","94","","24","","19","","4.8","","100.37","","","","","","Drizzle"
"-79.40","43.63","TORONTO ISLAND A","6158665","1997-12-23 15:00","1997","12","23","15:00","","3.1","","2.4","","95","","23","","22","","4.8","","100.41","","","","","",""
"-79.40","43.63","TORONTO ISLAND A","6158665","1997-12-23 16:00","1997","12","23","16:00","","3.2","","1.5","","89","","24","","13","","8.0","","100.44","","","","","",""
"-79.40","43.63","TORONTO ISLAND A","6158665","1997-12-23 17:00","1997","12","23","17:00","","3.3","","-1.4","","71","","27","","15","","15.0","","100.54","","","","","",""
"-79.40","43.63","TORONTO ISLAND A","6158665","1997-12-23 18:00","1997","12","23","18:00","","3.1","","-0.2","","79","","27","","15","","15.0","","100.64","","","","","",""
"-79.40","43.63","TORONTO ISLAND A","6158665","1997-12-23 19:00","1997","12","23","19:00","","2.8","","-0.5","","79","","27","","20","","15.0","","100.81","","","","","",""
"-79.40","43.63","TORONTO ISLAND A","6158665","1997-12-23 20:00","1997","12","23","20:00","","2.6","","-0.2","","82","","27","","19","","15.0","","100.88","","","","","",""
"-79.40","43.63","TORONTO ISLAND A","6158665","1997-12-23 21:00","1997","12","23","21:00","","2.5","","-0.3","","82","","27","","17","","15.0","","100.91","","","","","",""
"-79.40","43.63","TORONTO ISLAND A","6158665","1997-12-23 22:00","1997","12","23","22:00","","2.3","","-0.3","","83","","28","","11","","12.9","","100.91","","","","","",""
"-79.40","43.63","TORONTO ISLAND A","6158665","1997-12-23 23:00","1997","12","23","23:00","","2.2","","-0.1","","85","","27","","7","","11.3","","100.91","","","","","",""
"-79.40","43.63","TORONTO ISLAND A","6158665","1997-12-24 00:00","1997","12","24","00:00","","1.9","","-0.1","","87","","27","","6","","11.3","","100.91","","","","","",""
"-79.40","43.63","TORONTO ISLAND A","6158665","1997-12-24 01:00","1997","12","24","01:00","","2.4","","-0.5","","81","","25","","13","","15.0","","100.94","","","","","",""
"-79.40","43.63","TORONTO ISLAND A","6158665","1997-12-24 02:00","1997","12","24","02:00","","2.4","","-1.3","","77","","26","","15","","15.0","","101.01","","","","","",""
"-79.40","43.63","TORONTO ISLAND A","6158665","1997-12-24 03:00","1997","12","24","03:00","","2.5","","-2.5","","70","","28","","15","","15.0","","101.11","","","","","",""
"-79.40","43.63","TORONTO ISLAND A","6158665","1997-12-24 04:00","1997","12","24","04:00","","2.3","","-2.5","","71","","26","","11","","15.0","","101.21","","","","","",""
"-79.40","43.63","TORONTO ISLAND A","6158665","1997-12-24 05:00","1997","12","24","05:00","","2.0","","-3.0","","69","","27","","7","","15.0","","101.18","","","","","",""
"-79.40","43.63","TORONTO ISLAND A","6158665","1997-12-24 06:00","1997","12","24","06:00","","2.4","","-3.3","","66","","24","","7","","15.0","","101.21","","","","","",""
"-79.40","43.63","TORONTO ISLAND A","6158665","1997-12-24 07:00","1997","12","24","07:00","","1.5","","-3.1","","71","","14","","6","","15.0","","101.25","","","","","",""
"-79.40","43.63","TORONTO ISLAND A","6158665","1997-12-24 08:00","1997","12","24","08:00","","1.1","","-2.4","","77","","15","","6","","15.0","","101.25","","","","","",""
"-79.40","43.63","TORONTO ISLAND A","6158665","1997-12-24 09:00","1997","12","24","09:00","","2.4","","-3.1","","67","","","","0","","15.0","","101.21","","","","","",""
"-79.40","43.63","TORONTO ISLAND A","6158665","1997-12-24 10:00","1997","12","24","10:00","","3.2","","-0.5","","77","","7","","19","","15.0","","101.21","","","","","",""
"-79.40","43.63","TORONTO ISLAND A","6158665","1997-12-24 11:00","1997","12","24","11:00","","3.1","","-0.9","","75","","9","","11","","15.0","","101.14","","","","","",""
"-79.40","43.63","TORONTO ISLAND A","6158665","1997-12-24 12:00","1997","12","24","12:00","","3.0","","0.1","","81","","11","","9","","15.0","","100.98","","","","","",""
"-79.40","43.63","TORONTO ISLAND A","6158665","1997-12-24 13:00","1997","12","24","13:00","","3.6","","-2.2","","66","","13","","13","","15.0","","100.88","","","","","",""
"-79.40","43.63","TORONTO ISLAND A","6158665","1997-12-24 14:00","1997","12","24","14:00","","3.7","","-1.0","","71","","11","","13","","15.0","","100.88","","","","","",""
"-79.40","43.63","TORONTO ISLAND A","6158665","1997-12-24 15:00","1997","12","24","15:00","","3.1","","0.3","","82","","9","","20","","15.0","","100.71","","","","","",""
"-79.40","43.63","TORONTO ISLAND A","6158665","1997-12-24 16:00","1997","12","24","16:00","","2.7","","0.4","","85","","9","","24","","11.3","","100.57","","","","","",""
"-79.40","43.63","TORONTO ISLAND A","6158665","1997-12-24 17:00","1997","12","24","17:00","","2.6","","-0.6","","79","","8","","32","","15.0","","100.47","","","","","",""
"-79.40","43.63","TORONTO ISLAND A","6158665","1997-12-24 18:00","1997","12","24","18:00","","2.8","","-1.1","","75","","8","","37","","15.0","","100.37","","","","","",""
"-79.40","43.63","TORONTO ISLAND A","6158665","1997-12-24 19:00","1997","12","24","19:00","","3.1","","-1.2","","73","","8","","39","","15.0","","100.24","","","","","",""
"-79.40","43.63","TORONTO ISLAND A","6158665","1997-12-24 20:00","1997","12","24","20:00","","3.1","","-1.1","","74","","9","","37","","15.0","","100.17","","","","","",""
"-79.40","43.63","TORONTO ISLAND A","6158665","1997-12-24 21:00","1997","12","24","21:00","","3.2","","-0.9","","74","","9","","37","","15.0","","100.00","","","","","",""
"-79.40","43.63","TORONTO ISLAND A","6158665","1997-12-24 22:00","1997","12","24","22:00","","2.6","","0.5","","86","","8","","39","","8.0","","99.87","","","","","","Rain"
"-79.40","43.63","TORONTO ISLAND A","6158665","1997-12-24 23:00","1997","12","24","23:00","","2.3","","1.1","","92","","9","","33","","4.8","","99.77","","","","","","Rain"
"-79.40","43.63","TORONTO ISLAND A","6158665","1997-12-25 00:00","1997","12","25","00:00","","2.3","","1.5","","94","","9","","30","","8.0","","99.63","","","","","","Drizzle"
"-79.40","43.63","TORONTO ISLAND A","6158665","1997-12-25 01:00","1997","12","25","01:00","","2.3","","1.9","","97","","9","","30","","2.7","","99.50","","","","","","Rain"
"-79.40","43.63","TORONTO ISLAND A","6158665","1997-12-25 02:00","1997","12","25","02:00","","2.8","","2.6","","99","","9","","26","","2.3","","99.40","","","","","","Drizzle"
"-79.40","43.63","TORONTO ISLAND A","6158665","1997-12-25 03:00","1997","12","25","03:00","","3.2","","3.0","","99","","9","","22","","3.2","","99.30","","","","","","Heavy Rain"
"-79.40","43.63","TORONTO ISLAND A","6158665","1997-12-25 04:00","1997","12","25","04:00","","3.4","","3.3","","99","","9","","22","","2.3","","99.20","","","","","","Rain"
"-79.40","43.63","TORONTO ISLAND A","6158665","1997-12-25 05:00","1997","12","25","05:00","","3.7","","3.7","","100","","9","","20","","4.8","","99.06","","","","","","Rain"
"-79.40","43.63","TORONTO ISLAND A","6158665","1997-12-25 06:00","1997","12","25","06:00","","4.0","","4.0","","100","","9","","19","","4.0","","98.99","","","","","","Rain"
"-79.40","43.63","TORONTO ISLAND A","6158665","1997-12-25 07:00","1997","12","25","07:00","","4.0","","4.0","","100","","7","","15","","4.8","","98.93","","","","","","Drizzle"
"-79.40","43.63","TORONTO ISLAND A","6158665","1997-12-25 08:00","1997","12","25","08:00","","4.5","","4.5","","100","","20","","9","","8.0","","98.96","","","","","",""
"-79.40","43.63","TORONTO ISLAND A","6158665","1997-12-25 09:00","1997","12","25","09:00","","4.4","","4.2","","99","","24","","20","","8.0","","99.03","","","","","","Drizzle"
"-79.40","43.63","TORONTO ISLAND A","6158665","1997-12-25 10:00","1997","12","25","10:00","","4.8","","4.3","","97","","24","","26","","15.0","","99.06","","","","","","Rain"
"-79.40","43.63","TORONTO ISLAND A","6158665","1997-12-25 11:00","1997","12","25","11:00","","4.6","","3.5","","93","","26","","24","","15.0","","99.09","","","","","",""
"-79.40","43.63","TORONTO ISLAND A","6158665","1997-12-25 12:00","1997","12","25","12:00","","4.5","","3.0","","90","","26","","24","","15.0","","99.16","","","","","",""
"-79.40","43.63","TORONTO ISLAND A","6158665","1997-12-25 13:00","1997","12","25","13:00","","4.3","","2.4","","87","","27","","24","","15.0","","99.16","","","","","",""
"-79.40","43.63","TORONTO ISLAND A","6158665","1997-12-25 14:00","1997","12","25","14:00","","4.8","","2.4","","84","","26","","28","","15.0","","99.23","","","","","",""
"-79.40","43.63","TORONTO ISLAND A","6158665","1997-12-25 15:00","1997","12","25","15:00","","4.2","","1.4","","82","","27","","26","","15.0","","99.40","","","","","",""
"-79.40","43.63","TORONTO ISLAND A","6158665","1997-12-25 16:00","1997","12","25","16:00","","3.7","","0.9","","82","","28","","32","","15.0","","99.50","","","","","",""
"-79.40","43.63","TORONTO ISLAND A","6158665","1997-12-25 17:00","1997","12","25","17:00","","3.2","","0.5","","82","","29","","20","","15.0","","99.60","","","","","",""
"-79.40","43.63","TORONTO ISLAND A","6158665","1997-12-25 18:00","1997","12","25","18:00","","2.5","","-1.0","","78","","28","","20","","15.0","","99.70","","","","","",""
"-79.40","43.63","TORONTO ISLAND A","6158665","1997-12-25 19:00","1997","12","25","19:00","","2.6","","-0.2","","82","","25","","19","","15.0","","99.77","","","","","",""
"-79.40","43.63","TORONTO ISLAND A","6158665","1997-12-25 20:00","1997","12","25","20:00","","2.6","","-0.4","","81","","27","","15","","15.0","","99.80","","","","","",""
"-79.40","43.63","TORONTO ISLAND A","6158665","1997-12-25 21:00","1997","12","25","21:00","","2.4","","-1.0","","78","","28","","15","","15.0","","99.83","","","","","",""
"-79.40","43.63","TORONTO ISLAND A","6158665","1997-12-25 22:00","1997","12","25","22:00","","2.3","","-1.0","","79","","26","","11","","15.0","","99.83","","","","","",""
"-79.40","43.63","TORONTO ISLAND A","6158665","1997-12-25 23:00","1997","12","25","23:00","","2.4","","-1.4","","76","","26","","13","","15.0","","99.80","","","","","",""
"-79.40","43.63","TORONTO ISLAND A","6158665","1997-12-26 00:00","1997","12","26","00:00","","2.3","","-1.5","","76","","27","","13","","15.0","","99.77","","","","","","Snow"
"-79.40","43.63","TORONTO ISLAND A","6158665","1997-12-26 01:00","1997","12","26","01:00","","2.0","","1.0","","93","","25","","15","","8.0","","99.73","","","","","","Rain"
"-79.40","43.63","TORONTO ISLAND A","6158665","1997-12-26 02:00","1997","12","26","02:00","","2.1","","1.3","","94","","24","","22","","9.7","","99.73","","","","","","Rain"
"-79.40","43.63","TORONTO ISLAND A","6158665","1997-12-26 03:00","1997","12","26","03:00","","2.4","","1.4","","93","","23","","24","","9.7","","99.77","","","","","","Rain"
"-79.40","43.63","TORONTO ISLAND A","6158665","1997-12-26 04:00","1997","12","26","04:00","","2.6","","1.5","","92","","24","","24","","11.3","","99.77","","","","","","Rain"
"-79.40","43.63","TORONTO ISLAND A","6158665","1997-12-26 05:00","1997","12","26","05:00","","2.1","","1.2","","94","","24","","28","","15.0","","99.77","","","","","","Drizzle"
"-79.40","43.63","TORONTO ISLAND A","6158665","1997-12-26 06:00","1997","12","26","06:00","","2.3","","1.1","","92","","24","","24","","15.0","","99.80","","","","","",""
"-79.40","43.63","TORONTO ISLAND A","6158665","1997-12-26 07:00","1997","12","26","07:00","","2.3","","0.3","","87","","24","","24","","15.0","","99.87","","","","","",""
"-79.40","43.63","TORONTO ISLAND A","6158665","1997-12-26 08:00","1997","12","26","08:00","","2.2","","0.3","","87","","24","","22","","15.0","","99.90","","","","","",""
"-79.40","43.63","TORONTO ISLAND A","6158665","1997-12-26 09:00","1997","12","26","09:00","","2.5","","0.6","","87","","23","","30","","15.0","","99.97","","","","","",""
"-79.40","43.63","TORONTO ISLAND A","6158665","1997-12-26 10:00","1997","12","26","10:00","","2.9","","0.9","","87","","23","","30","","15.0","","99.97","","","","","",""
"-79.40","43.63","TORONTO ISLAND A","6158665","1997-12-26 11:00","1997","12","26","11:00","","3.2","","0.9","","85","","23","","30","","15.0","","99.93","","","","","",""
"-79.40","43.63","TORONTO ISLAND A","6158665","1997-12-26 12:00","1997","12","26","12:00","","2.8","","1.0","","88","","23","","33","","9.7","","99.93","","","","","",""
"-79.40","43.63","TORONTO ISLAND A","6158665","1997-12-26 13:00","1997","12","26","13:00","","1.8","","0.7","","92","","26","","20","","6.4","","99.93","","","","","",""
"-79.40","43.63","TORONTO ISLAND A","6158665","1997-12-26 14:00","1997","12","26","14:00","","2.0","","0.5","","90","","27","","15","","11.3","","99.93","","","","","",""
"-79.40","43.63","TORONTO ISLAND A","6158665","1997-12-26 15:00","1997","12","26","15:00","","2.0","","-2.1","","74","","27","","32","","12.9","","99.97","","","","","",""
"-79.40","43.63","TORONTO ISLAND A","6158665","1997-12-26 16:00","1997","12","26","16:00","","1.9","","-1.7","","77","","26","","19","","9.7","","100.04","","","","","",""
"-79.40","43.63","TORONTO ISLAND A","6158665","1997-12-26 17:00","1997","12","26","17:00","","1.8","","-2.6","","73","","24","","33","","15.0","","","M","","","","",""
"-79.40","43.63","TORONTO ISLAND A","6158665","1997-12-26 18:00","1997","12","26","18:00","","1.5","","-2.3","","76","","25","","24","","15.0","","100.14","","","","","",""
"-79.40","43.63","TORONTO ISLAND A","6158665","1997-12-26 19:00","1997","12","26","19:00","","1.4","","-3.1","","72","","23","","35","","15.0","","100.17","","","","","",""
"-79.40","43.63","TORONTO ISLAND A","6158665","1997-12-26 20:00","1997","12","26","20:00","","1.2","","-2.7","","75","","23","","32","","12.9","","100.17","","","","","",""
"-79.40","43.63","TORONTO ISLAND A","6158665","1997-12-26 21:00","1997","12","26","21:00","","1.3","","-2.3","","77","","23","","35","","11.3","","100.17","","","","","",""
"-79.40","43.63","TORONTO ISLAND A","6158665","1997-12-26 22:00","1997","12","26","22:00","","1.4","","-2.4","","76","","23","","33","","11.3","","100.14","","","","","",""
"-79.40","43.63","TORONTO ISLAND A","6158665","1997-12-26 23:00","1997","12","26","23:00","","1.5","","-2.6","","74","","23","","41","","15.0","","100.10","","","","","",""
"-79.40","43.63","TORONTO ISLAND A","6158665","1997-12-27 00:00","1997","12","27","00:00","","1.4","","-2.9","","73","","24","","35","","15.0","","100.10","","","","","",""
"-79.40","43.63","TORONTO ISLAND A","6158665","1997-12-27 01:00","1997","12","27","01:00","","1.4","","-2.8","","74","","24","","37","","15.0","","100.07","","","","","",""
"-79.40","43.63","TORONTO ISLAND A","6158665","1997-12-27 02:00","1997","12","27","02:00","","1.5","","-2.8","","73","","23","","33","","15.0","","100.07","","","","","",""
"-79.40","43.63","TORONTO ISLAND A","6158665","1997-12-27 03:00","1997","12","27","03:00","","1.2","","-2.6","","76","","25","","26","","15.0","","100.04","","","","","",""
"-79.40","43.63","TORONTO ISLAND A","6158665","1997-12-27 04:00","1997","12","27","04:00","","1.2","","-2.1","","79","","25","","28","","12.9","","100.04","","","","","",""
"-79.40","43.63","TORONTO ISLAND A","6158665","1997-12-27 05:00","1997","12","27","05:00","","1.3","","-1.7","","80","","24","","30","","12.9","","100.00","","","","","","Snow"
"-79.40","43.63","TORONTO ISLAND A","6158665","1997-12-27 06:00","1997","12","27","06:00","","0.6","","-2.3","","81","","26","","22","","12.9","","99.97","","","","","",""
"-79.40","43.63","TORONTO ISLAND A","6158665","1997-12-27 07:00","1997","12","27","07:00","","0.2","","-2.9","","80","","26","","20","","15.0","","100.04","","","","","",""
"-79.40","43.63","TORONTO ISLAND A","6158665","1997-12-27 08:00","1997","12","27","08:00","","-0.1","","-3.2","","80","","26","","19","","15.0","","100.04","","","","-5","",""
"-79.40","43.63","TORONTO ISLAND A","6158665","1997-12-27 09:00","1997","12","27","09:00","","0.1","","-3.5","","77","","28","","22","","15.0","","100.10","","","","","",""
"-79.40","43.63","TORONTO ISLAND A","6158665","1997-12-27 10:00","1997","12","27","10:00","","1.3","","-3.4","","71","","27","","19","","15.0","","100.10","","","","","",""
"-79.40","43.63","TORONTO ISLAND A","6158665","1997-12-27 11:00","1997","12","27","11:00","","2.2","","-3.5","","66","","30","","20","","15.0","","100.04","","","","","",""
"-79.40","43.63","TORONTO ISLAND A","6158665","1997-12-27 12:00","1997","12","27","12:00","","3.0","","-3.3","","63","","24","","11","","15.0","","99.97","","","","","",""
"-79.40","43.63","TORONTO ISLAND A","6158665","1997-12-27 13:00","1997","12","27","13:00","","3.9","","-3.7","","58","","29","","20","","15.0","","99.93","","","","","",""
"-79.40","43.63","TORONTO ISLAND A","6158665","1997-12-27 14:00","1997","12","27","14:00","","2.8","","-6.9","","49","","32","","24","","15.0","","99.90","","","","","",""
"-79.40","43.63","TORONTO ISLAND A","6158665","1997-12-27 15:00","1997","12","27","15:00","","3.0","","-6.5","","50","","32","","11","","15.0","","99.90","","","","","",""
"-79.40","43.63","TORONTO ISLAND A","6158665","1997-12-27 16:00","1997","12","27","16:00","","2.5","","-6.7","","51","","33","","13","","15.0","","99.93","","","","","",""
"-79.40","43.63","TORONTO ISLAND A","6158665","1997-12-27 17:00","1997","12","27","17:00","","1.6","","-6.7","","54","","34","","17","","15.0","","99.97","","","","","",""
"-79.40","43.63","TORONTO ISLAND A","6158665","1997-12-27 18:00","1997","12","27","18:00","","0.2","","-7.5","","56","","32","","13","","15.0","","100.00","","","","","",""
"-79.40","43.63","TORONTO ISLAND A","6158665","1997-12-27 19:00","1997","12","27","19:00","","-0.1","","-7.1","","59","","32","","20","","15.0","","","M","","","-5","",""
"-79.40","43.63","TORONTO ISLAND A","6158665","1997-12-27 20:00","1997","12","27","20:00","","-1.1","","-6.0","","69","","32","","17","","15.0","","100.07","","","","-6","",""
"-79.40","43.63","TORONTO ISLAND A","6158665","1997-12-27 21:00","1997","12","27","21:00","","-1.5","","-5.2","","76","","32","","17","","15.0","","100.14","","","","-7","",""
"-79.40","43.63","TORONTO ISLAND A","6158665","1997-12-27 22:00","1997","12","27","22:00","","-2.1","","-5.6","","77","","33","","13","","15.0","","100.17","","","","-7","",""
"-79.40","43.63","TORONTO ISLAND A","6158665","1997-12-27 23:00","1997","12","27","23:00","","-2.8","","-6.7","","74","","32","","19","","15.0","","100.17","","","","-9","",""
"-79.40","43.63","TORONTO ISLAND A","6158665","1997-12-28 00:00","1997","12","28","00:00","","-3.2","","-6.9","","76","","32","","13","","15.0","","100.20","","","","-8","",""
"-79.40","43.63","TORONTO ISLAND A","6158665","1997-12-28 01:00","1997","12","28","01:00","","-3.7","","-7.4","","75","","32","","13","","15.0","","","M","","","-9","",""
"-79.40","43.63","TORONTO ISLAND A","6158665","1997-12-28 02:00","1997","12","28","02:00","","-4.3","","-7.9","","76","","33","","9","","15.0","","100.27","","","","-8","",""
"-79.40","43.63","TORONTO ISLAND A","6158665","1997-12-28 03:00","1997","12","28","03:00","","-5.1","","-7.9","","81","","30","","15","","15.0","","100.37","","","","-11","",""
"-79.40","43.63","TORONTO ISLAND A","6158665","1997-12-28 04:00","1997","12","28","04:00","","-6.5","","-9.0","","82","","34","","15","","15.0","","100.37","","","","-12","",""
"-79.40","43.63","TORONTO ISLAND A","6158665","1997-12-28 05:00","1997","12","28","05:00","","-6.9","","-9.4","","82","","31","","11","","15.0","","100.34","","","","-12","",""
"-79.40","43.63","TORONTO ISLAND A","6158665","1997-12-28 06:00","1997","12","28","06:00","","-7.2","","-9.4","","84","","31","","9","","15.0","","100.37","","","","-12","",""
"-79.40","43.63","TORONTO ISLAND A","6158665","1997-12-28 07:00","1997","12","28","07:00","","-6.8","","-8.8","","86","","30","","9","","15.0","","100.44","","","","-11","",""
"-79.40","43.63","TORONTO ISLAND A","6158665","1997-12-28 08:00","1997","12","28","08:00","","-6.6","","-9.5","","80","","34","","7","","15.0","","100.51","","","","-10","",""
"-79.40","43.63","TORONTO ISLAND A","6158665","1997-12-28 09:00","1997","12","28","09:00","","-6.0","","-9.3","","77","","33","","9","","15.0","","100.54","","","","-10","",""
"-79.40","43.63","TORONTO ISLAND A","6158665","1997-12-28 10:00","1997","12","28","10:00","","-4.4","","-8.7","","72","","","","0","","15.0","","100.54","","","","","",""
"-79.40","43.63","TORONTO ISLAND A","6158665","1997-12-28 11:00","1997","12","28","11:00","","-4.0","","-8.1","","73","","24","","11","","15.0","","100.54","","","","-8","",""
"-79.40","43.63","TORONTO ISLAND A","6158665","1997-12-28 12:00","1997","12","28","12:00","","-3.0","","-8.7","","65","","22","","9","","15.0","","100.47","","","","-7","",""
"-79.40","43.63","TORONTO ISLAND A","6158665","1997-12-28 13:00","1997","12","28","13:00","","-1.8","","-7.7","","64","","22","","11","","15.0","","100.44","","","","-6","",""
"-79.40","43.63","TORONTO ISLAND A","6158665","1997-12-28 14:00","1997","12","28","14:00","","-1.1","","-8.1","","59","","22","","19","","15.0","","100.37","","","","-6","",""
"-79.40","43.63","TORONTO ISLAND A","6158665","1997-12-28 15:00","1997","12","28","15:00","","-0.6","","-8.2","","56","","22","","15","","15.0","","100.37","","","","-5","",""
"-79.40","43.63","TORONTO ISLAND A","6158665","1997-12-28 16:00","1997","12","28","16:00","","-1.1","","-7.7","","61","","24","","11","","15.0","","","M","","","-5","",""
"-79.40","43.63","TORONTO ISLAND A","6158665","1997-12-28 17:00","1997","12","28","17:00","","-0.7","","-7.1","","62","","22","","17","","15.0","","100.34","","","","-6","",""
"-79.40","43.63","TORONTO ISLAND A","6158665","1997-12-28 18:00","1997","12","28","18:00","","-0.3","","-6.2","","64","","22","","15","","15.0","","100.34","","","","-5","",""
"-79.40","43.63","TORONTO ISLAND A","6158665","1997-12-28 19:00","1997","12","28","19:00","","0.5","","-5.9","","62","","21","","22","","15.0","","100.27","","","","","",""
"-79.40","43.63","TORONTO ISLAND A","6158665","1997-12-28 20:00","1997","12","28","20:00","","0.9","","-5.9","","60","","21","","28","","15.0","","100.24","","","","","",""
"-79.40","43.63","TORONTO ISLAND A","6158665","1997-12-28 21:00","1997","12","28","21:00","","1.0","","-5.1","","64","","21","","28","","15.0","","100.24","","","","","",""
"-79.40","43.63","TORONTO ISLAND A","6158665","1997-12-28 22:00","1997","12","28","22:00","","1.1","","-4.9","","64","","19","","26","","15.0","","100.20","","","","","",""
"-79.40","43.63","TORONTO ISLAND A","6158665","1997-12-28 23:00","1997","12","28","23:00","","1.1","","-3.8","","70","","18","","24","","15.0","","100.14","","","","","",""
"-79.40","43.63","TORONTO ISLAND A","6158665","1997-12-29 00:00","1997","12","29","00:00","","1.4","","-4.3","","66","","19","","30","","15.0","","100.10","","","","","",""
"-79.40","43.63","TORONTO ISLAND A","6158665","1997-12-29 01:00","1997","12","29","01:00","","1.4","","-3.3","","71","","21","","24","","15.0","","100.07","","","","","",""
"-79.40","43.63","TORONTO ISLAND A","6158665","1997-12-29 02:00","1997","12","29","02:00","","1.3","","-3.4","","71","","20","","28","","15.0","","100.04","","","","","",""
"-79.40","43.63","TORONTO ISLAND A","6158665","1997-12-29 03:00","1997","12","29","03:00","","1.1","","-3.5","","71","","21","","28","","15.0","","","M","","","","",""
"-79.40","43.63","TORONTO ISLAND A","6158665","1997-12-29 04:00","1997","12","29","04:00","","1.2","","-4.5","","66","","21","","32","","15.0","","99.90","","","","","",""
"-79.40","43.63","TORONTO ISLAND A","6158665","1997-12-29 05:00","1997","12","29","05:00","","1.2","","-3.8","","69","","22","","26","","15.0","","99.83","","","","","",""
"-79.40","43.63","TORONTO ISLAND A","6158665","1997-12-29 06:00","1997","12","29","06:00","","1.2","","-4.0","","68","","21","","30","","15.0","","99.83","","","","","",""
"-79.40","43.63","TORONTO ISLAND A","6158665","1997-12-29 07:00","1997","12","29","07:00","","1.2","","-4.3","","67","","21","","24","","15.0","","99.83","","","","","",""
"-79.40","43.63","TORONTO ISLAND A","6158665","1997-12-29 08:00","1997","12","29","08:00","","1.1","","-4.1","","68","","19","","30","","15.0","","99.87","","","","","",""
"-79.40","43.63","TORONTO ISLAND A","6158665","1997-12-29 09:00","1997","12","29","09:00","","1.1","","-4.3","","67","","20","","30","","15.0","","99.87","","","","","",""
"-79.40","43.63","TORONTO ISLAND A","6158665","1997-12-29 10:00","1997","12","29","10:00","","1.3","","-4.5","","65","","21","","24","","15.0","","99.83","","","","","",""
"-79.40","43.63","TORONTO ISLAND A","6158665","1997-12-29 11:00","1997","12","29","11:00","","1.4","","-3.7","","69","","21","","20","","15.0","","99.77","","","","","",""
"-79.40","43.63","TORONTO ISLAND A","6158665","1997-12-29 12:00","1997","12","29","12:00","","1.8","","-3.6","","67","","19","","17","","15.0","","99.67","","","","","",""
"-79.40","43.63","TORONTO ISLAND A","6158665","1997-12-29 13:00","1997","12","29","13:00","","1.8","","-3.9","","66","","17","","7","","15.0","","99.60","","","","","",""
"-79.40","43.63","TORONTO ISLAND A","6158665","1997-12-29 14:00","1997","12","29","14:00","","1.8","","-4.0","","65","","","","0","","15.0","","99.50","","","","","",""
"-79.40","43.63","TORONTO ISLAND A","6158665","1997-12-29 15:00","1997","12","29","15:00","","1.4","","-3.9","","68","","15","","6","","15.0","","99.43","","","","","",""
"-79.40","43.63","TORONTO ISLAND A","6158665","1997-12-29 16:00","1997","12","29","16:00","","1.3","","-4.0","","68","","12","","13","","15.0","","99.46","","","","","",""
"-79.40","43.63","TORONTO ISLAND A","6158665","1997-12-29 17:00","1997","12","29","17:00","","1.4","","-4.3","","66","","11","","11","","15.0","","99.46","","","","","",""
"-79.40","43.63","TORONTO ISLAND A","6158665","1997-12-29 18:00","1997","12","29","18:00","","1.3","","-4.6","","65","","10","","9","","15.0","","99.40","","","","","",""
"-79.40","43.63","TORONTO ISLAND A","6158665","1997-12-29 19:00","1997","12","29","19:00","","1.2","","-3.7","","70","","5","","15","","15.0","","99.26","","","","","",""
"-79.40","43.63","TORONTO ISLAND A","6158665","1997-12-29 20:00","1997","12","29","20:00","","1.4","","-3.8","","68","","4","","13","","15.0","","99.16","","","","","",""
"-79.40","43.63","TORONTO ISLAND A","6158665","1997-12-29 21:00","1997","12","29","21:00","","0.8","","-4.3","","69","","36","","19","","15.0","","98.99","","","","","",""
"-79.40","43.63","TORONTO ISLAND A","6158665","1997-12-29 22:00","1997","12","29","22:00","","0.9","","-4.3","","68","","1","","19","","15.0","","98.89","","","","","",""
"-79.40","43.63","TORONTO ISLAND A","6158665","1997-12-29 23:00","1997","12","29","23:00","","0.7","","-4.3","","69","","36","","22","","15.0","","98.79","","","","","",""
"-79.40","43.63","TORONTO ISLAND A","6158665","1997-12-30 00:00","1997","12","30","00:00","","0.4","","-4.6","","69","","36","","22","","15.0","","98.66","","","","","",""
"-79.40","43.63","TORONTO ISLAND A","6158665","1997-12-30 01:00","1997","12","30","01:00","","0.5","","-4.8","","68","","35","","20","","15.0","","98.59","","","","","",""
"-79.40","43.63","TORONTO ISLAND A","6158665","1997-12-30 02:00","1997","12","30","02:00","","0.3","","-5.0","","68","","33","","19","","15.0","","98.49","","","","","",""
"-79.40","43.63","TORONTO ISLAND A","6158665","1997-12-30 03:00","1997","12","30","03:00","","-0.2","","-5.0","","70","","34","","19","","15.0","","98.39","","","","-5","",""
"-79.40","43.63","TORONTO ISLAND A","6158665","1997-12-30 04:00","1997","12","30","04:00","","-0.1","","-5.0","","70","","35","","22","","15.0","","98.22","","","","-6","",""
"-79.40","43.63","TORONTO ISLAND A","6158665","1997-12-30 05:00","1997","12","30","05:00","","-0.3","","-6.2","","64","","32","","24","","15.0","","98.09","","","","-6","",""
"-79.40","43.63","TORONTO ISLAND A","6158665","1997-12-30 06:00","1997","12","30","06:00","","-0.8","","-6.8","","64","","34","","20","","15.0","","98.09","","","","-6","",""
"-79.40","43.63","TORONTO ISLAND A","6158665","1997-12-30 07:00","1997","12","30","07:00","","-0.6","","-7.1","","61","","33","","20","","15.0","","98.12","","","","-6","",""
"-79.40","43.63","TORONTO ISLAND A","6158665","1997-12-30 08:00","1997","12","30","08:00","","-2.1","","-4.5","","84","","32","","19","","2.1","","98.15","","","","-8","","Snow"
"-79.40","43.63","TORONTO ISLAND A","6158665","1997-12-30 09:00","1997","12","30","09:00","","-2.1","","-3.3","","91","","31","","17","","2.3","","98.19","","","","-7","","Snow"
"-79.40","43.63","TORONTO ISLAND A","6158665","1997-12-30 10:00","1997","12","30","10:00","","-1.5","","-2.9","","90","","31","","20","","4.8","","98.19","","","","-7","","Snow"
"-79.40","43.63","TORONTO ISLAND A","6158665","1997-12-30 11:00","1997","12","30","11:00","","-0.8","","-2.2","","90","","29","","24","","3.2","","98.19","","","","-7","","Snow"
"-79.40","43.63","TORONTO ISLAND A","6158665","1997-12-30 12:00","1997","12","30","12:00","","-0.7","","-3.7","","80","","31","","32","","6.4","","98.19","","","","-8","","Snow"
"-79.40","43.63","TORONTO ISLAND A","6158665","1997-12-30 13:00","1997","12","30","13:00","","-0.9","","-5.3","","72","","30","","35","","15.0","","98.22","","","","-8","",""
"-79.40","43.63","TORONTO ISLAND A","6158665","1997-12-30 14:00","1997","12","30","14:00","","-0.9","","-6.1","","68","","29","","33","","15.0","","98.25","","","","-8","",""
"-79.40","43.63","TORONTO ISLAND A","6158665","1997-12-30 15:00","1997","12","30","15:00","","-1.4","","-7.1","","65","","30","","30","","15.0","","98.35","","","","-8","",""
"-79.40","43.63","TORONTO ISLAND A","6158665","1997-12-30 16:00","1997","12","30","16:00","","-2.0","","-8.2","","62","","29","","30","","15.0","","98.46","","","","-9","",""
"-79.40","43.63","TORONTO ISLAND A","6158665","1997-12-30 17:00","1997","12","30","17:00","","-2.8","","-8.7","","64","","29","","28","","15.0","","98.59","","","","-10","",""
"-79.40","43.63","TORONTO ISLAND A","6158665","1997-12-30 18:00","1997","12","30","18:00","","-3.2","","-8.8","","65","","29","","28","","15.0","","98.69","","","","-10","",""
"-79.40","43.63","TORONTO ISLAND A","6158665","1997-12-30 19:00","1997","12","30","19:00","","-3.9","","-9.4","","66","","32","","20","","15.0","","98.83","","","","-10","",""
"-79.40","43.63","TORONTO ISLAND A","6158665","1997-12-30 20:00","1997","12","30","20:00","","-4.8","","-10.9","","62","","29","","28","","15.0","","98.96","","","","-12","",""
"-79.40","43.63","TORONTO ISLAND A","6158665","1997-12-30 21:00","1997","12","30","21:00","","-5.7","","-11.8","","62","","31","","30","","15.0","","99.06","","","","-14","",""
"-79.40","43.63","TORONTO ISLAND A","6158665","1997-12-30 22:00","1997","12","30","22:00","","-6.9","","-11.2","","71","","32","","19","","15.0","","99.16","","","","-14","","Snow"
"-79.40","43.63","TORONTO ISLAND A","6158665","1997-12-30 23:00","1997","12","30","23:00","","-9.1","","-13.9","","68","","32","","28","","15.0","","99.26","","","","-18","",""
"-79.40","43.63","TORONTO ISLAND A","6158665","1997-12-31 00:00","1997","12","31","00:00","","-9.5","","-14.1","","69","","32","","20","","15.0","","99.36","","","","-17","","Snow"
"-79.40","43.63","TORONTO ISLAND A","6158665","1997-12-31 01:00","1997","12","31","01:00","","-10.3","","-15.2","","67","","32","","22","","15.0","","99.46","","","","-19","","Snow"
"-79.40","43.63","TORONTO ISLAND A","6158665","1997-12-31 02:00","1997","12","31","02:00","","-11.1","","-16.1","","67","","33","","33","","15.0","","99.56","","","","-21","",""
"-79.40","43.63","TORONTO ISLAND A","6158665","1997-12-31 03:00","1997","12","31","03:00","","-11.8","","-17.9","","60","","33","","22","","15.0","","99.70","","","","-21","",""
"-79.40","43.63","TORONTO ISLAND A","6158665","1997-12-31 04:00","1997","12","31","04:00","","-12.2","","-18.4","","60","","35","","32","","15.0","","99.80","","","","-23","",""
"-79.40","43.63","TORONTO ISLAND A","6158665","1997-12-31 05:00","1997","12","31","05:00","","-13.2","","-19.4","","60","","32","","26","","15.0","","99.93","","","","-23","",""
"-79.40","43.63","TORONTO ISLAND A","6158665","1997-12-31 06:00","1997","12","31","06:00","","-14.3","","-19.6","","64","","34","","30","","15.0","","100.10","","","","-25","",""
"-79.40","43.63","TORONTO ISLAND A","6158665","1997-12-31 07:00","1997","12","31","07:00","","-15.5","","-19.8","","70","","32","","28","","15.0","","100.30","","","","-26","",""
"-79.40","43.63","TORONTO ISLAND A","6158665","1997-12-31 08:00","1997","12","31","08:00","","-15.7","","-19.5","","73","","32","","22","","15.0","","100.51","","","","-25","",""
"-79.40","43.63","TORONTO ISLAND A","6158665","1997-12-31 09:00","1997","12","31","09:00","","-14.7","","-19.0","","70","","32","","19","","15.0","","100.67","","","","-24","",""
"-79.40","43.63","TORONTO ISLAND A","6158665","1997-12-31 10:00","1997","12","31","10:00","","-13.7","","-19.9","","59","","31","","24","","15.0","","100.77","","","","-23","",""
"-79.40","43.63","TORONTO ISLAND A","6158665","1997-12-31 11:00","1997","12","31","11:00","","-12.5","","-21.4","","47","","32","","28","","15.0","","100.84","","","","-22","",""
"-79.40","43.63","TORONTO ISLAND A","6158665","1997-12-31 12:00","1997","12","31","12:00","","-11.7","","-20.0","","50","","31","","24","","15.0","","100.88","","","","-21","",""
"-79.40","43.63","TORONTO ISLAND A","6158665","1997-12-31 13:00","1997","12","31","13:00","","-11.7","","-21.6","","44","","30","","26","","15.0","","100.94","","","","-21","",""
"-79.40","43.63","TORONTO ISLAND A","6158665","1997-12-31 14:00","1997","12","31","14:00","","-11.4","","-20.5","","47","","32","","24","","15.0","","101.04","","","","-20","",""
"-79.40","43.63","TORONTO ISLAND A","6158665","1997-12-31 15:00","1997","12","31","15:00","","-10.7","","-19.7","","48","","28","","17","","15.0","","101.14","","","","-18","",""
"-79.40","43.63","TORONTO ISLAND A","6158665","1997-12-31 16:00","1997","12","31","16:00","","-11.1","","-19.6","","49","","32","","11","","15.0","","101.25","","","","-17","",""
"-79.40","43.63","TORONTO ISLAND A","6158665","1997-12-31 17:00","1997","12","31","17:00","","-11.4","","-19.4","","52","","30","","11","","15.0","","101.38","","","","-17","",""
"-79.40","43.63","TORONTO ISLAND A","6158665","1997-12-31 18:00","1997","12","31","18:00","","-11.1","","-19.3","","51","","28","","15","","15.0","","101.45","","","","-18","",""
"-79.40","43.63","TORONTO ISLAND A","6158665","1997-12-31 19:00","1997","12","31","19:00","","-11.6","","-18.9","","55","","31","","13","","15.0","","101.51","","","","-18","",""
"-79.40","43.63","TORONTO ISLAND A","6158665","1997-12-31 20:00","1997","12","31","20:00","","-11.1","","-17.9","","57","","28","","17","","15.0","","101.58","","","","-19","",""
"-79.40","43.63","TORONTO ISLAND A","6158665","1997-12-31 21:00","1997","12","31","21:00","","-11.2","","-16.7","","64","","27","","20","","15.0","","101.65","","","","-19","",""
"-79.40","43.63","TORONTO ISLAND A","6158665","1997-12-31 22:00","1997","12","31","22:00","","-11.4","","-16.5","","66","","27","","17","","15.0","","101.65","","","","-19","",""
"-79.40","43.63","TORONTO ISLAND A","6158665","1997-12-31 23:00","1997","12","31","23:00","","-11.1","","-14.7","","75","","28","","15","","15.0","","101.68","","","","-18","",""
