"Longitude (x)","Latitude (y)","Station Name","Climate ID","Date/Time (LST)","Year","Month","Day","Time (LST)","Flag","Temp (°C)","Temp Flag","Dew Point Temp (°C)","Dew Point Temp Flag","Rel Hum (%)","Rel Hum Flag","Wind Dir (10s deg)","Wind Dir Flag","Wind Spd (km/h)","Wind Spd Flag","Visibility (km)","Visibility Flag","Stn Press (kPa)","Stn Press Flag","Hmdx","Hmdx Flag","Wind Chill","Wind Chill Flag","Weather"
"-79.40","43.63","TORONTO ISLAND A","6158665","1992-03-01 00:00","1992","03","01","00:00","","","","","","","","24","","30","","","","","","","","","","NA"
"-79.40","43.63","TORONTO ISLAND A","6158665","1992-03-01 01:00","1992","03","01","01:00","","","","","","","","24","","31","","","","","","","","","","NA"
"-79.40","43.63","TORONTO ISLAND A","6158665","1992-03-01 02:00","1992","03","01","02:00","","","","","","","","24","","31","","","","","","","","","","NA"
"-79.40","43.63","TORONTO ISLAND A","6158665","1992-03-01 03:00","1992","03","01","03:00","","","","","","","","24","","37","","","","","","","","","","NA"
"-79.40","43.63","TORONTO ISLAND A","6158665","1992-03-01 04:00","1992","03","01","04:00","","","","","","","","24","","33","","","","","","","","","","NA"
"-79.40","43.63","TORONTO ISLAND A","6158665","1992-03-01 05:00","1992","03","01","05:00","","","","","","","","25","","33","","","","","","","","","","NA"
"-79.40","43.63","TORONTO ISLAND A","6158665","1992-03-01 06:00","1992","03","01","06:00","","","","","","","","25","","30","","","","","","","","","","NA"
"-79.40","43.63","TORONTO ISLAND A","6158665","1992-03-01 07:00","1992","03","01","07:00","","1.4","","-3.9","","68","","24","","30","","24.1","","99.94","","","","","","Cloudy"
"-79.40","43.63","TORONTO ISLAND A","6158665","1992-03-01 08:00","1992","03","01","08:00","","1.7","","-3.3","","69","","24","","28","","19.3","","99.98","","","","","","Cloudy"
"-79.40","43.63","TORONTO ISLAND A","6158665","1992-03-01 09:00","1992","03","01","09:00","","1.9","","-2.1","","75","","23","","28","","16.1","","99.98","","","","","","Cloudy"
"-79.40","43.63","TORONTO ISLAND A","6158665","1992-03-01 10:00","1992","03","01","10:00","","2.3","","-1.6","","75","","23","","24","","14.5","","100.01","","","","","","Cloudy"
"-79.40","43.63","TORONTO ISLAND A","6158665","1992-03-01 11:00","1992","03","01","11:00","","2.5","","-1.0","","78","","23","","28","","14.5","","100.01","","","","","","Cloudy"
"-79.40","43.63","TORONTO ISLAND A","6158665","1992-03-01 12:00","1992","03","01","12:00","","2.8","","-0.5","","79","","23","","22","","14.5","","100.08","","","","","","Cloudy"
"-79.40","43.63","TORONTO ISLAND A","6158665","1992-03-01 13:00","1992","03","01","13:00","","3.2","","0.3","","81","","23","","19","","14.5","","100.01","","","","","","Cloudy"
"-79.40","43.63","TORONTO ISLAND A","6158665","1992-03-01 14:00","1992","03","01","14:00","","5.1","","0.3","","71","","27","","19","","14.5","","100.01","","","","","","Cloudy"
"-79.40","43.63","TORONTO ISLAND A","6158665","1992-03-01 15:00","1992","03","01","15:00","","5.5","","0.4","","70","","28","","22","","16.1","","100.08","","","","","","Cloudy"
"-79.40","43.63","TORONTO ISLAND A","6158665","1992-03-01 16:00","1992","03","01","16:00","","5.2","","0.5","","71","","27","","15","","16.1","","100.18","","","","","","Cloudy"
"-79.40","43.63","TORONTO ISLAND A","6158665","1992-03-01 17:00","1992","03","01","17:00","","5.3","","0.7","","72","","30","","15","","12.9","","100.25","","","","","","Cloudy"
"-79.40","43.63","TORONTO ISLAND A","6158665","1992-03-01 18:00","1992","03","01","18:00","","4.9","","1.0","","76","","30","","9","","9.7","","100.38","","","","","","Haze"
"-79.40","43.63","TORONTO ISLAND A","6158665","1992-03-01 19:00","1992","03","01","19:00","","5.0","","0.9","","75","","2","","15","","16.1","","100.55","","","","","","Cloudy"
"-79.40","43.63","TORONTO ISLAND A","6158665","1992-03-01 20:00","1992","03","01","20:00","","3.2","","0.0","","79","","2","","15","","24.1","","100.75","","","","","","Cloudy"
"-79.40","43.63","TORONTO ISLAND A","6158665","1992-03-01 21:00","1992","03","01","21:00","","2.1","","-1.5","","77","","2","","19","","24.1","","100.85","","","","","","Cloudy"
"-79.40","43.63","TORONTO ISLAND A","6158665","1992-03-01 22:00","1992","03","01","22:00","","2.0","","-2.1","","74","","7","","13","","24.1","","100.95","","","","","","Cloudy"
"-79.40","43.63","TORONTO ISLAND A","6158665","1992-03-01 23:00","1992","03","01","23:00","","","","","","","","5","","17","","","","","","","","","","NA"
"-79.40","43.63","TORONTO ISLAND A","6158665","1992-03-02 00:00","1992","03","02","00:00","","","","","","","","7","","19","","","","","","","","","","NA"
"-79.40","43.63","TORONTO ISLAND A","6158665","1992-03-02 01:00","1992","03","02","01:00","","","","","","","","7","","30","","","","","","","","","","NA"
"-79.40","43.63","TORONTO ISLAND A","6158665","1992-03-02 02:00","1992","03","02","02:00","","","","","","","","8","","41","","","","","","","","","","NA"
"-79.40","43.63","TORONTO ISLAND A","6158665","1992-03-02 03:00","1992","03","02","03:00","","","","","","","","9","","44","","","","","","","","","","NA"
"-79.40","43.63","TORONTO ISLAND A","6158665","1992-03-02 04:00","1992","03","02","04:00","","","","","","","","7","","41","","","","","","","","","","NA"
"-79.40","43.63","TORONTO ISLAND A","6158665","1992-03-02 05:00","1992","03","02","05:00","","","","","","","","7","","43","","","","","","","","","","NA"
"-79.40","43.63","TORONTO ISLAND A","6158665","1992-03-02 06:00","1992","03","02","06:00","","","","","","","","7","","41","","","","","","","","","","NA"
"-79.40","43.63","TORONTO ISLAND A","6158665","1992-03-02 07:00","1992","03","02","07:00","","-4.7","","-9.6","","68","","7","","35","","25.0","","101.42","","","","-13","","Cloudy"
"-79.40","43.63","TORONTO ISLAND A","6158665","1992-03-02 08:00","1992","03","02","08:00","","-4.7","","-8.8","","73","","7","","39","","25.0","","101.46","","","","-14","","Cloudy"
"-79.40","43.63","TORONTO ISLAND A","6158665","1992-03-02 09:00","1992","03","02","09:00","","-4.9","","-8.7","","74","","8","","41","","25.0","","101.52","","","","-14","","Cloudy"
"-79.40","43.63","TORONTO ISLAND A","6158665","1992-03-02 10:00","1992","03","02","10:00","","-5.0","","-8.7","","75","","7","","33","","25.0","","101.52","","","","-13","","Cloudy"
"-79.40","43.63","TORONTO ISLAND A","6158665","1992-03-02 11:00","1992","03","02","11:00","","-5.1","","-8.7","","76","","6","","31","","24.1","","101.52","","","","-13","","Cloudy"
"-79.40","43.63","TORONTO ISLAND A","6158665","1992-03-02 12:00","1992","03","02","12:00","","-4.8","","-8.2","","77","","6","","33","","24.1","","101.46","","","","-13","","Cloudy"
"-79.40","43.63","TORONTO ISLAND A","6158665","1992-03-02 13:00","1992","03","02","13:00","","-4.3","","-8.1","","74","","7","","31","","24.1","","101.36","","","","-12","","Cloudy"
"-79.40","43.63","TORONTO ISLAND A","6158665","1992-03-02 14:00","1992","03","02","14:00","","-3.9","","-8.8","","69","","7","","30","","25.0","","101.29","","","","-12","","Cloudy"
"-79.40","43.63","TORONTO ISLAND A","6158665","1992-03-02 15:00","1992","03","02","15:00","","-3.3","","-9.2","","63","","7","","22","","25.0","","101.29","","","","-10","","Cloudy"
"-79.40","43.63","TORONTO ISLAND A","6158665","1992-03-02 16:00","1992","03","02","16:00","","-3.2","","-9.1","","64","","7","","22","","25.0","","101.26","","","","-10","","Cloudy"
"-79.40","43.63","TORONTO ISLAND A","6158665","1992-03-02 17:00","1992","03","02","17:00","","-2.7","","-8.6","","64","","7","","19","","25.0","","101.26","","","","-8","","Cloudy"
"-79.40","43.63","TORONTO ISLAND A","6158665","1992-03-02 18:00","1992","03","02","18:00","","-2.6","","-9.4","","59","","6","","13","","25.0","","101.29","","","","-7","","Cloudy"
"-79.40","43.63","TORONTO ISLAND A","6158665","1992-03-02 19:00","1992","03","02","19:00","","-2.4","","-9.5","","58","","5","","11","","25.0","","101.32","","","","-6","","Cloudy"
"-79.40","43.63","TORONTO ISLAND A","6158665","1992-03-02 20:00","1992","03","02","20:00","","-2.4","","-9.7","","57","","6","","15","","25.0","","101.39","","","","-7","","Cloudy"
"-79.40","43.63","TORONTO ISLAND A","6158665","1992-03-02 21:00","1992","03","02","21:00","","-2.1","","-9.2","","58","","5","","9","","25.0","","101.39","","","","-6","","Cloudy"
"-79.40","43.63","TORONTO ISLAND A","6158665","1992-03-02 22:00","1992","03","02","22:00","","-2.4","","-11.0","","51","","7","","7","","25.0","","101.39","","","","-5","","Cloudy"
"-79.40","43.63","TORONTO ISLAND A","6158665","1992-03-02 23:00","1992","03","02","23:00","","","","","","","","8","","9","","","","","","","","","","NA"
"-79.40","43.63","TORONTO ISLAND A","6158665","1992-03-03 00:00","1992","03","03","00:00","","","","","","","","6","","9","","","","","","","","","","NA"
"-79.40","43.63","TORONTO ISLAND A","6158665","1992-03-03 01:00","1992","03","03","01:00","","","","","","","","36","","9","","","","","","","","","","NA"
"-79.40","43.63","TORONTO ISLAND A","6158665","1992-03-03 02:00","1992","03","03","02:00","","","","","","","","2","","6","","","","","","","","","","NA"
"-79.40","43.63","TORONTO ISLAND A","6158665","1992-03-03 03:00","1992","03","03","03:00","","","","","","","","2","","7","","","","","","","","","","NA"
"-79.40","43.63","TORONTO ISLAND A","6158665","1992-03-03 04:00","1992","03","03","04:00","","","","","","","","1","","11","","","","","","","","","","NA"
"-79.40","43.63","TORONTO ISLAND A","6158665","1992-03-03 05:00","1992","03","03","05:00","","","","","","","","2","","9","","","","","","","","","","NA"
"-79.40","43.63","TORONTO ISLAND A","6158665","1992-03-03 06:00","1992","03","03","06:00","","","","","","","","1","","11","","","","","","","","","","NA"
"-79.40","43.63","TORONTO ISLAND A","6158665","1992-03-03 07:00","1992","03","03","07:00","","-3.6","","-14.4","","43","","1","","4","","24.1","","101.66","","","","-5","","Mainly Clear"
"-79.40","43.63","TORONTO ISLAND A","6158665","1992-03-03 08:00","1992","03","03","08:00","","-3.6","","-11.5","","54","","10","","9","","25.0","","101.69","","","","-7","","Clear"
"-79.40","43.63","TORONTO ISLAND A","6158665","1992-03-03 09:00","1992","03","03","09:00","","-2.5","","-12.1","","47","","10","","13","","24.1","","101.76","","","","-7","","Clear"
"-79.40","43.63","TORONTO ISLAND A","6158665","1992-03-03 10:00","1992","03","03","10:00","","-2.4","","-11.6","","49","","9","","17","","24.1","","101.79","","","","-8","","Clear"
"-79.40","43.63","TORONTO ISLAND A","6158665","1992-03-03 11:00","1992","03","03","11:00","","-1.5","","-10.4","","51","","8","","17","","25.0","","101.79","","","","-7","","Clear"
"-79.40","43.63","TORONTO ISLAND A","6158665","1992-03-03 12:00","1992","03","03","12:00","","-0.2","","-8.5","","53","","12","","6","","25.0","","101.79","","","","-2","","Mainly Clear"
"-79.40","43.63","TORONTO ISLAND A","6158665","1992-03-03 13:00","1992","03","03","13:00","","-0.8","","-10.2","","49","","9","","15","","25.0","","101.76","","","","-5","","Mainly Clear"
"-79.40","43.63","TORONTO ISLAND A","6158665","1992-03-03 14:00","1992","03","03","14:00","","-0.5","","-9.9","","49","","14","","11","","25.0","","101.66","","","","-4","","Mostly Cloudy"
"-79.40","43.63","TORONTO ISLAND A","6158665","1992-03-03 15:00","1992","03","03","15:00","","-0.3","","-10.9","","44","","14","","9","","25.0","","101.63","","","","-3","","Mostly Cloudy"
"-79.40","43.63","TORONTO ISLAND A","6158665","1992-03-03 16:00","1992","03","03","16:00","","-0.2","","-9.2","","51","","16","","7","","25.0","","101.63","","","","-3","","Cloudy"
"-79.40","43.63","TORONTO ISLAND A","6158665","1992-03-03 17:00","1992","03","03","17:00","","-0.7","","-9.0","","53","","12","","4","","25.0","","101.52","","","","-2","","Mostly Cloudy"
"-79.40","43.63","TORONTO ISLAND A","6158665","1992-03-03 18:00","1992","03","03","18:00","","-1.4","","-9.3","","55","","11","","4","","25.0","","101.56","","","","-3","","Mostly Cloudy"
"-79.40","43.63","TORONTO ISLAND A","6158665","1992-03-03 19:00","1992","03","03","19:00","","-1.4","","-9.6","","53","","","","0","","25.0","","101.59","","","","","","Mostly Cloudy"
"-79.40","43.63","TORONTO ISLAND A","6158665","1992-03-03 20:00","1992","03","03","20:00","","-1.4","","-9.9","","52","","","","0","","25.0","","101.59","","","","","","Mainly Clear"
"-79.40","43.63","TORONTO ISLAND A","6158665","1992-03-03 21:00","1992","03","03","21:00","","-1.5","","-8.5","","59","","","","0","","25.0","","101.56","","","","","","Mainly Clear"
"-79.40","43.63","TORONTO ISLAND A","6158665","1992-03-03 22:00","1992","03","03","22:00","","-1.4","","-8.5","","58","","32","","4","","25.0","","101.56","","","","-3","","Mostly Cloudy"
"-79.40","43.63","TORONTO ISLAND A","6158665","1992-03-03 23:00","1992","03","03","23:00","","","","","","","","","","0","","","","","","","","","","NA"
"-79.40","43.63","TORONTO ISLAND A","6158665","1992-03-04 00:00","1992","03","04","00:00","","","","","","","","","","0","","","","","","","","","","NA"
"-79.40","43.63","TORONTO ISLAND A","6158665","1992-03-04 01:00","1992","03","04","01:00","","","","","","","","","","0","","","","","","","","","","NA"
"-79.40","43.63","TORONTO ISLAND A","6158665","1992-03-04 02:00","1992","03","04","02:00","","","","","","","","4","","6","","","","","","","","","","NA"
"-79.40","43.63","TORONTO ISLAND A","6158665","1992-03-04 03:00","1992","03","04","03:00","","","","","","","","4","","4","","","","","","","","","","NA"
"-79.40","43.63","TORONTO ISLAND A","6158665","1992-03-04 04:00","1992","03","04","04:00","","","","","","","","6","","6","","","","","","","","","","NA"
"-79.40","43.63","TORONTO ISLAND A","6158665","1992-03-04 05:00","1992","03","04","05:00","","","","","","","","","","0","","","","","","","","","","NA"
"-79.40","43.63","TORONTO ISLAND A","6158665","1992-03-04 06:00","1992","03","04","06:00","","","","","","","","32","","6","","","","","","","","","","NA"
"-79.40","43.63","TORONTO ISLAND A","6158665","1992-03-04 07:00","1992","03","04","07:00","","-1.4","","-6.8","","67","","5","","13","","12.9","","101.56","","","","-6","","Clear"
"-79.40","43.63","TORONTO ISLAND A","6158665","1992-03-04 08:00","1992","03","04","08:00","","-1.0","","-7.9","","59","","6","","11","","14.5","","101.59","","","","-5","","Mainly Clear"
"-79.40","43.63","TORONTO ISLAND A","6158665","1992-03-04 09:00","1992","03","04","09:00","","0.2","","-5.4","","66","","5","","11","","12.9","","101.66","","","","","","Mainly Clear"
"-79.40","43.63","TORONTO ISLAND A","6158665","1992-03-04 10:00","1992","03","04","10:00","","1.0","","-3.9","","70","","7","","19","","19.3","","101.66","","","","","","Mainly Clear"
"-79.40","43.63","TORONTO ISLAND A","6158665","1992-03-04 11:00","1992","03","04","11:00","","0.9","","-4.0","","70","","7","","20","","19.3","","101.59","","","","","","Mostly Cloudy"
"-79.40","43.63","TORONTO ISLAND A","6158665","1992-03-04 12:00","1992","03","04","12:00","","1.6","","-2.7","","73","","6","","22","","19.3","","101.59","","","","","","Mainly Clear"
"-79.40","43.63","TORONTO ISLAND A","6158665","1992-03-04 13:00","1992","03","04","13:00","","2.4","","-2.2","","72","","7","","19","","19.3","","101.59","","","","","","Mainly Clear"
"-79.40","43.63","TORONTO ISLAND A","6158665","1992-03-04 14:00","1992","03","04","14:00","","2.8","","-2.1","","70","","9","","22","","16.1","","101.46","","","","","","Mainly Clear"
"-79.40","43.63","TORONTO ISLAND A","6158665","1992-03-04 15:00","1992","03","04","15:00","","2.1","","-1.9","","75","","9","","22","","16.1","","101.49","","","","","","Mainly Clear"
"-79.40","43.63","TORONTO ISLAND A","6158665","1992-03-04 16:00","1992","03","04","16:00","","1.9","","-2.2","","74","","8","","24","","16.1","","101.46","","","","","","Mainly Clear"
"-79.40","43.63","TORONTO ISLAND A","6158665","1992-03-04 17:00","1992","03","04","17:00","","1.3","","-2.3","","77","","8","","22","","14.5","","101.42","","","","","","Clear"
"-79.40","43.63","TORONTO ISLAND A","6158665","1992-03-04 18:00","1992","03","04","18:00","","0.8","","-2.2","","80","","9","","17","","14.5","","101.42","","","","","","Mainly Clear"
"-79.40","43.63","TORONTO ISLAND A","6158665","1992-03-04 19:00","1992","03","04","19:00","","0.7","","-1.9","","83","","7","","6","","19.3","","101.46","","","","","","Clear"
"-79.40","43.63","TORONTO ISLAND A","6158665","1992-03-04 20:00","1992","03","04","20:00","","0.1","","-2.1","","85","","9","","4","","24.1","","101.46","","","","","","Clear"
"-79.40","43.63","TORONTO ISLAND A","6158665","1992-03-04 21:00","1992","03","04","21:00","","0.3","","-2.0","","85","","","","0","","25.0","","101.46","","","","","","Clear"
"-79.40","43.63","TORONTO ISLAND A","6158665","1992-03-04 22:00","1992","03","04","22:00","","-0.4","","-2.2","","87","","","","0","","25.0","","101.46","","","","","","Mostly Cloudy"
"-79.40","43.63","TORONTO ISLAND A","6158665","1992-03-04 23:00","1992","03","04","23:00","","","","","","","","","","0","","","","","","","","","","NA"
"-79.40","43.63","TORONTO ISLAND A","6158665","1992-03-05 00:00","1992","03","05","00:00","","","","","","","","32","","7","","","","","","","","","","NA"
"-79.40","43.63","TORONTO ISLAND A","6158665","1992-03-05 01:00","1992","03","05","01:00","","","","","","","","34","","6","","","","","","","","","","NA"
"-79.40","43.63","TORONTO ISLAND A","6158665","1992-03-05 02:00","1992","03","05","02:00","","","","","","","","18","","4","","","","","","","","","","NA"
"-79.40","43.63","TORONTO ISLAND A","6158665","1992-03-05 03:00","1992","03","05","03:00","","","","","","","","","","0","","","","","","","","","","NA"
"-79.40","43.63","TORONTO ISLAND A","6158665","1992-03-05 04:00","1992","03","05","04:00","","","","","","","","","","0","","","","","","","","","","NA"
"-79.40","43.63","TORONTO ISLAND A","6158665","1992-03-05 05:00","1992","03","05","05:00","","","","","","","","","","0","","","","","","","","","","NA"
"-79.40","43.63","TORONTO ISLAND A","6158665","1992-03-05 06:00","1992","03","05","06:00","","","","","","","","20","","6","","","","","","","","","","NA"
"-79.40","43.63","TORONTO ISLAND A","6158665","1992-03-05 07:00","1992","03","05","07:00","","0.1","","-1.5","","89","","32","","4","","6.4","","101.46","","","","","","Fog"
"-79.40","43.63","TORONTO ISLAND A","6158665","1992-03-05 08:00","1992","03","05","08:00","","1.1","","-0.9","","86","","","","0","","6.4","","101.52","","","","","","Fog"
"-79.40","43.63","TORONTO ISLAND A","6158665","1992-03-05 09:00","1992","03","05","09:00","","2.3","","-0.3","","83","","21","","4","","4.8","","101.56","","","","","","Haze"
"-79.40","43.63","TORONTO ISLAND A","6158665","1992-03-05 10:00","1992","03","05","10:00","","4.0","","-1.5","","67","","15","","7","","6.4","","101.56","","","","","","Haze"
"-79.40","43.63","TORONTO ISLAND A","6158665","1992-03-05 11:00","1992","03","05","11:00","","4.7","","-1.8","","63","","10","","6","","9.7","","101.52","","","","","","Haze"
"-79.40","43.63","TORONTO ISLAND A","6158665","1992-03-05 12:00","1992","03","05","12:00","","4.5","","-2.2","","62","","9","","9","","11.3","","101.52","","","","","","Mainly Clear"
"-79.40","43.63","TORONTO ISLAND A","6158665","1992-03-05 13:00","1992","03","05","13:00","","5.6","","-0.3","","66","","9","","9","","11.3","","101.52","","","","","","Cloudy"
"-79.40","43.63","TORONTO ISLAND A","6158665","1992-03-05 14:00","1992","03","05","14:00","","4.8","","-0.9","","67","","9","","9","","11.3","","101.49","","","","","","Cloudy"
"-79.40","43.63","TORONTO ISLAND A","6158665","1992-03-05 15:00","1992","03","05","15:00","","4.1","","-2.0","","64","","9","","11","","11.3","","101.46","","","","","","Cloudy"
"-79.40","43.63","TORONTO ISLAND A","6158665","1992-03-05 16:00","1992","03","05","16:00","","3.9","","-3.3","","59","","8","","20","","12.9","","101.36","","","","","","Rain Showers"
"-79.40","43.63","TORONTO ISLAND A","6158665","1992-03-05 17:00","1992","03","05","17:00","","3.9","","-3.3","","59","","9","","13","","14.5","","101.42","","","","","","Cloudy"
"-79.40","43.63","TORONTO ISLAND A","6158665","1992-03-05 18:00","1992","03","05","18:00","","4.8","","-2.3","","60","","8","","7","","16.1","","101.49","","","","","","Cloudy"
"-79.40","43.63","TORONTO ISLAND A","6158665","1992-03-05 19:00","1992","03","05","19:00","","5.1","","-3.0","","56","","7","","13","","19.3","","101.52","","","","","","Cloudy"
"-79.40","43.63","TORONTO ISLAND A","6158665","1992-03-05 20:00","1992","03","05","20:00","","5.0","","-2.4","","59","","6","","15","","24.1","","101.56","","","","","","Rain Showers"
"-79.40","43.63","TORONTO ISLAND A","6158665","1992-03-05 21:00","1992","03","05","21:00","","4.8","","-3.1","","57","","7","","17","","25.0","","101.56","","","","","","Cloudy"
"-79.40","43.63","TORONTO ISLAND A","6158665","1992-03-05 22:00","1992","03","05","22:00","","4.4","","-2.1","","63","","7","","20","","25.0","","101.59","","","","","","Cloudy"
"-79.40","43.63","TORONTO ISLAND A","6158665","1992-03-05 23:00","1992","03","05","23:00","","","","","","","","7","","20","","","","","","","","","","NA"
"-79.40","43.63","TORONTO ISLAND A","6158665","1992-03-06 00:00","1992","03","06","00:00","","","","","","","","7","","24","","","","","","","","","","NA"
"-79.40","43.63","TORONTO ISLAND A","6158665","1992-03-06 01:00","1992","03","06","01:00","","","","","","","","7","","33","","","","","","","","","","NA"
"-79.40","43.63","TORONTO ISLAND A","6158665","1992-03-06 02:00","1992","03","06","02:00","","","","","","","","7","","33","","","","","","","","","","NA"
"-79.40","43.63","TORONTO ISLAND A","6158665","1992-03-06 03:00","1992","03","06","03:00","","","","","","","","7","","24","","","","","","","","","","NA"
"-79.40","43.63","TORONTO ISLAND A","6158665","1992-03-06 04:00","1992","03","06","04:00","","","","","","","","7","","35","","","","","","","","","","NA"
"-79.40","43.63","TORONTO ISLAND A","6158665","1992-03-06 05:00","1992","03","06","05:00","","","","","","","","7","","37","","","","","","","","","","NA"
"-79.40","43.63","TORONTO ISLAND A","6158665","1992-03-06 06:00","1992","03","06","06:00","","","","","","","","7","","39","","","","","","","","","","NA"
"-79.40","43.63","TORONTO ISLAND A","6158665","1992-03-06 07:00","1992","03","06","07:00","","2.1","","-2.3","","73","","7","","37","","24.1","","101.56","","","","","","Rain"
"-79.40","43.63","TORONTO ISLAND A","6158665","1992-03-06 08:00","1992","03","06","08:00","","2.2","","-2.7","","70","","7","","31","","24.1","","101.56","","","","","","Cloudy"
"-79.40","43.63","TORONTO ISLAND A","6158665","1992-03-06 09:00","1992","03","06","09:00","","2.5","","-2.2","","71","","7","","39","","24.1","","101.49","","","","","","Cloudy"
"-79.40","43.63","TORONTO ISLAND A","6158665","1992-03-06 10:00","1992","03","06","10:00","","2.7","","-2.6","","68","","7","","41","","19.3","","101.46","","","","","","Cloudy"
"-79.40","43.63","TORONTO ISLAND A","6158665","1992-03-06 11:00","1992","03","06","11:00","","2.6","","-1.4","","75","","7","","33","","19.3","","101.42","","","","","","Cloudy"
"-79.40","43.63","TORONTO ISLAND A","6158665","1992-03-06 12:00","1992","03","06","12:00","","3.2","","-1.4","","72","","7","","44","","16.1","","101.29","","","","","","Cloudy"
"-79.40","43.63","TORONTO ISLAND A","6158665","1992-03-06 13:00","1992","03","06","13:00","","2.6","","-1.5","","74","","7","","41","","19.3","","101.26","","","","","","Cloudy"
"-79.40","43.63","TORONTO ISLAND A","6158665","1992-03-06 14:00","1992","03","06","14:00","","2.6","","-1.6","","74","","7","","37","","19.3","","101.15","","","","","","Cloudy"
"-79.40","43.63","TORONTO ISLAND A","6158665","1992-03-06 15:00","1992","03","06","15:00","","2.6","","-1.6","","74","","7","","33","","19.3","","101.12","","","","","","Cloudy"
"-79.40","43.63","TORONTO ISLAND A","6158665","1992-03-06 16:00","1992","03","06","16:00","","2.5","","-0.7","","79","","7","","37","","19.3","","101.02","","","","","","Rain Showers"
"-79.40","43.63","TORONTO ISLAND A","6158665","1992-03-06 17:00","1992","03","06","17:00","","2.6","","-1.2","","76","","7","","37","","19.3","","100.99","","","","","","Cloudy"
"-79.40","43.63","TORONTO ISLAND A","6158665","1992-03-06 18:00","1992","03","06","18:00","","2.3","","-0.3","","83","","7","","37","","12.9","","100.99","","","","","","Rain Showers"
"-79.40","43.63","TORONTO ISLAND A","6158665","1992-03-06 19:00","1992","03","06","19:00","","2.4","","0.2","","86","","7","","31","","16.1","","100.95","","","","","","Rain Showers"
"-79.40","43.63","TORONTO ISLAND A","6158665","1992-03-06 20:00","1992","03","06","20:00","","2.8","","1.5","","91","","7","","22","","4.0","","100.92","","","","","","Rain Showers,Fog"
"-79.40","43.63","TORONTO ISLAND A","6158665","1992-03-06 21:00","1992","03","06","21:00","","3.7","","2.6","","92","","7","","24","","4.8","","100.85","","","","","","Rain Showers,Fog"
"-79.40","43.63","TORONTO ISLAND A","6158665","1992-03-06 22:00","1992","03","06","22:00","","3.8","","3.1","","95","","7","","26","","4.0","","100.85","","","","","","Rain Showers,Fog"
"-79.40","43.63","TORONTO ISLAND A","6158665","1992-03-06 23:00","1992","03","06","23:00","","","","","","","","7","","24","","","","","","","","","","NA"
"-79.40","43.63","TORONTO ISLAND A","6158665","1992-03-07 00:00","1992","03","07","00:00","","","","","","","","7","","26","","","","","","","","","","NA"
"-79.40","43.63","TORONTO ISLAND A","6158665","1992-03-07 01:00","1992","03","07","01:00","","","","","","","","7","","22","","","","","","","","","","NA"
"-79.40","43.63","TORONTO ISLAND A","6158665","1992-03-07 02:00","1992","03","07","02:00","","","","","","","","7","","19","","","","","","","","","","NA"
"-79.40","43.63","TORONTO ISLAND A","6158665","1992-03-07 03:00","1992","03","07","03:00","","","","","","","","7","","22","","","","","","","","","","NA"
"-79.40","43.63","TORONTO ISLAND A","6158665","1992-03-07 04:00","1992","03","07","04:00","","","","","","","","7","","19","","","","","","","","","","NA"
"-79.40","43.63","TORONTO ISLAND A","6158665","1992-03-07 05:00","1992","03","07","05:00","","","","","","","","7","","20","","","","","","","","","","NA"
"-79.40","43.63","TORONTO ISLAND A","6158665","1992-03-07 06:00","1992","03","07","06:00","","","","","","","","7","","20","","","","","","","","","","NA"
"-79.40","43.63","TORONTO ISLAND A","6158665","1992-03-07 07:00","1992","03","07","07:00","","3.9","","2.6","","91","","7","","20","","8.0","","100.38","","","","","","Fog"
"-79.40","43.63","TORONTO ISLAND A","6158665","1992-03-07 08:00","1992","03","07","08:00","","4.0","","2.8","","92","","7","","19","","9.7","","100.35","","","","","","Fog"
"-79.40","43.63","TORONTO ISLAND A","6158665","1992-03-07 09:00","1992","03","07","09:00","","4.5","","3.1","","91","","8","","19","","11.3","","100.31","","","","","","Cloudy"
"-79.40","43.63","TORONTO ISLAND A","6158665","1992-03-07 10:00","1992","03","07","10:00","","5.1","","3.5","","89","","7","","15","","11.3","","100.28","","","","","","Cloudy"
"-79.40","43.63","TORONTO ISLAND A","6158665","1992-03-07 11:00","1992","03","07","11:00","","5.1","","3.7","","91","","7","","15","","11.3","","100.21","","","","","","Cloudy"
"-79.40","43.63","TORONTO ISLAND A","6158665","1992-03-07 12:00","1992","03","07","12:00","","5.9","","4.1","","88","","8","","19","","12.9","","100.15","","","","","","Cloudy"
"-79.40","43.63","TORONTO ISLAND A","6158665","1992-03-07 13:00","1992","03","07","13:00","","5.6","","3.9","","89","","9","","17","","14.5","","100.08","","","","","","Cloudy"
"-79.40","43.63","TORONTO ISLAND A","6158665","1992-03-07 14:00","1992","03","07","14:00","","5.3","","3.6","","89","","9","","19","","14.5","","100.01","","","","","","Cloudy"
"-79.40","43.63","TORONTO ISLAND A","6158665","1992-03-07 15:00","1992","03","07","15:00","","5.2","","3.6","","89","","9","","19","","14.5","","99.94","","","","","","Cloudy"
"-79.40","43.63","TORONTO ISLAND A","6158665","1992-03-07 16:00","1992","03","07","16:00","","5.1","","3.5","","89","","9","","20","","11.3","","99.94","","","","","","Cloudy"
"-79.40","43.63","TORONTO ISLAND A","6158665","1992-03-07 17:00","1992","03","07","17:00","","4.9","","3.6","","91","","9","","20","","9.7","","99.94","","","","","","Fog"
"-79.40","43.63","TORONTO ISLAND A","6158665","1992-03-07 18:00","1992","03","07","18:00","","4.1","","3.4","","95","","9","","17","","3.2","","99.98","","","","","","Fog"
"-79.40","43.63","TORONTO ISLAND A","6158665","1992-03-07 19:00","1992","03","07","19:00","","4.1","","3.3","","94","","9","","13","","2.8","","99.98","","","","","","Fog"
"-79.40","43.63","TORONTO ISLAND A","6158665","1992-03-07 20:00","1992","03","07","20:00","","4.3","","3.7","","96","","9","","11","","4.0","","100.01","","","","","","Fog"
"-79.40","43.63","TORONTO ISLAND A","6158665","1992-03-07 21:00","1992","03","07","21:00","","4.1","","3.5","","96","","9","","7","","2.8","","100.01","","","","","","Fog"
"-79.40","43.63","TORONTO ISLAND A","6158665","1992-03-07 22:00","1992","03","07","22:00","","4.3","","3.9","","97","","","","0","","2.4","","100.01","","","","","","Fog"
"-79.40","43.63","TORONTO ISLAND A","6158665","1992-03-07 23:00","1992","03","07","23:00","","","","","","","","27","","4","","","","","","","","","","NA"
"-79.40","43.63","TORONTO ISLAND A","6158665","1992-03-08 00:00","1992","03","08","00:00","","","","","","","","","","0","","","","","","","","","","NA"
"-79.40","43.63","TORONTO ISLAND A","6158665","1992-03-08 01:00","1992","03","08","01:00","","","","","","","","","","0","","","","","","","","","","NA"
"-79.40","43.63","TORONTO ISLAND A","6158665","1992-03-08 02:00","1992","03","08","02:00","","","","","","","","","","0","","","","","","","","","","NA"
"-79.40","43.63","TORONTO ISLAND A","6158665","1992-03-08 03:00","1992","03","08","03:00","","","","","","","","","","0","","","","","","","","","","NA"
"-79.40","43.63","TORONTO ISLAND A","6158665","1992-03-08 04:00","1992","03","08","04:00","","","","","","","","","","0","","","","","","","","","","NA"
"-79.40","43.63","TORONTO ISLAND A","6158665","1992-03-08 05:00","1992","03","08","05:00","","","","","","","","","","0","","","","","","","","","","NA"
"-79.40","43.63","TORONTO ISLAND A","6158665","1992-03-08 06:00","1992","03","08","06:00","","","","","","","","","","0","","","","","","","","","","NA"
"-79.40","43.63","TORONTO ISLAND A","6158665","1992-03-08 07:00","1992","03","08","07:00","","3.7","","3.2","","97","","","","0","","4.0","","100.21","","","","","","Fog"
"-79.40","43.63","TORONTO ISLAND A","6158665","1992-03-08 08:00","1992","03","08","08:00","","4.3","","3.9","","97","","17","","6","","2.4","","100.28","","","","","","Drizzle,Fog"
"-79.40","43.63","TORONTO ISLAND A","6158665","1992-03-08 09:00","1992","03","08","09:00","","3.3","","3.1","","99","","27","","4","","0.6","","100.35","","","","","","Drizzle,Fog"
"-79.40","43.63","TORONTO ISLAND A","6158665","1992-03-08 10:00","1992","03","08","10:00","","4.0","","3.7","","98","","25","","6","","0.4","","100.38","","","","","","Fog"
"-79.40","43.63","TORONTO ISLAND A","6158665","1992-03-08 11:00","1992","03","08","11:00","","4.4","","4.2","","99","","22","","4","","0.2","","100.38","","","","","","Drizzle,Fog"
"-79.40","43.63","TORONTO ISLAND A","6158665","1992-03-08 12:00","1992","03","08","12:00","","4.0","","3.9","","99","","20","","4","","0.0","","100.38","","","","","","Drizzle,Fog"
"-79.40","43.63","TORONTO ISLAND A","6158665","1992-03-08 13:00","1992","03","08","13:00","","4.6","","4.4","","98","","15","","6","","1.2","","100.42","","","","","","Fog"
"-79.40","43.63","TORONTO ISLAND A","6158665","1992-03-08 14:00","1992","03","08","14:00","","4.0","","3.7","","98","","11","","6","","0.2","","100.31","","","","","","Fog"
"-79.40","43.63","TORONTO ISLAND A","6158665","1992-03-08 15:00","1992","03","08","15:00","","4.0","","3.7","","98","","","","0","","0.8","","100.31","","","","","","Rain,Fog"
"-79.40","43.63","TORONTO ISLAND A","6158665","1992-03-08 16:00","1992","03","08","16:00","","3.7","","3.5","","98","","8","","4","","0.4","","100.35","","","","","","Rain,Drizzle,Fog"
"-79.40","43.63","TORONTO ISLAND A","6158665","1992-03-08 17:00","1992","03","08","17:00","","3.3","","2.9","","97","","9","","6","","0.4","","100.35","","","","","","Fog"
"-79.40","43.63","TORONTO ISLAND A","6158665","1992-03-08 18:00","1992","03","08","18:00","","3.1","","2.7","","97","","9","","6","","0.8","","100.38","","","","","","Drizzle,Fog"
"-79.40","43.63","TORONTO ISLAND A","6158665","1992-03-08 19:00","1992","03","08","19:00","","3.1","","2.8","","98","","11","","4","","0.6","","100.42","","","","","","Drizzle,Fog"
"-79.40","43.63","TORONTO ISLAND A","6158665","1992-03-08 20:00","1992","03","08","20:00","","3.0","","2.8","","98","","","","0","","0.2","","100.48","","","","","","Drizzle,Fog"
"-79.40","43.63","TORONTO ISLAND A","6158665","1992-03-08 21:00","1992","03","08","21:00","","2.9","","2.8","","99","","","","0","","0.2","","100.52","","","","","","Fog"
"-79.40","43.63","TORONTO ISLAND A","6158665","1992-03-08 22:00","1992","03","08","22:00","","3.5","","3.0","","97","","30","","7","","19.3","","100.52","","","","","","Cloudy"
"-79.40","43.63","TORONTO ISLAND A","6158665","1992-03-08 23:00","1992","03","08","23:00","","","","","","","","28","","9","","","","","","","","","","NA"
"-79.40","43.63","TORONTO ISLAND A","6158665","1992-03-09 00:00","1992","03","09","00:00","","","","","","","","27","","11","","","","","","","","","","NA"
"-79.40","43.63","TORONTO ISLAND A","6158665","1992-03-09 01:00","1992","03","09","01:00","","","","","","","","24","","9","","","","","","","","","","NA"
"-79.40","43.63","TORONTO ISLAND A","6158665","1992-03-09 02:00","1992","03","09","02:00","","","","","","","","25","","11","","","","","","","","","","NA"
"-79.40","43.63","TORONTO ISLAND A","6158665","1992-03-09 03:00","1992","03","09","03:00","","","","","","","","25","","7","","","","","","","","","","NA"
"-79.40","43.63","TORONTO ISLAND A","6158665","1992-03-09 04:00","1992","03","09","04:00","","","","","","","","26","","9","","","","","","","","","","NA"
"-79.40","43.63","TORONTO ISLAND A","6158665","1992-03-09 05:00","1992","03","09","05:00","","","","","","","","24","","6","","","","","","","","","","NA"
"-79.40","43.63","TORONTO ISLAND A","6158665","1992-03-09 06:00","1992","03","09","06:00","","","","","","","","26","","15","","","","","","","","","","NA"
"-79.40","43.63","TORONTO ISLAND A","6158665","1992-03-09 07:00","1992","03","09","07:00","","","","","","","","25","","7","","","","","","","","","","NA"
"-79.40","43.63","TORONTO ISLAND A","6158665","1992-03-09 08:00","1992","03","09","08:00","","","","","","","","","","0","","","","","","","","","","NA"
"-79.40","43.63","TORONTO ISLAND A","6158665","1992-03-09 09:00","1992","03","09","09:00","","3.4","","2.7","","95","","","","0","","4.8","","100.82","","","","","","Fog"
"-79.40","43.63","TORONTO ISLAND A","6158665","1992-03-09 10:00","1992","03","09","10:00","","4.8","","3.8","","93","","15","","6","","4.8","","100.72","","","","","","Fog"
"-79.40","43.63","TORONTO ISLAND A","6158665","1992-03-09 11:00","1992","03","09","11:00","","5.4","","4.2","","92","","16","","11","","4.8","","100.68","","","","","","Fog"
"-79.40","43.63","TORONTO ISLAND A","6158665","1992-03-09 12:00","1992","03","09","12:00","","7.2","","5.3","","87","","16","","19","","4.8","","100.52","","","","","","Fog"
"-79.40","43.63","TORONTO ISLAND A","6158665","1992-03-09 13:00","1992","03","09","13:00","","7.3","","4.8","","84","","17","","11","","6.4","","100.42","","","","","","Fog"
"-79.40","43.63","TORONTO ISLAND A","6158665","1992-03-09 14:00","1992","03","09","14:00","","9.2","","5.6","","78","","15","","15","","8.0","","100.28","","","","","","Haze"
"-79.40","43.63","TORONTO ISLAND A","6158665","1992-03-09 15:00","1992","03","09","15:00","","10.5","","5.5","","71","","15","","15","","12.9","","100.21","","","","","","Mostly Cloudy"
"-79.40","43.63","TORONTO ISLAND A","6158665","1992-03-09 16:00","1992","03","09","16:00","","7.0","","3.5","","78","","8","","19","","16.1","","100.11","","","","","","Mostly Cloudy"
"-79.40","43.63","TORONTO ISLAND A","6158665","1992-03-09 17:00","1992","03","09","17:00","","6.4","","3.6","","82","","8","","24","","12.9","","100.08","","","","","","Cloudy"
"-79.40","43.63","TORONTO ISLAND A","6158665","1992-03-09 18:00","1992","03","09","18:00","","5.8","","3.3","","84","","8","","24","","11.3","","100.01","","","","","","Rain"
"-79.40","43.63","TORONTO ISLAND A","6158665","1992-03-09 19:00","1992","03","09","19:00","","5.6","","3.6","","87","","8","","26","","12.9","","99.94","","","","","","Rain"
"-79.40","43.63","TORONTO ISLAND A","6158665","1992-03-09 20:00","1992","03","09","20:00","","5.5","","3.6","","88","","8","","22","","12.9","","99.81","","","","","","Rain"
"-79.40","43.63","TORONTO ISLAND A","6158665","1992-03-09 21:00","1992","03","09","21:00","","6.7","","4.6","","86","","7","","19","","12.9","","99.68","","","","","","Rain Showers"
"-79.40","43.63","TORONTO ISLAND A","6158665","1992-03-09 22:00","1992","03","09","22:00","","7.0","","4.5","","84","","9","","17","","16.1","","99.61","","","","","","Cloudy"
"-79.40","43.63","TORONTO ISLAND A","6158665","1992-03-09 23:00","1992","03","09","23:00","","","","","","","","9","","15","","","","","","","","","","NA"
"-79.40","43.63","TORONTO ISLAND A","6158665","1992-03-10 00:00","1992","03","10","00:00","","","","","","","","9","","19","","","","","","","","","","NA"
"-79.40","43.63","TORONTO ISLAND A","6158665","1992-03-10 01:00","1992","03","10","01:00","","","","","","","","9","","11","","","","","","","","","","NA"
"-79.40","43.63","TORONTO ISLAND A","6158665","1992-03-10 02:00","1992","03","10","02:00","","","","","","","","9","","15","","","","","","","","","","NA"
"-79.40","43.63","TORONTO ISLAND A","6158665","1992-03-10 03:00","1992","03","10","03:00","","","","","","","","9","","19","","","","","","","","","","NA"
"-79.40","43.63","TORONTO ISLAND A","6158665","1992-03-10 04:00","1992","03","10","04:00","","","","","","","","8","","6","","","","","","","","","","NA"
"-79.40","43.63","TORONTO ISLAND A","6158665","1992-03-10 05:00","1992","03","10","05:00","","","","","","","","13","","6","","","","","","","","","","NA"
"-79.40","43.63","TORONTO ISLAND A","6158665","1992-03-10 06:00","1992","03","10","06:00","","","","","","","","27","","9","","","","","","","","","","NA"
"-79.40","43.63","TORONTO ISLAND A","6158665","1992-03-10 07:00","1992","03","10","07:00","","8.1","","5.3","","82","","","","0","","6.4","","98.94","","","","","","Rain,Fog"
"-79.40","43.63","TORONTO ISLAND A","6158665","1992-03-10 08:00","1992","03","10","08:00","","8.3","","6.9","","91","","","","0","","4.8","","98.94","","","","","","Rain,Fog"
"-79.40","43.63","TORONTO ISLAND A","6158665","1992-03-10 09:00","1992","03","10","09:00","","8.2","","7.1","","93","","13","","9","","6.4","","98.83","","","","","","Rain,Fog"
"-79.40","43.63","TORONTO ISLAND A","6158665","1992-03-10 10:00","1992","03","10","10:00","","8.3","","7.7","","96","","14","","22","","3.2","","98.57","","","","","","Rain,Fog"
"-79.40","43.63","TORONTO ISLAND A","6158665","1992-03-10 11:00","1992","03","10","11:00","","6.9","","6.3","","96","","9","","19","","1.2","","98.40","","","","","","Rain,Fog"
"-79.40","43.63","TORONTO ISLAND A","6158665","1992-03-10 12:00","1992","03","10","12:00","","7.4","","7.0","","97","","9","","22","","8.0","","98.20","","","","","","Fog"
"-79.40","43.63","TORONTO ISLAND A","6158665","1992-03-10 13:00","1992","03","10","13:00","","7.4","","6.7","","96","","8","","19","","4.8","","98.06","","","","","","Rain,Fog"
"-79.40","43.63","TORONTO ISLAND A","6158665","1992-03-10 14:00","1992","03","10","14:00","","6.8","","6.4","","97","","10","","9","","8.0","","97.96","","","","","","Rain,Fog"
"-79.40","43.63","TORONTO ISLAND A","6158665","1992-03-10 15:00","1992","03","10","15:00","","8.2","","7.7","","97","","","","0","","9.7","","97.93","","","","","","Fog"
"-79.40","43.63","TORONTO ISLAND A","6158665","1992-03-10 16:00","1992","03","10","16:00","","7.4","","6.4","","93","","30","","26","","11.3","","97.99","","","","","","Cloudy"
"-79.40","43.63","TORONTO ISLAND A","6158665","1992-03-10 17:00","1992","03","10","17:00","","0.1","","-2.3","","84","","30","","33","","24.1","","98.30","","","","","","Cloudy"
"-79.40","43.63","TORONTO ISLAND A","6158665","1992-03-10 18:00","1992","03","10","18:00","","-1.7","","-4.5","","81","","28","","35","","24.1","","98.63","","","","-9","","Cloudy"
"-79.40","43.63","TORONTO ISLAND A","6158665","1992-03-10 19:00","1992","03","10","19:00","","-4.3","","-8.6","","72","","29","","37","","24.1","","98.97","","","","-13","","Cloudy"
"-79.40","43.63","TORONTO ISLAND A","6158665","1992-03-10 20:00","1992","03","10","20:00","","-6.5","","-12.0","","65","","29","","37","","24.1","","99.14","","","","-16","","Mainly Clear"
"-79.40","43.63","TORONTO ISLAND A","6158665","1992-03-10 21:00","1992","03","10","21:00","","-7.4","","-13.5","","61","","31","","31","","24.1","","99.27","","","","-16","","Mainly Clear"
"-79.40","43.63","TORONTO ISLAND A","6158665","1992-03-10 22:00","1992","03","10","22:00","","-8.3","","-13.8","","64","","30","","31","","24.1","","99.37","","","","-17","","Snow Showers"
"-79.40","43.63","TORONTO ISLAND A","6158665","1992-03-10 23:00","1992","03","10","23:00","","","","","","","","32","","22","","","","","","","","","","NA"
"-79.40","43.63","TORONTO ISLAND A","6158665","1992-03-11 00:00","1992","03","11","00:00","","","","","","","","32","","19","","","","","","","","","","NA"
"-79.40","43.63","TORONTO ISLAND A","6158665","1992-03-11 01:00","1992","03","11","01:00","","","","","","","","33","","15","","","","","","","","","","NA"
"-79.40","43.63","TORONTO ISLAND A","6158665","1992-03-11 02:00","1992","03","11","02:00","","","","","","","","33","","15","","","","","","","","","","NA"
"-79.40","43.63","TORONTO ISLAND A","6158665","1992-03-11 03:00","1992","03","11","03:00","","","","","","","","31","","22","","","","","","","","","","NA"
"-79.40","43.63","TORONTO ISLAND A","6158665","1992-03-11 04:00","1992","03","11","04:00","","","","","","","","31","","22","","","","","","","","","","NA"
"-79.40","43.63","TORONTO ISLAND A","6158665","1992-03-11 05:00","1992","03","11","05:00","","","","","","","","33","","26","","","","","","","","","","NA"
"-79.40","43.63","TORONTO ISLAND A","6158665","1992-03-11 06:00","1992","03","11","06:00","","","","","","","","33","","30","","","","","","","","","","NA"
"-79.40","43.63","TORONTO ISLAND A","6158665","1992-03-11 07:00","1992","03","11","07:00","","-12.2","","-18.0","","62","","33","","19","","19.3","","99.34","","","","-20","","Cloudy"
"-79.40","43.63","TORONTO ISLAND A","6158665","1992-03-11 08:00","1992","03","11","08:00","","-12.5","","-17.6","","65","","34","","26","","19.3","","99.34","","","","-22","","Snow"
"-79.40","43.63","TORONTO ISLAND A","6158665","1992-03-11 09:00","1992","03","11","09:00","","-13.0","","-18.5","","63","","34","","28","","19.3","","99.24","","","","-23","","Snow"
"-79.40","43.63","TORONTO ISLAND A","6158665","1992-03-11 10:00","1992","03","11","10:00","","-13.1","","-18.5","","64","","33","","33","","19.3","","99.14","","","","-24","","Cloudy"
"-79.40","43.63","TORONTO ISLAND A","6158665","1992-03-11 11:00","1992","03","11","11:00","","-12.6","","-18.2","","63","","33","","28","","19.3","","99.14","","","","-23","","Cloudy"
"-79.40","43.63","TORONTO ISLAND A","6158665","1992-03-11 12:00","1992","03","11","12:00","","-11.7","","-17.3","","63","","33","","28","","16.1","","99.14","","","","-21","","Snow"
"-79.40","43.63","TORONTO ISLAND A","6158665","1992-03-11 13:00","1992","03","11","13:00","","-10.8","","-15.9","","66","","33","","28","","3.2","","99.07","","","","-20","","Snow"
"-79.40","43.63","TORONTO ISLAND A","6158665","1992-03-11 14:00","1992","03","11","14:00","","-10.1","","-14.3","","71","","31","","33","","2.4","","99.04","","","","-20","","Snow"
"-79.40","43.63","TORONTO ISLAND A","6158665","1992-03-11 15:00","1992","03","11","15:00","","-9.9","","-13.7","","73","","30","","43","","1.2","","99.04","","","","-21","","Snow"
"-79.40","43.63","TORONTO ISLAND A","6158665","1992-03-11 16:00","1992","03","11","16:00","","-9.3","","-13.8","","70","","33","","41","","3.2","","99.04","","","","-20","","Snow"
"-79.40","43.63","TORONTO ISLAND A","6158665","1992-03-11 17:00","1992","03","11","17:00","","-8.7","","-14.4","","63","","30","","44","","9.7","","99.10","","","","-19","","Snow,Haze"
"-79.40","43.63","TORONTO ISLAND A","6158665","1992-03-11 18:00","1992","03","11","18:00","","-8.7","","-14.3","","64","","31","","37","","4.8","","99.17","","","","-19","","Snow"
"-79.40","43.63","TORONTO ISLAND A","6158665","1992-03-11 19:00","1992","03","11","19:00","","-8.3","","-12.9","","69","","31","","37","","4.8","","99.24","","","","-18","","Snow"
"-79.40","43.63","TORONTO ISLAND A","6158665","1992-03-11 20:00","1992","03","11","20:00","","-8.5","","-11.1","","81","","29","","26","","2.0","","99.27","","","","-17","","Snow"
"-79.40","43.63","TORONTO ISLAND A","6158665","1992-03-11 21:00","1992","03","11","21:00","","-8.9","","-11.5","","81","","30","","26","","11.3","","99.27","","","","-18","","Snow"
"-79.40","43.63","TORONTO ISLAND A","6158665","1992-03-11 22:00","1992","03","11","22:00","","-8.3","","-12.7","","70","","29","","24","","16.1","","99.27","","","","-16","","Snow"
"-79.40","43.63","TORONTO ISLAND A","6158665","1992-03-11 23:00","1992","03","11","23:00","","","","","","","","28","","33","","","","","","","","","","NA"
"-79.40","43.63","TORONTO ISLAND A","6158665","1992-03-12 00:00","1992","03","12","00:00","","","","","","","","29","","33","","","","","","","","","","NA"
"-79.40","43.63","TORONTO ISLAND A","6158665","1992-03-12 01:00","1992","03","12","01:00","","","","","","","","29","","31","","","","","","","","","","NA"
"-79.40","43.63","TORONTO ISLAND A","6158665","1992-03-12 02:00","1992","03","12","02:00","","","","","","","","29","","33","","","","","","","","","","NA"
"-79.40","43.63","TORONTO ISLAND A","6158665","1992-03-12 03:00","1992","03","12","03:00","","","","","","","","28","","43","","","","","","","","","","NA"
"-79.40","43.63","TORONTO ISLAND A","6158665","1992-03-12 04:00","1992","03","12","04:00","","","","","","","","28","","30","","","","","","","","","","NA"
"-79.40","43.63","TORONTO ISLAND A","6158665","1992-03-12 05:00","1992","03","12","05:00","","","","","","","","28","","33","","","","","","","","","","NA"
"-79.40","43.63","TORONTO ISLAND A","6158665","1992-03-12 06:00","1992","03","12","06:00","","","","","","","","29","","43","","","","","","","","","","NA"
"-79.40","43.63","TORONTO ISLAND A","6158665","1992-03-12 07:00","1992","03","12","07:00","","-9.2","","-15.6","","60","","28","","37","","25.0","","99.24","","","","-19","","Mainly Clear"
"-79.40","43.63","TORONTO ISLAND A","6158665","1992-03-12 08:00","1992","03","12","08:00","","-8.8","","-15.5","","58","","29","","37","","25.0","","99.27","","","","-19","","Mostly Cloudy"
"-79.40","43.63","TORONTO ISLAND A","6158665","1992-03-12 09:00","1992","03","12","09:00","","-8.6","","-14.6","","62","","28","","37","","12.9","","99.27","","","","-19","","Snow"
"-79.40","43.63","TORONTO ISLAND A","6158665","1992-03-12 10:00","1992","03","12","10:00","","-8.5","","-13.9","","65","","29","","35","","11.3","","99.27","","","","-18","","Snow"
"-79.40","43.63","TORONTO ISLAND A","6158665","1992-03-12 11:00","1992","03","12","11:00","","-7.6","","-13.3","","64","","29","","37","","11.3","","99.27","","","","-17","","Snow"
"-79.40","43.63","TORONTO ISLAND A","6158665","1992-03-12 12:00","1992","03","12","12:00","","-7.2","","-13.1","","63","","31","","37","","11.3","","99.31","","","","-17","","Snow"
"-79.40","43.63","TORONTO ISLAND A","6158665","1992-03-12 13:00","1992","03","12","13:00","","-5.9","","-13.0","","57","","28","","33","","12.9","","99.31","","","","-15","","Snow"
"-79.40","43.63","TORONTO ISLAND A","6158665","1992-03-12 14:00","1992","03","12","14:00","","-5.9","","-11.5","","64","","28","","28","","4.8","","99.37","","","","-14","","Snow"
"-79.40","43.63","TORONTO ISLAND A","6158665","1992-03-12 15:00","1992","03","12","15:00","","-6.3","","-11.3","","68","","28","","33","","8.0","","99.44","","","","-15","","Snow Showers"
"-79.40","43.63","TORONTO ISLAND A","6158665","1992-03-12 16:00","1992","03","12","16:00","","-6.0","","-12.0","","62","","30","","37","","16.1","","99.54","","","","-15","","Snow Showers"
"-79.40","43.63","TORONTO ISLAND A","6158665","1992-03-12 17:00","1992","03","12","17:00","","-6.4","","-13.1","","59","","29","","37","","16.1","","99.61","","","","-16","","Snow Showers"
"-79.40","43.63","TORONTO ISLAND A","6158665","1992-03-12 18:00","1992","03","12","18:00","","-6.8","","-13.2","","60","","29","","28","","16.1","","99.74","","","","-15","","Snow Showers"
"-79.40","43.63","TORONTO ISLAND A","6158665","1992-03-12 19:00","1992","03","12","19:00","","-7.1","","-13.0","","63","","29","","26","","25.0","","99.84","","","","-15","","Mostly Cloudy"
"-79.40","43.63","TORONTO ISLAND A","6158665","1992-03-12 20:00","1992","03","12","20:00","","-6.8","","-13.7","","58","","31","","22","","25.0","","99.91","","","","-14","","Cloudy"
"-79.40","43.63","TORONTO ISLAND A","6158665","1992-03-12 21:00","1992","03","12","21:00","","-6.7","","-14.1","","55","","32","","19","","25.0","","99.94","","","","-14","","Cloudy"
"-79.40","43.63","TORONTO ISLAND A","6158665","1992-03-12 22:00","1992","03","12","22:00","","-6.8","","-14.5","","54","","31","","22","","25.0","","99.98","","","","-14","","Mostly Cloudy"
"-79.40","43.63","TORONTO ISLAND A","6158665","1992-03-12 23:00","1992","03","12","23:00","","","","","","","","29","","22","","","","","","","","","","NA"
"-79.40","43.63","TORONTO ISLAND A","6158665","1992-03-13 00:00","1992","03","13","00:00","","","","","","","","30","","22","","","","","","","","","","NA"
"-79.40","43.63","TORONTO ISLAND A","6158665","1992-03-13 01:00","1992","03","13","01:00","","","","","","","","30","","17","","","","","","","","","","NA"
"-79.40","43.63","TORONTO ISLAND A","6158665","1992-03-13 02:00","1992","03","13","02:00","","","","","","","","32","","22","","","","","","","","","","NA"
"-79.40","43.63","TORONTO ISLAND A","6158665","1992-03-13 03:00","1992","03","13","03:00","","","","","","","","32","","22","","","","","","","","","","NA"
"-79.40","43.63","TORONTO ISLAND A","6158665","1992-03-13 04:00","1992","03","13","04:00","","","","","","","","36","","9","","","","","","","","","","NA"
"-79.40","43.63","TORONTO ISLAND A","6158665","1992-03-13 05:00","1992","03","13","05:00","","","","","","","","36","","9","","","","","","","","","","NA"
"-79.40","43.63","TORONTO ISLAND A","6158665","1992-03-13 06:00","1992","03","13","06:00","","","","","","","","36","","7","","","","","","","","","","NA"
"-79.40","43.63","TORONTO ISLAND A","6158665","1992-03-13 07:00","1992","03","13","07:00","","-13.0","","-17.8","","67","","36","","11","","25.0","","100.15","","","","-19","","Mainly Clear"
"-79.40","43.63","TORONTO ISLAND A","6158665","1992-03-13 08:00","1992","03","13","08:00","","-12.8","","-17.9","","65","","34","","9","","25.0","","100.18","","","","-18","","Mainly Clear"
"-79.40","43.63","TORONTO ISLAND A","6158665","1992-03-13 09:00","1992","03","13","09:00","","-11.0","","-17.0","","61","","30","","22","","25.0","","100.21","","","","-20","","Mainly Clear"
"-79.40","43.63","TORONTO ISLAND A","6158665","1992-03-13 10:00","1992","03","13","10:00","","-8.9","","-15.8","","57","","35","","17","","25.0","","100.21","","","","-16","","Mainly Clear"
"-79.40","43.63","TORONTO ISLAND A","6158665","1992-03-13 11:00","1992","03","13","11:00","","-6.5","","-14.5","","53","","30","","22","","25.0","","100.18","","","","-14","","Mostly Cloudy"
"-79.40","43.63","TORONTO ISLAND A","6158665","1992-03-13 12:00","1992","03","13","12:00","","-5.4","","-14.0","","51","","31","","26","","25.0","","100.11","","","","-13","","Mostly Cloudy"
"-79.40","43.63","TORONTO ISLAND A","6158665","1992-03-13 13:00","1992","03","13","13:00","","-5.5","","-14.0","","51","","30","","31","","25.0","","100.11","","","","-14","","Mostly Cloudy"
"-79.40","43.63","TORONTO ISLAND A","6158665","1992-03-13 14:00","1992","03","13","14:00","","-4.4","","-13.6","","48","","29","","28","","25.0","","100.08","","","","-12","","Mostly Cloudy"
"-79.40","43.63","TORONTO ISLAND A","6158665","1992-03-13 15:00","1992","03","13","15:00","","-4.5","","-15.1","","43","","30","","33","","24.1","","100.08","","","","-13","","Mostly Cloudy"
"-79.40","43.63","TORONTO ISLAND A","6158665","1992-03-13 16:00","1992","03","13","16:00","","-4.8","","-13.9","","49","","30","","26","","24.1","","100.08","","","","-12","","Mostly Cloudy"
"-79.40","43.63","TORONTO ISLAND A","6158665","1992-03-13 17:00","1992","03","13","17:00","","-5.2","","-12.1","","58","","30","","28","","24.1","","100.11","","","","-13","","Snow Showers"
"-79.40","43.63","TORONTO ISLAND A","6158665","1992-03-13 18:00","1992","03","13","18:00","","-5.5","","-14.4","","49","","28","","33","","24.1","","100.15","","","","-14","","Mostly Cloudy"
"-79.40","43.63","TORONTO ISLAND A","6158665","1992-03-13 19:00","1992","03","13","19:00","","-6.3","","-13.2","","58","","28","","26","","24.1","","100.21","","","","-14","","Mainly Clear"
"-79.40","43.63","TORONTO ISLAND A","6158665","1992-03-13 20:00","1992","03","13","20:00","","-6.5","","-13.0","","60","","28","","24","","24.1","","100.21","","","","-14","","Clear"
"-79.40","43.63","TORONTO ISLAND A","6158665","1992-03-13 21:00","1992","03","13","21:00","","-6.2","","-12.9","","59","","26","","30","","24.1","","100.21","","","","-15","","Mainly Clear"
"-79.40","43.63","TORONTO ISLAND A","6158665","1992-03-13 22:00","1992","03","13","22:00","","-6.5","","-11.4","","68","","26","","28","","24.1","","100.21","","","","-15","","Mainly Clear"
"-79.40","43.63","TORONTO ISLAND A","6158665","1992-03-13 23:00","1992","03","13","23:00","","","","","","","","26","","26","","","","","","","","","","NA"
"-79.40","43.63","TORONTO ISLAND A","6158665","1992-03-14 00:00","1992","03","14","00:00","","","","","","","","26","","22","","","","","","","","","","NA"
"-79.40","43.63","TORONTO ISLAND A","6158665","1992-03-14 01:00","1992","03","14","01:00","","","","","","","","26","","19","","","","","","","","","","NA"
"-79.40","43.63","TORONTO ISLAND A","6158665","1992-03-14 02:00","1992","03","14","02:00","","","","","","","","26","","22","","","","","","","","","","NA"
"-79.40","43.63","TORONTO ISLAND A","6158665","1992-03-14 03:00","1992","03","14","03:00","","","","","","","","29","","20","","","","","","","","","","NA"
"-79.40","43.63","TORONTO ISLAND A","6158665","1992-03-14 04:00","1992","03","14","04:00","","","","","","","","33","","7","","","","","","","","","","NA"
"-79.40","43.63","TORONTO ISLAND A","6158665","1992-03-14 05:00","1992","03","14","05:00","","","","","","","","31","","4","","","","","","","","","","NA"
"-79.40","43.63","TORONTO ISLAND A","6158665","1992-03-14 06:00","1992","03","14","06:00","","","","","","","","30","","13","","","","","","","","","","NA"
"-79.40","43.63","TORONTO ISLAND A","6158665","1992-03-14 07:00","1992","03","14","07:00","","-8.4","","-15.0","","59","","33","","17","","25.0","","100.11","","","","-15","","Mostly Cloudy"
"-79.40","43.63","TORONTO ISLAND A","6158665","1992-03-14 08:00","1992","03","14","08:00","","-8.1","","-15.4","","56","","31","","22","","25.0","","100.18","","","","-16","","Mainly Clear"
"-79.40","43.63","TORONTO ISLAND A","6158665","1992-03-14 09:00","1992","03","14","09:00","","-7.2","","-15.1","","53","","30","","19","","25.0","","100.21","","","","-14","","Mainly Clear"
"-79.40","43.63","TORONTO ISLAND A","6158665","1992-03-14 10:00","1992","03","14","10:00","","-6.3","","-14.6","","51","","29","","17","","25.0","","100.21","","","","-13","","Mostly Cloudy"
"-79.40","43.63","TORONTO ISLAND A","6158665","1992-03-14 11:00","1992","03","14","11:00","","-5.3","","-12.9","","55","","30","","20","","24.1","","100.18","","","","-12","","Cloudy"
"-79.40","43.63","TORONTO ISLAND A","6158665","1992-03-14 12:00","1992","03","14","12:00","","-4.2","","-12.3","","53","","27","","20","","25.0","","100.18","","","","-11","","Mostly Cloudy"
"-79.40","43.63","TORONTO ISLAND A","6158665","1992-03-14 13:00","1992","03","14","13:00","","-3.2","","-13.4","","45","","27","","22","","25.0","","100.11","","","","-10","","Mostly Cloudy"
"-79.40","43.63","TORONTO ISLAND A","6158665","1992-03-14 14:00","1992","03","14","14:00","","-3.0","","-13.0","","46","","30","","20","","25.0","","100.08","","","","-9","","Mostly Cloudy"
"-79.40","43.63","TORONTO ISLAND A","6158665","1992-03-14 15:00","1992","03","14","15:00","","-2.5","","-11.9","","48","","27","","22","","25.0","","100.05","","","","-9","","Mostly Cloudy"
"-79.40","43.63","TORONTO ISLAND A","6158665","1992-03-14 16:00","1992","03","14","16:00","","-3.5","","-11.2","","55","","29","","24","","24.1","","100.08","","","","-10","","Snow Showers"
"-79.40","43.63","TORONTO ISLAND A","6158665","1992-03-14 17:00","1992","03","14","17:00","","-3.4","","-11.3","","54","","30","","28","","24.1","","100.08","","","","-11","","Mostly Cloudy"
"-79.40","43.63","TORONTO ISLAND A","6158665","1992-03-14 18:00","1992","03","14","18:00","","-4.7","","-14.0","","48","","31","","28","","24.1","","100.18","","","","-12","","Mainly Clear"
"-79.40","43.63","TORONTO ISLAND A","6158665","1992-03-14 19:00","1992","03","14","19:00","","-5.7","","-13.6","","54","","29","","22","","24.1","","100.31","","","","-13","","Mostly Cloudy"
"-79.40","43.63","TORONTO ISLAND A","6158665","1992-03-14 20:00","1992","03","14","20:00","","-5.4","","-13.4","","53","","29","","13","","24.1","","100.31","","","","-11","","Mostly Cloudy"
"-79.40","43.63","TORONTO ISLAND A","6158665","1992-03-14 21:00","1992","03","14","21:00","","-5.6","","-11.9","","61","","28","","22","","24.1","","100.35","","","","-13","","Mostly Cloudy"
"-79.40","43.63","TORONTO ISLAND A","6158665","1992-03-14 22:00","1992","03","14","22:00","","-6.1","","-13.0","","58","","34","","19","","24.1","","100.42","","","","-13","","Snow Showers"
"-79.40","43.63","TORONTO ISLAND A","6158665","1992-03-14 23:00","1992","03","14","23:00","","","","","","","","34","","9","","","","","","","","","","NA"
"-79.40","43.63","TORONTO ISLAND A","6158665","1992-03-15 00:00","1992","03","15","00:00","","","","","","","","34","","11","","","","","","","","","","NA"
"-79.40","43.63","TORONTO ISLAND A","6158665","1992-03-15 01:00","1992","03","15","01:00","","","","","","","","34","","13","","","","","","","","","","NA"
"-79.40","43.63","TORONTO ISLAND A","6158665","1992-03-15 02:00","1992","03","15","02:00","","","","","","","","34","","7","","","","","","","","","","NA"
"-79.40","43.63","TORONTO ISLAND A","6158665","1992-03-15 03:00","1992","03","15","03:00","","","","","","","","34","","11","","","","","","","","","","NA"
"-79.40","43.63","TORONTO ISLAND A","6158665","1992-03-15 04:00","1992","03","15","04:00","","","","","","","","35","","9","","","","","","","","","","NA"
"-79.40","43.63","TORONTO ISLAND A","6158665","1992-03-15 05:00","1992","03","15","05:00","","","","","","","","33","","9","","","","","","","","","","NA"
"-79.40","43.63","TORONTO ISLAND A","6158665","1992-03-15 06:00","1992","03","15","06:00","","","","","","","","32","","7","","","","","","","","","","NA"
"-79.40","43.63","TORONTO ISLAND A","6158665","1992-03-15 07:00","1992","03","15","07:00","","-9.8","","-15.9","","61","","31","","7","","25.0","","100.68","","","","-14","","Clear"
"-79.40","43.63","TORONTO ISLAND A","6158665","1992-03-15 08:00","1992","03","15","08:00","","-9.3","","-15.4","","61","","31","","11","","25.0","","100.75","","","","-15","","Clear"
"-79.40","43.63","TORONTO ISLAND A","6158665","1992-03-15 09:00","1992","03","15","09:00","","-8.3","","-16.4","","52","","32","","11","","25.0","","100.82","","","","-14","","Clear"
"-79.40","43.63","TORONTO ISLAND A","6158665","1992-03-15 10:00","1992","03","15","10:00","","-7.4","","-18.7","","40","","33","","15","","25.0","","100.85","","","","-14","","Mainly Clear"
"-79.40","43.63","TORONTO ISLAND A","6158665","1992-03-15 11:00","1992","03","15","11:00","","-6.5","","-18.8","","37","","33","","28","","25.0","","100.85","","","","-15","","Mainly Clear"
"-79.40","43.63","TORONTO ISLAND A","6158665","1992-03-15 12:00","1992","03","15","12:00","","-6.4","","-18.7","","37","","1","","13","","25.0","","100.82","","","","-12","","Mostly Cloudy"
"-79.40","43.63","TORONTO ISLAND A","6158665","1992-03-15 13:00","1992","03","15","13:00","","-6.3","","-17.3","","41","","34","","20","","25.0","","100.85","","","","-13","","Mostly Cloudy"
"-79.40","43.63","TORONTO ISLAND A","6158665","1992-03-15 14:00","1992","03","15","14:00","","-7.0","","-16.0","","48","","33","","19","","25.0","","100.85","","","","-14","","Cloudy"
"-79.40","43.63","TORONTO ISLAND A","6158665","1992-03-15 15:00","1992","03","15","15:00","","-6.8","","-15.2","","51","","30","","22","","24.1","","100.85","","","","-14","","Snow Showers"
"-79.40","43.63","TORONTO ISLAND A","6158665","1992-03-15 16:00","1992","03","15","16:00","","-7.7","","-18.4","","42","","33","","26","","25.0","","100.89","","","","-16","","Mostly Cloudy"
"-79.40","43.63","TORONTO ISLAND A","6158665","1992-03-15 17:00","1992","03","15","17:00","","-7.8","","-18.3","","43","","32","","20","","25.0","","100.92","","","","-15","","Mainly Clear"
"-79.40","43.63","TORONTO ISLAND A","6158665","1992-03-15 18:00","1992","03","15","18:00","","-8.8","","-19.3","","42","","34","","26","","25.0","","101.02","","","","-17","","Mainly Clear"
"-79.40","43.63","TORONTO ISLAND A","6158665","1992-03-15 19:00","1992","03","15","19:00","","-10.1","","-17.2","","56","","34","","19","","24.1","","101.12","","","","-18","","Clear"
"-79.40","43.63","TORONTO ISLAND A","6158665","1992-03-15 20:00","1992","03","15","20:00","","-10.5","","-17.1","","58","","33","","19","","24.1","","101.22","","","","-18","","Clear"
"-79.40","43.63","TORONTO ISLAND A","6158665","1992-03-15 21:00","1992","03","15","21:00","","-10.5","","-16.8","","60","","32","","19","","24.1","","101.22","","","","-18","","Clear"
"-79.40","43.63","TORONTO ISLAND A","6158665","1992-03-15 22:00","1992","03","15","22:00","","-10.5","","-17.1","","58","","33","","20","","24.1","","101.26","","","","-18","","Clear"
"-79.40","43.63","TORONTO ISLAND A","6158665","1992-03-15 23:00","1992","03","15","23:00","","","","","","","","31","","13","","","","","","","","","","NA"
"-79.40","43.63","TORONTO ISLAND A","6158665","1992-03-16 00:00","1992","03","16","00:00","","","","","","","","30","","11","","","","","","","","","","NA"
"-79.40","43.63","TORONTO ISLAND A","6158665","1992-03-16 01:00","1992","03","16","01:00","","","","","","","","28","","7","","","","","","","","","","NA"
"-79.40","43.63","TORONTO ISLAND A","6158665","1992-03-16 02:00","1992","03","16","02:00","","","","","","","","27","","6","","","","","","","","","","NA"
"-79.40","43.63","TORONTO ISLAND A","6158665","1992-03-16 03:00","1992","03","16","03:00","","","","","","","","28","","4","","","","","","","","","","NA"
"-79.40","43.63","TORONTO ISLAND A","6158665","1992-03-16 04:00","1992","03","16","04:00","","","","","","","","28","","6","","","","","","","","","","NA"
"-79.40","43.63","TORONTO ISLAND A","6158665","1992-03-16 05:00","1992","03","16","05:00","","","","","","","","28","","7","","","","","","","","","","NA"
"-79.40","43.63","TORONTO ISLAND A","6158665","1992-03-16 06:00","1992","03","16","06:00","","","","","","","","27","","7","","","","","","","","","","NA"
"-79.40","43.63","TORONTO ISLAND A","6158665","1992-03-16 07:00","1992","03","16","07:00","","-10.5","","-17.9","","54","","28","","4","","25.0","","101.42","","","","-13","","Clear"
"-79.40","43.63","TORONTO ISLAND A","6158665","1992-03-16 08:00","1992","03","16","08:00","","-9.0","","-17.3","","51","","28","","13","","25.0","","101.46","","","","-15","","Clear"
"-79.40","43.63","TORONTO ISLAND A","6158665","1992-03-16 09:00","1992","03","16","09:00","","-6.6","","-14.7","","52","","24","","17","","25.0","","101.46","","","","-13","","Clear"
"-79.40","43.63","TORONTO ISLAND A","6158665","1992-03-16 10:00","1992","03","16","10:00","","-4.8","","-12.5","","55","","24","","20","","25.0","","101.42","","","","-11","","Mostly Cloudy"
"-79.40","43.63","TORONTO ISLAND A","6158665","1992-03-16 11:00","1992","03","16","11:00","","-3.0","","-11.5","","52","","23","","15","","25.0","","101.36","","","","-8","","Mostly Cloudy"
"-79.40","43.63","TORONTO ISLAND A","6158665","1992-03-16 12:00","1992","03","16","12:00","","-1.4","","-12.8","","41","","23","","24","","25.0","","101.29","","","","-8","","Mostly Cloudy"
"-79.40","43.63","TORONTO ISLAND A","6158665","1992-03-16 13:00","1992","03","16","13:00","","-0.7","","-12.3","","41","","21","","30","","25.0","","101.19","","","","-7","","Mainly Clear"
"-79.40","43.63","TORONTO ISLAND A","6158665","1992-03-16 14:00","1992","03","16","14:00","","0.1","","-11.3","","42","","21","","37","","25.0","","101.05","","","","","","Clear"
"-79.40","43.63","TORONTO ISLAND A","6158665","1992-03-16 15:00","1992","03","16","15:00","","1.0","","-10.0","","43","","22","","33","","25.0","","100.92","","","","","","Mainly Clear"
"-79.40","43.63","TORONTO ISLAND A","6158665","1992-03-16 16:00","1992","03","16","16:00","","1.0","","-8.8","","48","","21","","37","","25.0","","100.79","","","","","","Clear"
"-79.40","43.63","TORONTO ISLAND A","6158665","1992-03-16 17:00","1992","03","16","17:00","","0.6","","-8.8","","49","","22","","37","","25.0","","100.72","","","","","","Mostly Cloudy"
"-79.40","43.63","TORONTO ISLAND A","6158665","1992-03-16 18:00","1992","03","16","18:00","","1.6","","-7.8","","50","","23","","37","","25.0","","100.68","","","","","","Mostly Cloudy"
"-79.40","43.63","TORONTO ISLAND A","6158665","1992-03-16 19:00","1992","03","16","19:00","","-0.3","","-10.0","","48","","23","","33","","25.0","","100.65","","","","-7","","Mostly Cloudy"
"-79.40","43.63","TORONTO ISLAND A","6158665","1992-03-16 20:00","1992","03","16","20:00","","0.0","","-8.9","","51","","24","","26","","25.0","","100.52","","","","-6","","Mainly Clear"
"-79.40","43.63","TORONTO ISLAND A","6158665","1992-03-16 21:00","1992","03","16","21:00","","0.0","","-6.8","","60","","22","","26","","25.0","","100.42","","","","-6","","Mostly Cloudy"
"-79.40","43.63","TORONTO ISLAND A","6158665","1992-03-16 22:00","1992","03","16","22:00","","0.5","","-5.3","","65","","22","","26","","25.0","","100.31","","","","","","Cloudy"
"-79.40","43.63","TORONTO ISLAND A","6158665","1992-03-16 23:00","1992","03","16","23:00","","","","","","","","25","","30","","","","","","","","","","NA"
"-79.40","43.63","TORONTO ISLAND A","6158665","1992-03-17 00:00","1992","03","17","00:00","","","","","","","","25","","24","","","","","","","","","","NA"
"-79.40","43.63","TORONTO ISLAND A","6158665","1992-03-17 01:00","1992","03","17","01:00","","","","","","","","24","","24","","","","","","","","","","NA"
"-79.40","43.63","TORONTO ISLAND A","6158665","1992-03-17 02:00","1992","03","17","02:00","","","","","","","","25","","37","","","","","","","","","","NA"
"-79.40","43.63","TORONTO ISLAND A","6158665","1992-03-17 03:00","1992","03","17","03:00","","","","","","","","23","","35","","","","","","","","","","NA"
"-79.40","43.63","TORONTO ISLAND A","6158665","1992-03-17 04:00","1992","03","17","04:00","","","","","","","","23","","33","","","","","","","","","","NA"
"-79.40","43.63","TORONTO ISLAND A","6158665","1992-03-17 05:00","1992","03","17","05:00","","","","","","","","24","","31","","","","","","","","","","NA"
"-79.40","43.63","TORONTO ISLAND A","6158665","1992-03-17 06:00","1992","03","17","06:00","","","","","","","","24","","33","","","","","","","","","","NA"
"-79.40","43.63","TORONTO ISLAND A","6158665","1992-03-17 07:00","1992","03","17","07:00","","1.3","","-0.1","","90","","24","","33","","8.0","","99.78","","","","","","Fog"
"-79.40","43.63","TORONTO ISLAND A","6158665","1992-03-17 08:00","1992","03","17","08:00","","1.4","","0.2","","92","","24","","30","","6.4","","99.81","","","","","","Drizzle,Fog"
"-79.40","43.63","TORONTO ISLAND A","6158665","1992-03-17 09:00","1992","03","17","09:00","","1.7","","0.7","","93","","24","","26","","8.0","","99.84","","","","","","Drizzle,Fog"
"-79.40","43.63","TORONTO ISLAND A","6158665","1992-03-17 10:00","1992","03","17","10:00","","1.9","","0.8","","92","","23","","30","","4.8","","99.84","","","","","","Rain,Fog"
"-79.40","43.63","TORONTO ISLAND A","6158665","1992-03-17 11:00","1992","03","17","11:00","","2.6","","1.6","","93","","23","","28","","4.8","","99.88","","","","","","Fog"
"-79.40","43.63","TORONTO ISLAND A","6158665","1992-03-17 12:00","1992","03","17","12:00","","4.4","","1.9","","84","","27","","28","","12.9","","99.88","","","","","","Mostly Cloudy"
"-79.40","43.63","TORONTO ISLAND A","6158665","1992-03-17 13:00","1992","03","17","13:00","","6.4","","-6.2","","40","","32","","37","","25.0","","99.91","","","","","","Mainly Clear"
"-79.40","43.63","TORONTO ISLAND A","6158665","1992-03-17 14:00","1992","03","17","14:00","","6.8","","-5.9","","40","","29","","48","","25.0","","99.98","","","","","","Mostly Cloudy"
"-79.40","43.63","TORONTO ISLAND A","6158665","1992-03-17 15:00","1992","03","17","15:00","","5.1","","-5.6","","46","","30","","56","","25.0","","100.08","","","","","","Snow Showers"
"-79.40","43.63","TORONTO ISLAND A","6158665","1992-03-17 16:00","1992","03","17","16:00","","4.9","","-7.3","","41","","29","","54","","25.0","","100.18","","","","","","Mainly Clear"
"-79.40","43.63","TORONTO ISLAND A","6158665","1992-03-17 17:00","1992","03","17","17:00","","3.1","","-7.6","","45","","30","","46","","25.0","","100.38","","","","","","Mainly Clear"
"-79.40","43.63","TORONTO ISLAND A","6158665","1992-03-17 18:00","1992","03","17","18:00","","1.1","","-8.1","","50","","30","","33","","25.0","","100.55","","","","","","Mainly Clear"
"-79.40","43.63","TORONTO ISLAND A","6158665","1992-03-17 19:00","1992","03","17","19:00","","0.0","","-8.7","","52","","30","","33","","25.0","","100.68","","","","-7","","Mainly Clear"
"-79.40","43.63","TORONTO ISLAND A","6158665","1992-03-17 20:00","1992","03","17","20:00","","-1.0","","-9.0","","54","","29","","26","","25.0","","100.85","","","","-7","","Mostly Cloudy"
"-79.40","43.63","TORONTO ISLAND A","6158665","1992-03-17 21:00","1992","03","17","21:00","","-1.6","","-9.4","","55","","30","","24","","25.0","","100.95","","","","-8","","Mainly Clear"
"-79.40","43.63","TORONTO ISLAND A","6158665","1992-03-17 22:00","1992","03","17","22:00","","-2.4","","-10.5","","54","","33","","28","","25.0","","101.09","","","","-9","","Mainly Clear"
"-79.40","43.63","TORONTO ISLAND A","6158665","1992-03-17 23:00","1992","03","17","23:00","","","","","","","","32","","19","","","","","","","","","","NA"
"-79.40","43.63","TORONTO ISLAND A","6158665","1992-03-18 00:00","1992","03","18","00:00","","","","","","","","31","","19","","","","","","","","","","NA"
"-79.40","43.63","TORONTO ISLAND A","6158665","1992-03-18 01:00","1992","03","18","01:00","","","","","","","","31","","11","","","","","","","","","","NA"
"-79.40","43.63","TORONTO ISLAND A","6158665","1992-03-18 02:00","1992","03","18","02:00","","","","","","","","28","","13","","","","","","","","","","NA"
"-79.40","43.63","TORONTO ISLAND A","6158665","1992-03-18 03:00","1992","03","18","03:00","","","","","","","","31","","11","","","","","","","","","","NA"
"-79.40","43.63","TORONTO ISLAND A","6158665","1992-03-18 04:00","1992","03","18","04:00","","","","","","","","33","","11","","","","","","","","","","NA"
"-79.40","43.63","TORONTO ISLAND A","6158665","1992-03-18 05:00","1992","03","18","05:00","","","","","","","","34","","15","","","","","","","","","","NA"
"-79.40","43.63","TORONTO ISLAND A","6158665","1992-03-18 06:00","1992","03","18","06:00","","","","","","","","34","","13","","","","","","","","","","NA"
"-79.40","43.63","TORONTO ISLAND A","6158665","1992-03-18 07:00","1992","03","18","07:00","","-5.8","","-10.8","","68","","33","","13","","24.1","","101.52","","","","-11","","Clear"
"-79.40","43.63","TORONTO ISLAND A","6158665","1992-03-18 08:00","1992","03","18","08:00","","-4.8","","-10.7","","63","","33","","11","","24.1","","101.56","","","","-9","","Clear"
"-79.40","43.63","TORONTO ISLAND A","6158665","1992-03-18 09:00","1992","03","18","09:00","","-3.3","","-10.4","","58","","31","","9","","24.1","","101.52","","","","-7","","Clear"
"-79.40","43.63","TORONTO ISLAND A","6158665","1992-03-18 10:00","1992","03","18","10:00","","-2.3","","-10.5","","53","","27","","6","","24.1","","101.49","","","","-5","","Clear"
"-79.40","43.63","TORONTO ISLAND A","6158665","1992-03-18 11:00","1992","03","18","11:00","","-2.0","","-10.3","","53","","19","","15","","24.1","","101.46","","","","-7","","Clear"
"-79.40","43.63","TORONTO ISLAND A","6158665","1992-03-18 12:00","1992","03","18","12:00","","-1.0","","-9.5","","52","","19","","15","","24.1","","101.39","","","","-6","","Clear"
"-79.40","43.63","TORONTO ISLAND A","6158665","1992-03-18 13:00","1992","03","18","13:00","","-1.1","","-9.1","","54","","16","","19","","24.1","","101.36","","","","-6","","Mainly Clear"
"-79.40","43.63","TORONTO ISLAND A","6158665","1992-03-18 14:00","1992","03","18","14:00","","-0.6","","-9.9","","49","","16","","15","","25.0","","101.22","","","","-5","","Mostly Cloudy"
"-79.40","43.63","TORONTO ISLAND A","6158665","1992-03-18 15:00","1992","03","18","15:00","","-0.5","","-10.5","","47","","16","","17","","25.0","","101.15","","","","-5","","Mostly Cloudy"
"-79.40","43.63","TORONTO ISLAND A","6158665","1992-03-18 16:00","1992","03","18","16:00","","-0.7","","-11.0","","46","","11","","15","","25.0","","101.05","","","","-5","","Cloudy"
"-79.40","43.63","TORONTO ISLAND A","6158665","1992-03-18 17:00","1992","03","18","17:00","","-0.7","","-10.3","","48","","12","","13","","24.1","","101.02","","","","-5","","Cloudy"
"-79.40","43.63","TORONTO ISLAND A","6158665","1992-03-18 18:00","1992","03","18","18:00","","-0.8","","-9.2","","53","","10","","13","","24.1","","100.92","","","","-5","","Cloudy"
"-79.40","43.63","TORONTO ISLAND A","6158665","1992-03-18 19:00","1992","03","18","19:00","","-0.7","","-8.1","","57","","9","","19","","24.1","","100.89","","","","-6","","Cloudy"
"-79.40","43.63","TORONTO ISLAND A","6158665","1992-03-18 20:00","1992","03","18","20:00","","-0.4","","-8.3","","55","","6","","19","","24.1","","100.75","","","","-6","","Mostly Cloudy"
"-79.40","43.63","TORONTO ISLAND A","6158665","1992-03-18 21:00","1992","03","18","21:00","","-0.5","","-8.0","","57","","6","","17","","24.1","","100.72","","","","-5","","Mostly Cloudy"
"-79.40","43.63","TORONTO ISLAND A","6158665","1992-03-18 22:00","1992","03","18","22:00","","-0.9","","-7.9","","59","","5","","19","","25.0","","100.65","","","","-6","","Cloudy"
"-79.40","43.63","TORONTO ISLAND A","6158665","1992-03-18 23:00","1992","03","18","23:00","","","","","","","","5","","19","","","","","","","","","","NA"
"-79.40","43.63","TORONTO ISLAND A","6158665","1992-03-19 00:00","1992","03","19","00:00","","","","","","","","5","","24","","","","","","","","","","NA"
"-79.40","43.63","TORONTO ISLAND A","6158665","1992-03-19 01:00","1992","03","19","01:00","","","","","","","","5","","22","","","","","","","","","","NA"
"-79.40","43.63","TORONTO ISLAND A","6158665","1992-03-19 02:00","1992","03","19","02:00","","","","","","","","5","","26","","","","","","","","","","NA"
"-79.40","43.63","TORONTO ISLAND A","6158665","1992-03-19 03:00","1992","03","19","03:00","","","","","","","","5","","24","","","","","","","","","","NA"
"-79.40","43.63","TORONTO ISLAND A","6158665","1992-03-19 04:00","1992","03","19","04:00","","","","","","","","5","","24","","","","","","","","","","NA"
"-79.40","43.63","TORONTO ISLAND A","6158665","1992-03-19 05:00","1992","03","19","05:00","","","","","","","","5","","26","","","","","","","","","","NA"
"-79.40","43.63","TORONTO ISLAND A","6158665","1992-03-19 06:00","1992","03","19","06:00","","","","","","","","5","","22","","","","","","","","","","NA"
"-79.40","43.63","TORONTO ISLAND A","6158665","1992-03-19 07:00","1992","03","19","07:00","","-2.4","","-11.3","","50","","5","","17","","24.1","","100.21","","","","-8","","Mostly Cloudy"
"-79.40","43.63","TORONTO ISLAND A","6158665","1992-03-19 08:00","1992","03","19","08:00","","-1.8","","-10.3","","52","","6","","22","","24.1","","100.18","","","","-8","","Mostly Cloudy"
"-79.40","43.63","TORONTO ISLAND A","6158665","1992-03-19 09:00","1992","03","19","09:00","","-0.8","","-10.3","","48","","6","","24","","24.1","","100.21","","","","-7","","Mostly Cloudy"
"-79.40","43.63","TORONTO ISLAND A","6158665","1992-03-19 10:00","1992","03","19","10:00","","0.0","","-11.2","","42","","8","","28","","24.1","","100.21","","","","-6","","Mostly Cloudy"
"-79.40","43.63","TORONTO ISLAND A","6158665","1992-03-19 11:00","1992","03","19","11:00","","0.6","","-10.7","","42","","8","","26","","24.1","","100.21","","","","","","Mainly Clear"
"-79.40","43.63","TORONTO ISLAND A","6158665","1992-03-19 12:00","1992","03","19","12:00","","1.0","","-10.1","","43","","8","","28","","24.1","","100.18","","","","","","Mainly Clear"
"-79.40","43.63","TORONTO ISLAND A","6158665","1992-03-19 13:00","1992","03","19","13:00","","1.6","","-9.2","","44","","9","","24","","25.0","","100.15","","","","","","Clear"
"-79.40","43.63","TORONTO ISLAND A","6158665","1992-03-19 14:00","1992","03","19","14:00","","1.6","","-8.6","","46","","11","","19","","25.0","","100.08","","","","","","Mainly Clear"
"-79.40","43.63","TORONTO ISLAND A","6158665","1992-03-19 15:00","1992","03","19","15:00","","1.5","","-8.2","","48","","14","","17","","25.0","","100.08","","","","","","Clear"
"-79.40","43.63","TORONTO ISLAND A","6158665","1992-03-19 16:00","1992","03","19","16:00","","1.6","","-7.5","","51","","18","","13","","25.0","","100.11","","","","","","Clear"
"-79.40","43.63","TORONTO ISLAND A","6158665","1992-03-19 17:00","1992","03","19","17:00","","0.7","","-7.1","","56","","20","","9","","25.0","","100.15","","","","","","Clear"
"-79.40","43.63","TORONTO ISLAND A","6158665","1992-03-19 18:00","1992","03","19","18:00","","0.3","","-6.8","","59","","23","","7","","25.0","","100.21","","","","","","Clear"
"-79.40","43.63","TORONTO ISLAND A","6158665","1992-03-19 19:00","1992","03","19","19:00","","-0.7","","-6.7","","64","","24","","11","","25.0","","100.21","","","","-4","","Clear"
"-79.40","43.63","TORONTO ISLAND A","6158665","1992-03-19 20:00","1992","03","19","20:00","","0.3","","-11.3","","41","","35","","15","","25.0","","100.25","","","","","","Clear"
"-79.40","43.63","TORONTO ISLAND A","6158665","1992-03-19 21:00","1992","03","19","21:00","","-0.4","","-11.8","","42","","34","","15","","25.0","","100.28","","","","-5","","Clear"
"-79.40","43.63","TORONTO ISLAND A","6158665","1992-03-19 22:00","1992","03","19","22:00","","-1.2","","-10.7","","48","","30","","13","","25.0","","100.31","","","","-5","","Clear"
"-79.40","43.63","TORONTO ISLAND A","6158665","1992-03-19 23:00","1992","03","19","23:00","","","","","","","","30","","20","","","","","","","","","","NA"
"-79.40","43.63","TORONTO ISLAND A","6158665","1992-03-20 00:00","1992","03","20","00:00","","","","","","","","30","","13","","","","","","","","","","NA"
"-79.40","43.63","TORONTO ISLAND A","6158665","1992-03-20 01:00","1992","03","20","01:00","","","","","","","","29","","17","","","","","","","","","","NA"
"-79.40","43.63","TORONTO ISLAND A","6158665","1992-03-20 02:00","1992","03","20","02:00","","","","","","","","28","","17","","","","","","","","","","NA"
"-79.40","43.63","TORONTO ISLAND A","6158665","1992-03-20 03:00","1992","03","20","03:00","","","","","","","","28","","19","","","","","","","","","","NA"
"-79.40","43.63","TORONTO ISLAND A","6158665","1992-03-20 04:00","1992","03","20","04:00","","","","","","","","28","","17","","","","","","","","","","NA"
"-79.40","43.63","TORONTO ISLAND A","6158665","1992-03-20 05:00","1992","03","20","05:00","","","","","","","","28","","19","","","","","","","","","","NA"
"-79.40","43.63","TORONTO ISLAND A","6158665","1992-03-20 06:00","1992","03","20","06:00","","","","","","","","28","","15","","","","","","","","","","NA"
"-79.40","43.63","TORONTO ISLAND A","6158665","1992-03-20 07:00","1992","03","20","07:00","","-2.9","","-6.7","","75","","28","","22","","24.1","","100.31","","","","-9","","Clear"
"-79.40","43.63","TORONTO ISLAND A","6158665","1992-03-20 08:00","1992","03","20","08:00","","-1.8","","-6.8","","69","","28","","19","","24.1","","100.31","","","","-7","","Clear"
"-79.40","43.63","TORONTO ISLAND A","6158665","1992-03-20 09:00","1992","03","20","09:00","","-0.3","","-8.3","","55","","31","","28","","24.1","","100.31","","","","-7","","Clear"
"-79.40","43.63","TORONTO ISLAND A","6158665","1992-03-20 10:00","1992","03","20","10:00","","0.2","","-8.8","","51","","30","","26","","24.1","","100.31","","","","","","Mostly Cloudy"
"-79.40","43.63","TORONTO ISLAND A","6158665","1992-03-20 11:00","1992","03","20","11:00","","1.6","","-8.8","","46","","29","","28","","24.1","","100.31","","","","","","Mostly Cloudy"
"-79.40","43.63","TORONTO ISLAND A","6158665","1992-03-20 12:00","1992","03","20","12:00","","2.5","","-10.0","","39","","32","","28","","25.0","","100.28","","","","","","Mostly Cloudy"
"-79.40","43.63","TORONTO ISLAND A","6158665","1992-03-20 13:00","1992","03","20","13:00","","2.3","","-10.5","","38","","29","","28","","25.0","","100.28","","","","","","Mostly Cloudy"
"-79.40","43.63","TORONTO ISLAND A","6158665","1992-03-20 14:00","1992","03","20","14:00","","1.9","","-10.4","","40","","33","","19","","25.0","","100.25","","","","","","Cloudy"
"-79.40","43.63","TORONTO ISLAND A","6158665","1992-03-20 15:00","1992","03","20","15:00","","2.6","","-9.7","","40","","28","","19","","25.0","","100.28","","","","","","Mostly Cloudy"
"-79.40","43.63","TORONTO ISLAND A","6158665","1992-03-20 16:00","1992","03","20","16:00","","0.6","","-6.9","","57","","34","","15","","25.0","","100.31","","","","","","Mainly Clear"
"-79.40","43.63","TORONTO ISLAND A","6158665","1992-03-20 17:00","1992","03","20","17:00","","0.7","","-8.2","","51","","35","","19","","25.0","","100.35","","","","","","Mainly Clear"
"-79.40","43.63","TORONTO ISLAND A","6158665","1992-03-20 18:00","1992","03","20","18:00","","-0.7","","-7.5","","60","","33","","22","","25.0","","100.42","","","","-6","","Mainly Clear"
"-79.40","43.63","TORONTO ISLAND A","6158665","1992-03-20 19:00","1992","03","20","19:00","","-1.5","","-7.7","","62","","33","","19","","25.0","","100.52","","","","-7","","Clear"
"-79.40","43.63","TORONTO ISLAND A","6158665","1992-03-20 20:00","1992","03","20","20:00","","-1.8","","-9.2","","57","","34","","19","","25.0","","100.55","","","","-7","","Clear"
"-79.40","43.63","TORONTO ISLAND A","6158665","1992-03-20 21:00","1992","03","20","21:00","","-2.3","","-9.3","","59","","32","","15","","25.0","","100.62","","","","-7","","Clear"
"-79.40","43.63","TORONTO ISLAND A","6158665","1992-03-20 22:00","1992","03","20","22:00","","-2.8","","-9.2","","61","","31","","19","","25.0","","100.62","","","","-9","","Clear"
"-79.40","43.63","TORONTO ISLAND A","6158665","1992-03-20 23:00","1992","03","20","23:00","","","","","","","","32","","19","","","","","","","","","","NA"
"-79.40","43.63","TORONTO ISLAND A","6158665","1992-03-21 00:00","1992","03","21","00:00","","","","","","","","34","","19","","","","","","","","","","NA"
"-79.40","43.63","TORONTO ISLAND A","6158665","1992-03-21 01:00","1992","03","21","01:00","","","","","","","","34","","15","","","","","","","","","","NA"
"-79.40","43.63","TORONTO ISLAND A","6158665","1992-03-21 02:00","1992","03","21","02:00","","","","","","","","34","","17","","","","","","","","","","NA"
"-79.40","43.63","TORONTO ISLAND A","6158665","1992-03-21 03:00","1992","03","21","03:00","","","","","","","","34","","15","","","","","","","","","","NA"
"-79.40","43.63","TORONTO ISLAND A","6158665","1992-03-21 04:00","1992","03","21","04:00","","","","","","","","34","","15","","","","","","","","","","NA"
"-79.40","43.63","TORONTO ISLAND A","6158665","1992-03-21 05:00","1992","03","21","05:00","","","","","","","","33","","15","","","","","","","","","","NA"
"-79.40","43.63","TORONTO ISLAND A","6158665","1992-03-21 06:00","1992","03","21","06:00","","","","","","","","33","","15","","","","","","","","","","NA"
"-79.40","43.63","TORONTO ISLAND A","6158665","1992-03-21 07:00","1992","03","21","07:00","","-6.4","","-13.9","","55","","34","","19","","25.0","","101.09","","","","-13","","Clear"
"-79.40","43.63","TORONTO ISLAND A","6158665","1992-03-21 08:00","1992","03","21","08:00","","-5.6","","-14.8","","48","","35","","11","","25.0","","101.12","","","","-10","","Clear"
"-79.40","43.63","TORONTO ISLAND A","6158665","1992-03-21 09:00","1992","03","21","09:00","","-4.4","","-15.2","","42","","32","","9","","25.0","","101.12","","","","-8","","Clear"
"-79.40","43.63","TORONTO ISLAND A","6158665","1992-03-21 10:00","1992","03","21","10:00","","-2.9","","-15.0","","39","","31","","6","","25.0","","101.15","","","","-5","","Clear"
"-79.40","43.63","TORONTO ISLAND A","6158665","1992-03-21 11:00","1992","03","21","11:00","","-2.3","","-13.5","","42","","32","","19","","25.0","","101.22","","","","-8","","Mainly Clear"
"-79.40","43.63","TORONTO ISLAND A","6158665","1992-03-21 12:00","1992","03","21","12:00","","-1.4","","-12.8","","41","","32","","15","","25.0","","101.19","","","","-6","","Mostly Cloudy"
"-79.40","43.63","TORONTO ISLAND A","6158665","1992-03-21 13:00","1992","03","21","13:00","","0.1","","-11.7","","40","","33","","11","","24.1","","101.15","","","","","","Mostly Cloudy"
"-79.40","43.63","TORONTO ISLAND A","6158665","1992-03-21 14:00","1992","03","21","14:00","","-1.0","","-10.7","","47","","20","","20","","25.0","","101.12","","","","-7","","Cloudy"
"-79.40","43.63","TORONTO ISLAND A","6158665","1992-03-21 15:00","1992","03","21","15:00","","-1.4","","-9.9","","52","","17","","13","","25.0","","101.05","","","","-6","","Cloudy"
"-79.40","43.63","TORONTO ISLAND A","6158665","1992-03-21 16:00","1992","03","21","16:00","","-1.1","","-9.6","","52","","17","","15","","24.1","","101.05","","","","-6","","Cloudy"
"-79.40","43.63","TORONTO ISLAND A","6158665","1992-03-21 17:00","1992","03","21","17:00","","-2.6","","-8.1","","66","","34","","4","","4.8","","101.05","","","","-4","","Snow Showers"
"-79.40","43.63","TORONTO ISLAND A","6158665","1992-03-21 18:00","1992","03","21","18:00","","-2.6","","-8.1","","66","","27","","4","","11.3","","101.02","","","","-4","","Snow Showers"
"-79.40","43.63","TORONTO ISLAND A","6158665","1992-03-21 19:00","1992","03","21","19:00","","-2.6","","-8.4","","64","","35","","6","","16.1","","101.02","","","","-5","","Snow Showers"
"-79.40","43.63","TORONTO ISLAND A","6158665","1992-03-21 20:00","1992","03","21","20:00","","-2.9","","-15.3","","38","","36","","17","","25.0","","101.05","","","","-8","","Mostly Cloudy"
"-79.40","43.63","TORONTO ISLAND A","6158665","1992-03-21 21:00","1992","03","21","21:00","","-3.3","","-15.3","","39","","35","","15","","25.0","","101.02","","","","-8","","Mainly Clear"
"-79.40","43.63","TORONTO ISLAND A","6158665","1992-03-21 22:00","1992","03","21","22:00","","-4.4","","-16.2","","39","","1","","15","","25.0","","101.02","","","","-10","","Clear"
"-79.40","43.63","TORONTO ISLAND A","6158665","1992-03-21 23:00","1992","03","21","23:00","","","","","","","","5","","13","","","","","","","","","","NA"
"-79.40","43.63","TORONTO ISLAND A","6158665","1992-03-22 00:00","1992","03","22","00:00","","","","","","","","2","","9","","","","","","","","","","NA"
"-79.40","43.63","TORONTO ISLAND A","6158665","1992-03-22 01:00","1992","03","22","01:00","","","","","","","","3","","9","","","","","","","","","","NA"
"-79.40","43.63","TORONTO ISLAND A","6158665","1992-03-22 02:00","1992","03","22","02:00","","","","","","","","7","","13","","","","","","","","","","NA"
"-79.40","43.63","TORONTO ISLAND A","6158665","1992-03-22 03:00","1992","03","22","03:00","","","","","","","","6","","17","","","","","","","","","","NA"
"-79.40","43.63","TORONTO ISLAND A","6158665","1992-03-22 04:00","1992","03","22","04:00","","","","","","","","2","","9","","","","","","","","","","NA"
"-79.40","43.63","TORONTO ISLAND A","6158665","1992-03-22 05:00","1992","03","22","05:00","","","","","","","","6","","13","","","","","","","","","","NA"
"-79.40","43.63","TORONTO ISLAND A","6158665","1992-03-22 06:00","1992","03","22","06:00","","","","","","","","6","","20","","","","","","","","","","NA"
"-79.40","43.63","TORONTO ISLAND A","6158665","1992-03-22 07:00","1992","03","22","07:00","","-3.0","","-8.0","","68","","5","","20","","9.7","","100.38","","","","-9","","Snow"
"-79.40","43.63","TORONTO ISLAND A","6158665","1992-03-22 08:00","1992","03","22","08:00","","-2.9","","-5.8","","80","","9","","20","","2.0","","100.38","","","","-9","","Snow"
"-79.40","43.63","TORONTO ISLAND A","6158665","1992-03-22 09:00","1992","03","22","09:00","","-2.6","","-5.0","","84","","10","","24","","2.0","","100.28","","","","-9","","Snow"
"-79.40","43.63","TORONTO ISLAND A","6158665","1992-03-22 10:00","1992","03","22","10:00","","-2.5","","-4.5","","86","","9","","26","","1.2","","100.18","","","","-9","","Snow"
"-79.40","43.63","TORONTO ISLAND A","6158665","1992-03-22 11:00","1992","03","22","11:00","","-2.8","","-4.6","","87","","10","","26","","1.2","","100.05","","","","-10","","Snow"
"-79.40","43.63","TORONTO ISLAND A","6158665","1992-03-22 12:00","1992","03","22","12:00","","-2.9","","-5.0","","85","","9","","30","","2.4","","99.94","","","","-10","","Snow"
"-79.40","43.63","TORONTO ISLAND A","6158665","1992-03-22 13:00","1992","03","22","13:00","","-2.7","","-5.0","","84","","8","","33","","1.6","","99.88","","","","-10","","Snow"
"-79.40","43.63","TORONTO ISLAND A","6158665","1992-03-22 14:00","1992","03","22","14:00","","-2.6","","-4.9","","84","","7","","28","","1.6","","99.81","","","","-10","","Snow"
"-79.40","43.63","TORONTO ISLAND A","6158665","1992-03-22 15:00","1992","03","22","15:00","","-2.4","","-5.3","","80","","7","","30","","1.6","","99.81","","","","-10","","Snow"
"-79.40","43.63","TORONTO ISLAND A","6158665","1992-03-22 16:00","1992","03","22","16:00","","-2.9","","-5.0","","85","","5","","26","","0.8","","99.84","","","","-10","","Moderate Snow"
"-79.40","43.63","TORONTO ISLAND A","6158665","1992-03-22 17:00","1992","03","22","17:00","","-2.9","","-5.5","","82","","5","","19","","2.4","","99.88","","","","-9","","Snow"
"-79.40","43.63","TORONTO ISLAND A","6158665","1992-03-22 18:00","1992","03","22","18:00","","-3.1","","-6.5","","77","","6","","22","","12.9","","99.91","","","","-9","","Snow"
"-79.40","43.63","TORONTO ISLAND A","6158665","1992-03-22 19:00","1992","03","22","19:00","","-3.1","","-6.5","","77","","7","","22","","19.3","","99.98","","","","-9","","Snow"
"-79.40","43.63","TORONTO ISLAND A","6158665","1992-03-22 20:00","1992","03","22","20:00","","-3.7","","-8.6","","69","","6","","15","","25.0","","100.05","","","","-9","","Mainly Clear"
"-79.40","43.63","TORONTO ISLAND A","6158665","1992-03-22 21:00","1992","03","22","21:00","","-3.7","","-8.9","","67","","2","","13","","25.0","","100.08","","","","-9","","Mostly Cloudy"
"-79.40","43.63","TORONTO ISLAND A","6158665","1992-03-22 22:00","1992","03","22","22:00","","-3.7","","-9.5","","64","","33","","11","","25.0","","100.11","","","","-8","","Mostly Cloudy"
"-79.40","43.63","TORONTO ISLAND A","6158665","1992-03-22 23:00","1992","03","22","23:00","","","","","","","","32","","13","","","","","","","","","","NA"
"-79.40","43.63","TORONTO ISLAND A","6158665","1992-03-23 00:00","1992","03","23","00:00","","","","","","","","34","","9","","","","","","","","","","NA"
"-79.40","43.63","TORONTO ISLAND A","6158665","1992-03-23 01:00","1992","03","23","01:00","","","","","","","","32","","11","","","","","","","","","","NA"
"-79.40","43.63","TORONTO ISLAND A","6158665","1992-03-23 02:00","1992","03","23","02:00","","","","","","","","31","","11","","","","","","","","","","NA"
"-79.40","43.63","TORONTO ISLAND A","6158665","1992-03-23 03:00","1992","03","23","03:00","","","","","","","","32","","9","","","","","","","","","","NA"
"-79.40","43.63","TORONTO ISLAND A","6158665","1992-03-23 04:00","1992","03","23","04:00","","","","","","","","34","","11","","","","","","","","","","NA"
"-79.40","43.63","TORONTO ISLAND A","6158665","1992-03-23 05:00","1992","03","23","05:00","","","","","","","","33","","17","","","","","","","","","","NA"
"-79.40","43.63","TORONTO ISLAND A","6158665","1992-03-23 06:00","1992","03","23","06:00","","","","","","","","34","","19","","","","","","","","","","NA"
"-79.40","43.63","TORONTO ISLAND A","6158665","1992-03-23 07:00","1992","03","23","07:00","","-7.5","","-13.3","","63","","32","","15","","19.3","","100.31","","","","-14","","Clear"
"-79.40","43.63","TORONTO ISLAND A","6158665","1992-03-23 08:00","1992","03","23","08:00","","-5.7","","-11.3","","65","","34","","22","","25.0","","100.38","","","","-13","","Clear"
"-79.40","43.63","TORONTO ISLAND A","6158665","1992-03-23 09:00","1992","03","23","09:00","","-4.1","","-11.1","","58","","34","","22","","25.0","","100.45","","","","-11","","Clear"
"-79.40","43.63","TORONTO ISLAND A","6158665","1992-03-23 10:00","1992","03","23","10:00","","-2.4","","-13.4","","42","","36","","19","","25.0","","100.52","","","","-8","","Clear"
"-79.40","43.63","TORONTO ISLAND A","6158665","1992-03-23 11:00","1992","03","23","11:00","","-1.0","","-14.1","","36","","35","","15","","25.0","","100.52","","","","-6","","Mainly Clear"
"-79.40","43.63","TORONTO ISLAND A","6158665","1992-03-23 12:00","1992","03","23","12:00","","-1.0","","-11.7","","44","","31","","11","","25.0","","100.52","","","","-5","","Mostly Cloudy"
"-79.40","43.63","TORONTO ISLAND A","6158665","1992-03-23 13:00","1992","03","23","13:00","","-0.3","","-13.9","","35","","31","","7","","25.0","","100.52","","","","-3","","Cloudy"
"-79.40","43.63","TORONTO ISLAND A","6158665","1992-03-23 14:00","1992","03","23","14:00","","-0.6","","-13.4","","37","","24","","11","","19.3","","100.48","","","","-4","","Cloudy"
"-79.40","43.63","TORONTO ISLAND A","6158665","1992-03-23 15:00","1992","03","23","15:00","","-0.6","","-9.8","","50","","25","","17","","24.1","","100.52","","","","-6","","Cloudy"
"-79.40","43.63","TORONTO ISLAND A","6158665","1992-03-23 16:00","1992","03","23","16:00","","-0.4","","-9.4","","50","","22","","19","","19.3","","100.52","","","","-6","","Cloudy"
"-79.40","43.63","TORONTO ISLAND A","6158665","1992-03-23 17:00","1992","03","23","17:00","","-0.9","","-8.5","","56","","22","","20","","16.1","","100.52","","","","-6","","Cloudy"
"-79.40","43.63","TORONTO ISLAND A","6158665","1992-03-23 18:00","1992","03","23","18:00","","-1.5","","-6.2","","70","","24","","17","","9.7","","100.58","","","","-7","","Snow Showers"
"-79.40","43.63","TORONTO ISLAND A","6158665","1992-03-23 19:00","1992","03","23","19:00","","-2.8","","-5.3","","83","","35","","11","","2.4","","100.65","","","","-7","","Snow"
"-79.40","43.63","TORONTO ISLAND A","6158665","1992-03-23 20:00","1992","03","23","20:00","","-2.9","","-5.6","","81","","29","","7","","24.1","","100.72","","","","-6","","Mainly Clear"
"-79.40","43.63","TORONTO ISLAND A","6158665","1992-03-23 21:00","1992","03","23","21:00","","-2.8","","-5.7","","80","","28","","7","","24.1","","100.75","","","","-6","","Mainly Clear"
"-79.40","43.63","TORONTO ISLAND A","6158665","1992-03-23 22:00","1992","03","23","22:00","","-3.0","","-6.5","","77","","29","","6","","24.1","","100.82","","","","-5","","Mainly Clear"
"-79.40","43.63","TORONTO ISLAND A","6158665","1992-03-23 23:00","1992","03","23","23:00","","","","","","","","28","","7","","","","","","","","","","NA"
"-79.40","43.63","TORONTO ISLAND A","6158665","1992-03-24 00:00","1992","03","24","00:00","","","","","","","","28","","11","","","","","","","","","","NA"
"-79.40","43.63","TORONTO ISLAND A","6158665","1992-03-24 01:00","1992","03","24","01:00","","","","","","","","28","","13","","","","","","","","","","NA"
"-79.40","43.63","TORONTO ISLAND A","6158665","1992-03-24 02:00","1992","03","24","02:00","","","","","","","","25","","7","","","","","","","","","","NA"
"-79.40","43.63","TORONTO ISLAND A","6158665","1992-03-24 03:00","1992","03","24","03:00","","","","","","","","24","","13","","","","","","","","","","NA"
"-79.40","43.63","TORONTO ISLAND A","6158665","1992-03-24 04:00","1992","03","24","04:00","","","","","","","","26","","9","","","","","","","","","","NA"
"-79.40","43.63","TORONTO ISLAND A","6158665","1992-03-24 05:00","1992","03","24","05:00","","","","","","","","27","","4","","","","","","","","","","NA"
"-79.40","43.63","TORONTO ISLAND A","6158665","1992-03-24 06:00","1992","03","24","06:00","","","","","","","","24","","11","","","","","","","","","","NA"
"-79.40","43.63","TORONTO ISLAND A","6158665","1992-03-24 07:00","1992","03","24","07:00","","-2.4","","-5.9","","77","","26","","13","","16.1","","101.12","","","","-7","","Mostly Cloudy"
"-79.40","43.63","TORONTO ISLAND A","6158665","1992-03-24 08:00","1992","03","24","08:00","","-2.8","","-7.1","","72","","33","","13","","12.9","","101.15","","","","-7","","Clear"
"-79.40","43.63","TORONTO ISLAND A","6158665","1992-03-24 09:00","1992","03","24","09:00","","-1.9","","-6.8","","69","","32","","19","","16.1","","101.26","","","","-7","","Mostly Cloudy"
"-79.40","43.63","TORONTO ISLAND A","6158665","1992-03-24 10:00","1992","03","24","10:00","","-1.4","","-6.5","","68","","33","","19","","24.1","","101.32","","","","-7","","Mostly Cloudy"
"-79.40","43.63","TORONTO ISLAND A","6158665","1992-03-24 11:00","1992","03","24","11:00","","-1.0","","-10.4","","49","","35","","15","","25.0","","101.36","","","","-6","","Mainly Clear"
"-79.40","43.63","TORONTO ISLAND A","6158665","1992-03-24 12:00","1992","03","24","12:00","","0.3","","-9.9","","46","","33","","19","","25.0","","101.39","","","","","","Clear"
"-79.40","43.63","TORONTO ISLAND A","6158665","1992-03-24 13:00","1992","03","24","13:00","","1.0","","-10.3","","43","","28","","19","","25.0","","101.39","","","","","","Clear"
"-79.40","43.63","TORONTO ISLAND A","6158665","1992-03-24 14:00","1992","03","24","14:00","","2.2","","-9.7","","41","","29","","9","","25.0","","101.36","","","","","","Clear"
"-79.40","43.63","TORONTO ISLAND A","6158665","1992-03-24 15:00","1992","03","24","15:00","","2.9","","-9.1","","41","","20","","17","","24.1","","101.36","","","","","","Clear"
"-79.40","43.63","TORONTO ISLAND A","6158665","1992-03-24 16:00","1992","03","24","16:00","","1.7","","-6.6","","54","","17","","19","","24.1","","101.36","","","","","","Clear"
"-79.40","43.63","TORONTO ISLAND A","6158665","1992-03-24 17:00","1992","03","24","17:00","","1.3","","-5.8","","59","","16","","9","","19.3","","101.39","","","","","","Mainly Clear"
"-79.40","43.63","TORONTO ISLAND A","6158665","1992-03-24 18:00","1992","03","24","18:00","","0.6","","-5.6","","63","","15","","6","","24.1","","101.42","","","","","","Mainly Clear"
"-79.40","43.63","TORONTO ISLAND A","6158665","1992-03-24 19:00","1992","03","24","19:00","","0.7","","-4.7","","67","","","","0","","24.1","","101.46","","","","","","Mostly Cloudy"
"-79.40","43.63","TORONTO ISLAND A","6158665","1992-03-24 20:00","1992","03","24","20:00","","0.4","","-4.3","","71","","9","","6","","24.1","","101.49","","","","","","Mainly Clear"
"-79.40","43.63","TORONTO ISLAND A","6158665","1992-03-24 21:00","1992","03","24","21:00","","0.2","","-4.5","","70","","10","","11","","24.1","","101.49","","","","","","Clear"
"-79.40","43.63","TORONTO ISLAND A","6158665","1992-03-24 22:00","1992","03","24","22:00","","0.2","","-4.0","","73","","9","","13","","24.1","","101.49","","","","","","Mainly Clear"
"-79.40","43.63","TORONTO ISLAND A","6158665","1992-03-24 23:00","1992","03","24","23:00","","","","","","","","9","","11","","","","","","","","","","NA"
"-79.40","43.63","TORONTO ISLAND A","6158665","1992-03-25 00:00","1992","03","25","00:00","","","","","","","","11","","7","","","","","","","","","","NA"
"-79.40","43.63","TORONTO ISLAND A","6158665","1992-03-25 01:00","1992","03","25","01:00","","","","","","","","7","","4","","","","","","","","","","NA"
"-79.40","43.63","TORONTO ISLAND A","6158665","1992-03-25 02:00","1992","03","25","02:00","","","","","","","","13","","4","","","","","","","","","","NA"
"-79.40","43.63","TORONTO ISLAND A","6158665","1992-03-25 03:00","1992","03","25","03:00","","","","","","","","10","","7","","","","","","","","","","NA"
"-79.40","43.63","TORONTO ISLAND A","6158665","1992-03-25 04:00","1992","03","25","04:00","","","","","","","","10","","11","","","","","","","","","","NA"
"-79.40","43.63","TORONTO ISLAND A","6158665","1992-03-25 05:00","1992","03","25","05:00","","","","","","","","8","","9","","","","","","","","","","NA"
"-79.40","43.63","TORONTO ISLAND A","6158665","1992-03-25 06:00","1992","03","25","06:00","","","","","","","","8","","13","","","","","","","","","","NA"
"-79.40","43.63","TORONTO ISLAND A","6158665","1992-03-25 07:00","1992","03","25","07:00","","1.4","","-1.6","","80","","8","","11","","12.9","","101.09","","","","","","Mostly Cloudy"
"-79.40","43.63","TORONTO ISLAND A","6158665","1992-03-25 08:00","1992","03","25","08:00","","2.3","","-0.7","","80","","10","","9","","11.3","","101.05","","","","","","Mostly Cloudy"
"-79.40","43.63","TORONTO ISLAND A","6158665","1992-03-25 09:00","1992","03","25","09:00","","3.8","","-1.8","","67","","15","","7","","12.9","","101.05","","","","","","Mostly Cloudy"
"-79.40","43.63","TORONTO ISLAND A","6158665","1992-03-25 10:00","1992","03","25","10:00","","4.8","","-0.4","","69","","17","","9","","11.3","","101.02","","","","","","Mostly Cloudy"
"-79.40","43.63","TORONTO ISLAND A","6158665","1992-03-25 11:00","1992","03","25","11:00","","6.0","","0.6","","68","","19","","11","","11.3","","100.95","","","","","","Mostly Cloudy"
"-79.40","43.63","TORONTO ISLAND A","6158665","1992-03-25 12:00","1992","03","25","12:00","","6.7","","1.3","","68","","19","","15","","16.1","","100.82","","","","","","Cloudy"
"-79.40","43.63","TORONTO ISLAND A","6158665","1992-03-25 13:00","1992","03","25","13:00","","7.6","","0.9","","62","","17","","13","","19.3","","100.72","","","","","","Cloudy"
"-79.40","43.63","TORONTO ISLAND A","6158665","1992-03-25 14:00","1992","03","25","14:00","","6.7","","0.7","","65","","18","","15","","19.3","","100.62","","","","","","Cloudy"
"-79.40","43.63","TORONTO ISLAND A","6158665","1992-03-25 15:00","1992","03","25","15:00","","7.1","","0.2","","62","","16","","13","","24.1","","100.52","","","","","","Cloudy"
"-79.40","43.63","TORONTO ISLAND A","6158665","1992-03-25 16:00","1992","03","25","16:00","","6.4","","0.3","","65","","17","","11","","19.3","","100.48","","","","","","Cloudy"
"-79.40","43.63","TORONTO ISLAND A","6158665","1992-03-25 17:00","1992","03","25","17:00","","5.9","","0.4","","68","","22","","19","","19.3","","100.48","","","","","","Cloudy"
"-79.40","43.63","TORONTO ISLAND A","6158665","1992-03-25 18:00","1992","03","25","18:00","","5.2","","0.6","","72","","22","","17","","19.3","","100.45","","","","","","Cloudy"
"-79.40","43.63","TORONTO ISLAND A","6158665","1992-03-25 19:00","1992","03","25","19:00","","6.0","","1.6","","73","","22","","33","","19.3","","100.48","","","","","","Rain"
"-79.40","43.63","TORONTO ISLAND A","6158665","1992-03-25 20:00","1992","03","25","20:00","","4.7","","2.4","","85","","25","","24","","16.1","","100.52","","","","","","Rain"
"-79.40","43.63","TORONTO ISLAND A","6158665","1992-03-25 21:00","1992","03","25","21:00","","3.6","","2.4","","92","","22","","6","","11.3","","100.48","","","","","","Rain"
"-79.40","43.63","TORONTO ISLAND A","6158665","1992-03-25 22:00","1992","03","25","22:00","","3.3","","2.6","","95","","","","0","","6.4","","100.45","","","","","","Rain,Fog"
"-79.40","43.63","TORONTO ISLAND A","6158665","1992-03-25 23:00","1992","03","25","23:00","","","","","","","","22","","20","","","","","","","","","","NA"
"-79.40","43.63","TORONTO ISLAND A","6158665","1992-03-26 00:00","1992","03","26","00:00","","","","","","","","21","","20","","","","","","","","","","NA"
"-79.40","43.63","TORONTO ISLAND A","6158665","1992-03-26 01:00","1992","03","26","01:00","","","","","","","","22","","15","","","","","","","","","","NA"
"-79.40","43.63","TORONTO ISLAND A","6158665","1992-03-26 02:00","1992","03","26","02:00","","","","","","","","24","","4","","","","","","","","","","NA"
"-79.40","43.63","TORONTO ISLAND A","6158665","1992-03-26 03:00","1992","03","26","03:00","","","","","","","","21","","11","","","","","","","","","","NA"
"-79.40","43.63","TORONTO ISLAND A","6158665","1992-03-26 04:00","1992","03","26","04:00","","","","","","","","20","","9","","","","","","","","","","NA"
"-79.40","43.63","TORONTO ISLAND A","6158665","1992-03-26 05:00","1992","03","26","05:00","","","","","","","","20","","4","","","","","","","","","","NA"
"-79.40","43.63","TORONTO ISLAND A","6158665","1992-03-26 06:00","1992","03","26","06:00","","","","","","","","","","0","","","","","","","","","","NA"
"-79.40","43.63","TORONTO ISLAND A","6158665","1992-03-26 07:00","1992","03","26","07:00","","3.4","","2.8","","96","","19","","11","","1.6","","100.42","","","","","","Drizzle,Fog"
"-79.40","43.63","TORONTO ISLAND A","6158665","1992-03-26 08:00","1992","03","26","08:00","","3.5","","3.1","","97","","19","","11","","2.0","","100.42","","","","","","Rain,Fog"
"-79.40","43.63","TORONTO ISLAND A","6158665","1992-03-26 09:00","1992","03","26","09:00","","3.8","","3.3","","97","","18","","7","","2.0","","100.45","","","","","","Rain,Fog"
"-79.40","43.63","TORONTO ISLAND A","6158665","1992-03-26 10:00","1992","03","26","10:00","","4.2","","3.8","","97","","17","","4","","2.4","","100.48","","","","","","Fog"
"-79.40","43.63","TORONTO ISLAND A","6158665","1992-03-26 11:00","1992","03","26","11:00","","4.3","","3.8","","97","","","","0","","4.8","","100.42","","","","","","Rain,Fog"
"-79.40","43.63","TORONTO ISLAND A","6158665","1992-03-26 12:00","1992","03","26","12:00","","4.7","","4.1","","96","","19","","4","","2.8","","100.42","","","","","","Drizzle,Fog"
"-79.40","43.63","TORONTO ISLAND A","6158665","1992-03-26 13:00","1992","03","26","13:00","","5.5","","4.4","","93","","17","","7","","8.0","","100.38","","","","","","Fog"
"-79.40","43.63","TORONTO ISLAND A","6158665","1992-03-26 14:00","1992","03","26","14:00","","4.9","","4.0","","94","","9","","7","","6.4","","100.38","","","","","","Fog"
"-79.40","43.63","TORONTO ISLAND A","6158665","1992-03-26 15:00","1992","03","26","15:00","","4.4","","3.5","","94","","9","","7","","8.0","","100.35","","","","","","Rain Showers,Fog"
"-79.40","43.63","TORONTO ISLAND A","6158665","1992-03-26 16:00","1992","03","26","16:00","","4.2","","3.4","","94","","9","","9","","6.4","","100.31","","","","","","Rain Showers,Fog"
"-79.40","43.63","TORONTO ISLAND A","6158665","1992-03-26 17:00","1992","03","26","17:00","","3.9","","3.1","","95","","9","","15","","4.8","","100.28","","","","","","Rain,Fog"
"-79.40","43.63","TORONTO ISLAND A","6158665","1992-03-26 18:00","1992","03","26","18:00","","4.2","","3.6","","96","","9","","13","","4.8","","100.25","","","","","","Fog"
"-79.40","43.63","TORONTO ISLAND A","6158665","1992-03-26 19:00","1992","03","26","19:00","","4.1","","3.0","","92","","9","","15","","8.0","","100.21","","","","","","Fog"
"-79.40","43.63","TORONTO ISLAND A","6158665","1992-03-26 20:00","1992","03","26","20:00","","5.0","","3.4","","89","","7","","13","","14.5","","100.15","","","","","","Cloudy"
"-79.40","43.63","TORONTO ISLAND A","6158665","1992-03-26 21:00","1992","03","26","21:00","","5.0","","3.3","","89","","9","","19","","19.3","","100.11","","","","","","Cloudy"
"-79.40","43.63","TORONTO ISLAND A","6158665","1992-03-26 22:00","1992","03","26","22:00","","4.6","","3.4","","92","","6","","13","","16.1","","100.08","","","","","","Cloudy"
"-79.40","43.63","TORONTO ISLAND A","6158665","1992-03-26 23:00","1992","03","26","23:00","","","","","","","","5","","11","","","","","","","","","","NA"
"-79.40","43.63","TORONTO ISLAND A","6158665","1992-03-27 00:00","1992","03","27","00:00","","","","","","","","7","","9","","","","","","","","","","NA"
"-79.40","43.63","TORONTO ISLAND A","6158665","1992-03-27 01:00","1992","03","27","01:00","","","","","","","","4","","9","","","","","","","","","","NA"
"-79.40","43.63","TORONTO ISLAND A","6158665","1992-03-27 02:00","1992","03","27","02:00","","","","","","","","3","","11","","","","","","","","","","NA"
"-79.40","43.63","TORONTO ISLAND A","6158665","1992-03-27 03:00","1992","03","27","03:00","","","","","","","","1","","19","","","","","","","","","","NA"
"-79.40","43.63","TORONTO ISLAND A","6158665","1992-03-27 04:00","1992","03","27","04:00","","","","","","","","36","","15","","","","","","","","","","NA"
"-79.40","43.63","TORONTO ISLAND A","6158665","1992-03-27 05:00","1992","03","27","05:00","","","","","","","","1","","19","","","","","","","","","","NA"
"-79.40","43.63","TORONTO ISLAND A","6158665","1992-03-27 06:00","1992","03","27","06:00","","","","","","","","36","","19","","","","","","","","","","NA"
"-79.40","43.63","TORONTO ISLAND A","6158665","1992-03-27 07:00","1992","03","27","07:00","","4.3","","1.3","","81","","35","","22","","9.7","","99.47","","","","","","Rain,Haze"
"-79.40","43.63","TORONTO ISLAND A","6158665","1992-03-27 08:00","1992","03","27","08:00","","4.1","","1.5","","83","","34","","24","","11.3","","99.37","","","","","","Rain"
"-79.40","43.63","TORONTO ISLAND A","6158665","1992-03-27 09:00","1992","03","27","09:00","","4.0","","1.5","","84","","33","","28","","9.7","","99.37","","","","","","Rain,Fog"
"-79.40","43.63","TORONTO ISLAND A","6158665","1992-03-27 10:00","1992","03","27","10:00","","3.3","","0.9","","84","","33","","28","","12.9","","99.37","","","","","","Rain"
"-79.40","43.63","TORONTO ISLAND A","6158665","1992-03-27 11:00","1992","03","27","11:00","","2.2","","-0.8","","80","","33","","35","","11.3","","99.41","","","","","","Rain,Snow"
"-79.40","43.63","TORONTO ISLAND A","6158665","1992-03-27 12:00","1992","03","27","12:00","","2.1","","-1.6","","76","","33","","37","","19.3","","99.47","","","","","","Snow"
"-79.40","43.63","TORONTO ISLAND A","6158665","1992-03-27 13:00","1992","03","27","13:00","","1.2","","-2.0","","79","","33","","31","","24.1","","99.51","","","","","","Snow"
"-79.40","43.63","TORONTO ISLAND A","6158665","1992-03-27 14:00","1992","03","27","14:00","","2.2","","-2.0","","74","","33","","35","","12.9","","99.51","","","","","","Snow"
"-79.40","43.63","TORONTO ISLAND A","6158665","1992-03-27 15:00","1992","03","27","15:00","","3.0","","-3.0","","65","","33","","46","","25.0","","99.57","","","","","","Cloudy"
"-79.40","43.63","TORONTO ISLAND A","6158665","1992-03-27 16:00","1992","03","27","16:00","","3.1","","-4.5","","57","","33","","41","","25.0","","99.64","","","","","","Cloudy"
"-79.40","43.63","TORONTO ISLAND A","6158665","1992-03-27 17:00","1992","03","27","17:00","","3.6","","-6.2","","48","","33","","39","","25.0","","99.74","","","","","","Cloudy"
"-79.40","43.63","TORONTO ISLAND A","6158665","1992-03-27 18:00","1992","03","27","18:00","","3.4","","-7.6","","44","","33","","41","","25.0","","99.88","","","","","","Cloudy"
"-79.40","43.63","TORONTO ISLAND A","6158665","1992-03-27 19:00","1992","03","27","19:00","","3.2","","-8.4","","42","","32","","44","","25.0","","99.98","","","","","","Cloudy"
"-79.40","43.63","TORONTO ISLAND A","6158665","1992-03-27 20:00","1992","03","27","20:00","","3.0","","-9.9","","38","","33","","41","","25.0","","100.05","","","","","","Mostly Cloudy"
"-79.40","43.63","TORONTO ISLAND A","6158665","1992-03-27 21:00","1992","03","27","21:00","","2.8","","-10.5","","37","","33","","46","","25.0","","100.15","","","","","","Mostly Cloudy"
"-79.40","43.63","TORONTO ISLAND A","6158665","1992-03-27 22:00","1992","03","27","22:00","","2.1","","-10.3","","39","","33","","41","","25.0","","100.21","","","","","","Mostly Cloudy"
"-79.40","43.63","TORONTO ISLAND A","6158665","1992-03-27 23:00","1992","03","27","23:00","","","","","","","","33","","39","","","","","","","","","","NA"
"-79.40","43.63","TORONTO ISLAND A","6158665","1992-03-28 00:00","1992","03","28","00:00","","","","","","","","33","","33","","","","","","","","","","NA"
"-79.40","43.63","TORONTO ISLAND A","6158665","1992-03-28 01:00","1992","03","28","01:00","","","","","","","","33","","33","","","","","","","","","","NA"
"-79.40","43.63","TORONTO ISLAND A","6158665","1992-03-28 02:00","1992","03","28","02:00","","","","","","","","33","","28","","","","","","","","","","NA"
"-79.40","43.63","TORONTO ISLAND A","6158665","1992-03-28 03:00","1992","03","28","03:00","","","","","","","","32","","33","","","","","","","","","","NA"
"-79.40","43.63","TORONTO ISLAND A","6158665","1992-03-28 04:00","1992","03","28","04:00","","","","","","","","32","","30","","","","","","","","","","NA"
"-79.40","43.63","TORONTO ISLAND A","6158665","1992-03-28 05:00","1992","03","28","05:00","","","","","","","","32","","28","","","","","","","","","","NA"
"-79.40","43.63","TORONTO ISLAND A","6158665","1992-03-28 06:00","1992","03","28","06:00","","","","","","","","32","","28","","","","","","","","","","NA"
"-79.40","43.63","TORONTO ISLAND A","6158665","1992-03-28 07:00","1992","03","28","07:00","","-3.2","","-10.7","","56","","32","","28","","25.0","","100.92","","","","-10","","Mainly Clear"
"-79.40","43.63","TORONTO ISLAND A","6158665","1992-03-28 08:00","1992","03","28","08:00","","-2.5","","-10.8","","53","","32","","30","","25.0","","100.92","","","","-10","","Mainly Clear"
"-79.40","43.63","TORONTO ISLAND A","6158665","1992-03-28 09:00","1992","03","28","09:00","","-2.0","","-10.4","","52","","32","","31","","25.0","","100.95","","","","-9","","Mostly Cloudy"
"-79.40","43.63","TORONTO ISLAND A","6158665","1992-03-28 10:00","1992","03","28","10:00","","-0.5","","-10.2","","48","","31","","28","","25.0","","100.95","","","","-7","","Mainly Clear"
"-79.40","43.63","TORONTO ISLAND A","6158665","1992-03-28 11:00","1992","03","28","11:00","","0.6","","-9.7","","46","","30","","28","","25.0","","100.95","","","","","","Clear"
"-79.40","43.63","TORONTO ISLAND A","6158665","1992-03-28 12:00","1992","03","28","12:00","","1.7","","-9.0","","45","","32","","30","","25.0","","100.95","","","","","","Clear"
"-79.40","43.63","TORONTO ISLAND A","6158665","1992-03-28 13:00","1992","03","28","13:00","","2.6","","-8.3","","44","","32","","37","","24.1","","100.95","","","","","","Clear"
"-79.40","43.63","TORONTO ISLAND A","6158665","1992-03-28 14:00","1992","03","28","14:00","","3.7","","-8.5","","40","","34","","28","","25.0","","100.92","","","","","","Clear"
"-79.40","43.63","TORONTO ISLAND A","6158665","1992-03-28 15:00","1992","03","28","15:00","","3.9","","-9.7","","36","","32","","30","","25.0","","100.92","","","","","","Clear"
"-79.40","43.63","TORONTO ISLAND A","6158665","1992-03-28 16:00","1992","03","28","16:00","","3.7","","-12.4","","30","","33","","33","","25.0","","100.92","","","","","","Clear"
"-79.40","43.63","TORONTO ISLAND A","6158665","1992-03-28 17:00","1992","03","28","17:00","","3.3","","-13.1","","29","","33","","33","","25.0","","100.92","","","","","","Clear"
"-79.40","43.63","TORONTO ISLAND A","6158665","1992-03-28 18:00","1992","03","28","18:00","","2.6","","-14.3","","27","","33","","19","","25.0","","101.02","","","","","","Clear"
"-79.40","43.63","TORONTO ISLAND A","6158665","1992-03-28 19:00","1992","03","28","19:00","","2.1","","-14.9","","27","","33","","22","","25.0","","101.09","","","","","","Clear"
"-79.40","43.63","TORONTO ISLAND A","6158665","1992-03-28 20:00","1992","03","28","20:00","","2.1","","-14.0","","29","","29","","15","","25.0","","101.15","","","","","","Clear"
"-79.40","43.63","TORONTO ISLAND A","6158665","1992-03-28 21:00","1992","03","28","21:00","","1.6","","-11.6","","37","","28","","15","","25.0","","101.32","","","","","","Mainly Clear"
"-79.40","43.63","TORONTO ISLAND A","6158665","1992-03-28 22:00","1992","03","28","22:00","","1.0","","-9.5","","45","","29","","15","","25.0","","101.15","","","","","","Mainly Clear"
"-79.40","43.63","TORONTO ISLAND A","6158665","1992-03-28 23:00","1992","03","28","23:00","","","","","","","","30","","19","","","","","","","","","","NA"
"-79.40","43.63","TORONTO ISLAND A","6158665","1992-03-29 00:00","1992","03","29","00:00","","","","","","","","29","","15","","","","","","","","","","NA"
"-79.40","43.63","TORONTO ISLAND A","6158665","1992-03-29 01:00","1992","03","29","01:00","","","","","","","","29","","17","","","","","","","","","","NA"
"-79.40","43.63","TORONTO ISLAND A","6158665","1992-03-29 02:00","1992","03","29","02:00","","","","","","","","30","","15","","","","","","","","","","NA"
"-79.40","43.63","TORONTO ISLAND A","6158665","1992-03-29 03:00","1992","03","29","03:00","","","","","","","","31","","9","","","","","","","","","","NA"
"-79.40","43.63","TORONTO ISLAND A","6158665","1992-03-29 04:00","1992","03","29","04:00","","","","","","","","32","","9","","","","","","","","","","NA"
"-79.40","43.63","TORONTO ISLAND A","6158665","1992-03-29 05:00","1992","03","29","05:00","","","","","","","","33","","11","","","","","","","","","","NA"
"-79.40","43.63","TORONTO ISLAND A","6158665","1992-03-29 06:00","1992","03","29","06:00","","","","","","","","34","","13","","","","","","","","","","NA"
"-79.40","43.63","TORONTO ISLAND A","6158665","1992-03-29 07:00","1992","03","29","07:00","","0.2","","-9.1","","49","","33","","11","","25.0","","101.15","","","","","","Clear"
"-79.40","43.63","TORONTO ISLAND A","6158665","1992-03-29 08:00","1992","03","29","08:00","","1.5","","-8.4","","48","","33","","17","","25.0","","101.19","","","","","","Mainly Clear"
"-79.40","43.63","TORONTO ISLAND A","6158665","1992-03-29 09:00","1992","03","29","09:00","","2.9","","-8.8","","42","","34","","19","","25.0","","101.19","","","","","","Mainly Clear"
"-79.40","43.63","TORONTO ISLAND A","6158665","1992-03-29 10:00","1992","03","29","10:00","","5.0","","-8.5","","37","","31","","19","","25.0","","101.19","","","","","","Mainly Clear"
"-79.40","43.63","TORONTO ISLAND A","6158665","1992-03-29 11:00","1992","03","29","11:00","","6.9","","-8.7","","32","","28","","15","","25.0","","101.15","","","","","","Mainly Clear"
"-79.40","43.63","TORONTO ISLAND A","6158665","1992-03-29 12:00","1992","03","29","12:00","","4.7","","-1.7","","63","","19","","19","","25.0","","101.12","","","","","","Mainly Clear"
"-79.40","43.63","TORONTO ISLAND A","6158665","1992-03-29 13:00","1992","03","29","13:00","","5.1","","-2.0","","60","","19","","15","","25.0","","101.05","","","","","","Mostly Cloudy"
"-79.40","43.63","TORONTO ISLAND A","6158665","1992-03-29 14:00","1992","03","29","14:00","","6.6","","-3.1","","50","","20","","19","","25.0","","100.95","","","","","","Mostly Cloudy"
"-79.40","43.63","TORONTO ISLAND A","6158665","1992-03-29 15:00","1992","03","29","15:00","","6.6","","-2.4","","53","","18","","15","","25.0","","100.92","","","","","","Cloudy"
"-79.40","43.63","TORONTO ISLAND A","6158665","1992-03-29 16:00","1992","03","29","16:00","","6.5","","-2.6","","52","","20","","15","","25.0","","100.85","","","","","","Cloudy"
"-79.40","43.63","TORONTO ISLAND A","6158665","1992-03-29 17:00","1992","03","29","17:00","","5.8","","-1.0","","62","","24","","4","","25.0","","100.82","","","","","","Cloudy"
"-79.40","43.63","TORONTO ISLAND A","6158665","1992-03-29 18:00","1992","03","29","18:00","","9.3","","-5.4","","35","","27","","17","","25.0","","100.82","","","","","","Cloudy"
"-79.40","43.63","TORONTO ISLAND A","6158665","1992-03-29 19:00","1992","03","29","19:00","","8.5","","-4.9","","38","","27","","15","","25.0","","100.85","","","","","","Cloudy"
"-79.40","43.63","TORONTO ISLAND A","6158665","1992-03-29 20:00","1992","03","29","20:00","","7.4","","-4.9","","41","","29","","19","","25.0","","100.92","","","","","","Mostly Cloudy"
"-79.40","43.63","TORONTO ISLAND A","6158665","1992-03-29 21:00","1992","03","29","21:00","","6.5","","-6.2","","40","","32","","13","","25.0","","100.89","","","","","","Mostly Cloudy"
"-79.40","43.63","TORONTO ISLAND A","6158665","1992-03-29 22:00","1992","03","29","22:00","","5.9","","-6.2","","41","","30","","7","","25.0","","100.92","","","","","","Mostly Cloudy"
"-79.40","43.63","TORONTO ISLAND A","6158665","1992-03-29 23:00","1992","03","29","23:00","","","","","","","","31","","4","","","","","","","","","","NA"
"-79.40","43.63","TORONTO ISLAND A","6158665","1992-03-30 00:00","1992","03","30","00:00","","","","","","","","27","","7","","","","","","","","","","NA"
"-79.40","43.63","TORONTO ISLAND A","6158665","1992-03-30 01:00","1992","03","30","01:00","","","","","","","","29","","4","","","","","","","","","","NA"
"-79.40","43.63","TORONTO ISLAND A","6158665","1992-03-30 02:00","1992","03","30","02:00","","","","","","","","27","","7","","","","","","","","","","NA"
"-79.40","43.63","TORONTO ISLAND A","6158665","1992-03-30 03:00","1992","03","30","03:00","","","","","","","","26","","7","","","","","","","","","","NA"
"-79.40","43.63","TORONTO ISLAND A","6158665","1992-03-30 04:00","1992","03","30","04:00","","","","","","","","26","","4","","","","","","","","","","NA"
"-79.40","43.63","TORONTO ISLAND A","6158665","1992-03-30 05:00","1992","03","30","05:00","","","","","","","","","","0","","","","","","","","","","NA"
"-79.40","43.63","TORONTO ISLAND A","6158665","1992-03-30 06:00","1992","03","30","06:00","","","","","","","","","","0","","","","","","","","","","NA"
"-79.40","43.63","TORONTO ISLAND A","6158665","1992-03-30 07:00","1992","03","30","07:00","","3.7","","-5.4","","51","","26","","9","","25.0","","100.62","","","","","","Cloudy"
"-79.40","43.63","TORONTO ISLAND A","6158665","1992-03-30 08:00","1992","03","30","08:00","","3.7","","-3.8","","58","","20","","9","","24.1","","100.62","","","","","","Cloudy"
"-79.40","43.63","TORONTO ISLAND A","6158665","1992-03-30 09:00","1992","03","30","09:00","","4.4","","-2.3","","62","","22","","20","","24.1","","100.62","","","","","","Cloudy"
"-79.40","43.63","TORONTO ISLAND A","6158665","1992-03-30 10:00","1992","03","30","10:00","","4.1","","-1.2","","68","","21","","19","","24.1","","100.65","","","","","","Cloudy"
"-79.40","43.63","TORONTO ISLAND A","6158665","1992-03-30 11:00","1992","03","30","11:00","","4.2","","-0.7","","70","","20","","17","","24.1","","100.62","","","","","","Cloudy"
"-79.40","43.63","TORONTO ISLAND A","6158665","1992-03-30 12:00","1992","03","30","12:00","","4.2","","0.1","","75","","18","","15","","25.0","","100.55","","","","","","Cloudy"
"-79.40","43.63","TORONTO ISLAND A","6158665","1992-03-30 13:00","1992","03","30","13:00","","5.0","","0.0","","70","","17","","15","","25.0","","100.48","","","","","","Mostly Cloudy"
"-79.40","43.63","TORONTO ISLAND A","6158665","1992-03-30 14:00","1992","03","30","14:00","","4.3","","0.0","","74","","17","","15","","25.0","","100.38","","","","","","Mainly Clear"
"-79.40","43.63","TORONTO ISLAND A","6158665","1992-03-30 15:00","1992","03","30","15:00","","4.0","","0.3","","77","","19","","13","","25.0","","100.31","","","","","","Mainly Clear"
"-79.40","43.63","TORONTO ISLAND A","6158665","1992-03-30 16:00","1992","03","30","16:00","","3.7","","0.5","","79","","19","","4","","24.1","","100.28","","","","","","Mostly Cloudy"
"-79.40","43.63","TORONTO ISLAND A","6158665","1992-03-30 17:00","1992","03","30","17:00","","3.5","","0.3","","79","","","","0","","24.1","","100.28","","","","","","Mostly Cloudy"
"-79.40","43.63","TORONTO ISLAND A","6158665","1992-03-30 18:00","1992","03","30","18:00","","3.6","","-0.1","","77","","","","0","","24.1","","100.28","","","","","","Cloudy"
"-79.40","43.63","TORONTO ISLAND A","6158665","1992-03-30 19:00","1992","03","30","19:00","","3.7","","-0.6","","73","","9","","4","","25.0","","100.28","","","","","","Cloudy"
"-79.40","43.63","TORONTO ISLAND A","6158665","1992-03-30 20:00","1992","03","30","20:00","","3.5","","-0.3","","76","","10","","6","","25.0","","100.28","","","","","","Cloudy"
"-79.40","43.63","TORONTO ISLAND A","6158665","1992-03-30 21:00","1992","03","30","21:00","","3.2","","0.0","","79","","12","","4","","25.0","","100.31","","","","","","Cloudy"
"-79.40","43.63","TORONTO ISLAND A","6158665","1992-03-30 22:00","1992","03","30","22:00","","3.0","","-0.2","","79","","13","","4","","25.0","","100.28","","","","","","Cloudy"
"-79.40","43.63","TORONTO ISLAND A","6158665","1992-03-30 23:00","1992","03","30","23:00","","","","","","","","","","0","","","","","","","","","","NA"
"-79.40","43.63","TORONTO ISLAND A","6158665","1992-03-31 00:00","1992","03","31","00:00","","","","","","","","","","0","","","","","","","","","","NA"
"-79.40","43.63","TORONTO ISLAND A","6158665","1992-03-31 01:00","1992","03","31","01:00","","","","","","","","26","","6","","","","","","","","","","NA"
"-79.40","43.63","TORONTO ISLAND A","6158665","1992-03-31 02:00","1992","03","31","02:00","","","","","","","","32","","15","","","","","","","","","","NA"
"-79.40","43.63","TORONTO ISLAND A","6158665","1992-03-31 03:00","1992","03","31","03:00","","","","","","","","31","","13","","","","","","","","","","NA"
"-79.40","43.63","TORONTO ISLAND A","6158665","1992-03-31 04:00","1992","03","31","04:00","","","","","","","","31","","15","","","","","","","","","","NA"
"-79.40","43.63","TORONTO ISLAND A","6158665","1992-03-31 05:00","1992","03","31","05:00","","","","","","","","31","","7","","","","","","","","","","NA"
"-79.40","43.63","TORONTO ISLAND A","6158665","1992-03-31 06:00","1992","03","31","06:00","","","","","","","","31","","11","","","","","","","","","","NA"
"-79.40","43.63","TORONTO ISLAND A","6158665","1992-03-31 07:00","1992","03","31","07:00","","2.0","","-6.5","","53","","32","","9","","25.0","","100.31","","","","","","Clear"
"-79.40","43.63","TORONTO ISLAND A","6158665","1992-03-31 08:00","1992","03","31","08:00","","3.6","","-6.7","","47","","33","","11","","24.1","","100.31","","","","","","Clear"
"-79.40","43.63","TORONTO ISLAND A","6158665","1992-03-31 09:00","1992","03","31","09:00","","5.7","","-7.3","","39","","27","","15","","24.1","","100.35","","","","","","Clear"
"-79.40","43.63","TORONTO ISLAND A","6158665","1992-03-31 10:00","1992","03","31","10:00","","3.8","","-1.4","","69","","20","","13","","24.1","","100.38","","","","","","Clear"
"-79.40","43.63","TORONTO ISLAND A","6158665","1992-03-31 11:00","1992","03","31","11:00","","5.1","","-0.9","","65","","20","","15","","24.1","","100.31","","","","","","Mainly Clear"
"-79.40","43.63","TORONTO ISLAND A","6158665","1992-03-31 12:00","1992","03","31","12:00","","6.1","","-0.9","","61","","18","","19","","24.1","","100.21","","","","","","Mostly Cloudy"
"-79.40","43.63","TORONTO ISLAND A","6158665","1992-03-31 13:00","1992","03","31","13:00","","6.6","","-2.4","","53","","16","","19","","24.1","","100.15","","","","","","Cloudy"
"-79.40","43.63","TORONTO ISLAND A","6158665","1992-03-31 14:00","1992","03","31","14:00","","7.3","","-2.7","","49","","15","","11","","24.1","","100.08","","","","","","Cloudy"
"-79.40","43.63","TORONTO ISLAND A","6158665","1992-03-31 15:00","1992","03","31","15:00","","6.3","","-1.7","","56","","15","","13","","24.1","","100.01","","","","","","Rain Showers"
"-79.40","43.63","TORONTO ISLAND A","6158665","1992-03-31 16:00","1992","03","31","16:00","","6.5","","-0.2","","62","","36","","7","","24.1","","99.94","","","","","","Rain Showers"
"-79.40","43.63","TORONTO ISLAND A","6158665","1992-03-31 17:00","1992","03","31","17:00","","6.5","","0.7","","67","","3","","6","","24.1","","99.84","","","","","","Cloudy"
"-79.40","43.63","TORONTO ISLAND A","6158665","1992-03-31 18:00","1992","03","31","18:00","","5.6","","1.1","","73","","8","","4","","14.5","","99.84","","","","","","Cloudy"
"-79.40","43.63","TORONTO ISLAND A","6158665","1992-03-31 19:00","1992","03","31","19:00","","3.6","","1.5","","86","","31","","19","","8.0","","99.91","","","","","","Rain Showers,Fog"
"-79.40","43.63","TORONTO ISLAND A","6158665","1992-03-31 20:00","1992","03","31","20:00","","2.8","","1.2","","89","","","","0","","19.3","","99.91","","","","","","Rain Showers"
"-79.40","43.63","TORONTO ISLAND A","6158665","1992-03-31 21:00","1992","03","31","21:00","","3.0","","1.6","","91","","22","","11","","24.1","","99.88","","","","","","Cloudy"
"-79.40","43.63","TORONTO ISLAND A","6158665","1992-03-31 22:00","1992","03","31","22:00","","2.6","","1.3","","91","","24","","15","","11.3","","99.84","","","","","","Rain Showers"
"-79.40","43.63","TORONTO ISLAND A","6158665","1992-03-31 23:00","1992","03","31","23:00","","","","","","","","33","","9","","","","","","","","","","NA"
