"Longitude (x)","Latitude (y)","Station Name","Climate ID","Date/Time (LST)","Year","Month","Day","Time (LST)","Flag","Temp (°C)","Temp Flag","Dew Point Temp (°C)","Dew Point Temp Flag","Rel Hum (%)","Rel Hum Flag","Wind Dir (10s deg)","Wind Dir Flag","Wind Spd (km/h)","Wind Spd Flag","Visibility (km)","Visibility Flag","Stn Press (kPa)","Stn Press Flag","Hmdx","Hmdx Flag","Wind Chill","Wind Chill Flag","Weather"
"-79.40","43.63","TORONTO ISLAND A","6158665","1995-01-01 00:00","1995","01","01","00:00"
"-79.40","43.63","TORONTO ISLAND A","6158665","1995-01-01 01:00","1995","01","01","01:00","","1.7","","1.7","","100","","5","","4","","4.8","","100.61","","","","","","Rain"
"-79.40","43.63","TORONTO ISLAND A","6158665","1995-01-01 02:00","1995","01","01","02:00"
"-79.40","43.63","TORONTO ISLAND A","6158665","1995-01-01 03:00","1995","01","01","03:00"
"-79.40","43.63","TORONTO ISLAND A","6158665","1995-01-01 04:00","1995","01","01","04:00"
"-79.40","43.63","TORONTO ISLAND A","6158665","1995-01-01 05:00","1995","01","01","05:00","","0.9","","0.9","","100","","","","0","","2.3","","100.30","","","","","","Moderate Rain"
"-79.40","43.63","TORONTO ISLAND A","6158665","1995-01-01 06:00","1995","01","01","06:00","","0.7","","0.7","","100","","","","0","","2.3","","100.27","","","","","","Snow"
"-79.40","43.63","TORONTO ISLAND A","6158665","1995-01-01 07:00","1995","01","01","07:00","","0.2","","0.2","","100","","18","","4","","0.8","","100.27","","","","","","Snow"
"-79.40","43.63","TORONTO ISLAND A","6158665","1995-01-01 08:00","1995","01","01","08:00","","0.2","","0.2","","100","","","","0","","0.5","","100.27","","","","","","Moderate Snow"
"-79.40","43.63","TORONTO ISLAND A","6158665","1995-01-01 09:00","1995","01","01","09:00"
"-79.40","43.63","TORONTO ISLAND A","6158665","1995-01-01 10:00","1995","01","01","10:00","","1.1","","1.1","","100","","28","","4","","4.8","","100.24","","","","","","NA"
"-79.40","43.63","TORONTO ISLAND A","6158665","1995-01-01 11:00","1995","01","01","11:00"
"-79.40","43.63","TORONTO ISLAND A","6158665","1995-01-01 12:00","1995","01","01","12:00"
"-79.40","43.63","TORONTO ISLAND A","6158665","1995-01-01 13:00","1995","01","01","13:00"
"-79.40","43.63","TORONTO ISLAND A","6158665","1995-01-01 14:00","1995","01","01","14:00"
"-79.40","43.63","TORONTO ISLAND A","6158665","1995-01-01 15:00","1995","01","01","15:00"
"-79.40","43.63","TORONTO ISLAND A","6158665","1995-01-01 16:00","1995","01","01","16:00"
"-79.40","43.63","TORONTO ISLAND A","6158665","1995-01-01 17:00","1995","01","01","17:00","","2.4","","1.7","","95","","25","","20","","5.6","","100.04","","","","","","NA"
"-79.40","43.63","TORONTO ISLAND A","6158665","1995-01-01 18:00","1995","01","01","18:00"
"-79.40","43.63","TORONTO ISLAND A","6158665","1995-01-01 19:00","1995","01","01","19:00","","2.2","","1.6","","96","","24","","24","","6.4","","100.04","","","","","","NA"
"-79.40","43.63","TORONTO ISLAND A","6158665","1995-01-01 20:00","1995","01","01","20:00"
"-79.40","43.63","TORONTO ISLAND A","6158665","1995-01-01 21:00","1995","01","01","21:00"
"-79.40","43.63","TORONTO ISLAND A","6158665","1995-01-01 22:00","1995","01","01","22:00"
"-79.40","43.63","TORONTO ISLAND A","6158665","1995-01-01 23:00","1995","01","01","23:00","","1.5","","-0.6","","86","","26","","22","","15.0","","99.97","","","","","",""
"-79.40","43.63","TORONTO ISLAND A","6158665","1995-01-02 00:00","1995","01","02","00:00"
"-79.40","43.63","TORONTO ISLAND A","6158665","1995-01-02 01:00","1995","01","02","01:00"
"-79.40","43.63","TORONTO ISLAND A","6158665","1995-01-02 02:00","1995","01","02","02:00"
"-79.40","43.63","TORONTO ISLAND A","6158665","1995-01-02 03:00","1995","01","02","03:00"
"-79.40","43.63","TORONTO ISLAND A","6158665","1995-01-02 04:00","1995","01","02","04:00"
"-79.40","43.63","TORONTO ISLAND A","6158665","1995-01-02 05:00","1995","01","02","05:00"
"-79.40","43.63","TORONTO ISLAND A","6158665","1995-01-02 06:00","1995","01","02","06:00","","-4.0","","-8.0","","74","","26","","39","","15.0","","100.20","","","","-13","","Snow"
"-79.40","43.63","TORONTO ISLAND A","6158665","1995-01-02 07:00","1995","01","02","07:00","","-4.4","","-9.7","","66","","25","","52","","15.0","","100.17","","","","-14","",""
"-79.40","43.63","TORONTO ISLAND A","6158665","1995-01-02 08:00","1995","01","02","08:00"
"-79.40","43.63","TORONTO ISLAND A","6158665","1995-01-02 09:00","1995","01","02","09:00","","-4.8","","-9.0","","72","","24","","48","","15.0","","100.34","","","","-15","",""
"-79.40","43.63","TORONTO ISLAND A","6158665","1995-01-02 10:00","1995","01","02","10:00","","-4.0","","-8.0","","74","","25","","39","","15.0","","100.37","","","","-13","","NA"
"-79.40","43.63","TORONTO ISLAND A","6158665","1995-01-02 11:00","1995","01","02","11:00","","-3.3","","-6.8","","77","","26","","48","","15.0","","100.34","","","","-12","",""
"-79.40","43.63","TORONTO ISLAND A","6158665","1995-01-02 12:00","1995","01","02","12:00","","-3.0","","-7.0","","74","","26","","44","","15.0","","100.37","","","","-12","","NA"
"-79.40","43.63","TORONTO ISLAND A","6158665","1995-01-02 13:00","1995","01","02","13:00","","-1.0","","-7.0","","64","","27","","46","","15.0","","100.30","","","","-9","","NA"
"-79.40","43.63","TORONTO ISLAND A","6158665","1995-01-02 14:00","1995","01","02","14:00","","-2.0","","-9.0","","59","","28","","52","","15.0","","100.37","","","","-11","","NA"
"-79.40","43.63","TORONTO ISLAND A","6158665","1995-01-02 15:00","1995","01","02","15:00","","-3.0","","-10.0","","58","","28","","50","","15.0","","100.41","","","","-12","","NA"
"-79.40","43.63","TORONTO ISLAND A","6158665","1995-01-02 16:00","1995","01","02","16:00","","-3.0","","-9.0","","63","","27","","41","","15.0","","100.54","","","","-11","","NA"
"-79.40","43.63","TORONTO ISLAND A","6158665","1995-01-02 17:00","1995","01","02","17:00","","-3.8","","-9.0","","67","","25","","48","","15.0","","100.64","","","","-13","",""
"-79.40","43.63","TORONTO ISLAND A","6158665","1995-01-02 18:00","1995","01","02","18:00","","-4.8","","-8.9","","73","","25","","43","","15.0","","100.74","","","","-14","",""
"-79.40","43.63","TORONTO ISLAND A","6158665","1995-01-02 19:00","1995","01","02","19:00","","-5.7","","-10.2","","71","","25","","35","","15.0","","100.81","","","","-14","",""
"-79.40","43.63","TORONTO ISLAND A","6158665","1995-01-02 20:00","1995","01","02","20:00","","-5.6","","-9.9","","72","","25","","37","","15.0","","100.84","","","","-15","",""
"-79.40","43.63","TORONTO ISLAND A","6158665","1995-01-02 21:00","1995","01","02","21:00","","-5.2","","-9.6","","71","","25","","30","","15.0","","100.88","","","","-13","",""
"-79.40","43.63","TORONTO ISLAND A","6158665","1995-01-02 22:00","1995","01","02","22:00","","-5.0","","-8.7","","75","","24","","30","","15.0","","100.88","","","","-13","","Snow"
"-79.40","43.63","TORONTO ISLAND A","6158665","1995-01-02 23:00","1995","01","02","23:00","","-5.0","","-8.0","","79","","25","","28","","15.0","","100.88","","","","-13","","Snow"
"-79.40","43.63","TORONTO ISLAND A","6158665","1995-01-03 00:00","1995","01","03","00:00"
"-79.40","43.63","TORONTO ISLAND A","6158665","1995-01-03 01:00","1995","01","03","01:00","","-4.8","","-8.6","","75","","25","","32","","15.0","","100.88","","","","-13","",""
"-79.40","43.63","TORONTO ISLAND A","6158665","1995-01-03 02:00","1995","01","03","02:00","","-4.6","","-9.0","","71","","25","","32","","15.0","","100.88","","","","-13","",""
"-79.40","43.63","TORONTO ISLAND A","6158665","1995-01-03 03:00","1995","01","03","03:00","","-4.5","","-8.7","","72","","24","","37","","15.0","","100.91","","","","-13","",""
"-79.40","43.63","TORONTO ISLAND A","6158665","1995-01-03 04:00","1995","01","03","04:00","","-4.6","","-8.2","","76","","24","","43","","15.0","","100.91","","","","-14","",""
"-79.40","43.63","TORONTO ISLAND A","6158665","1995-01-03 05:00","1995","01","03","05:00","","-4.1","","-8.2","","73","","24","","44","","15.0","","100.91","","","","-13","",""
"-79.40","43.63","TORONTO ISLAND A","6158665","1995-01-03 06:00","1995","01","03","06:00","","-3.6","","-7.6","","74","","24","","35","","15.0","","100.88","","","","-12","",""
"-79.40","43.63","TORONTO ISLAND A","6158665","1995-01-03 07:00","1995","01","03","07:00"
"-79.40","43.63","TORONTO ISLAND A","6158665","1995-01-03 08:00","1995","01","03","08:00","","-3.9","","-7.9","","74","","25","","33","","15.0","","100.88","","","","-12","",""
"-79.40","43.63","TORONTO ISLAND A","6158665","1995-01-03 09:00","1995","01","03","09:00","","-3.8","","-7.8","","74","","23","","33","","15.0","","100.94","","","","-12","","Snow"
"-79.40","43.63","TORONTO ISLAND A","6158665","1995-01-03 10:00","1995","01","03","10:00"
"-79.40","43.63","TORONTO ISLAND A","6158665","1995-01-03 11:00","1995","01","03","11:00"
"-79.40","43.63","TORONTO ISLAND A","6158665","1995-01-03 12:00","1995","01","03","12:00","","-1.9","","-7.4","","66","","24","","39","","15.0","","100.77","","","","-10","",""
"-79.40","43.63","TORONTO ISLAND A","6158665","1995-01-03 13:00","1995","01","03","13:00","","-2.0","","-8.0","","63","","25","","33","","15.0","","100.74","","","","-9","","NA"
"-79.40","43.63","TORONTO ISLAND A","6158665","1995-01-03 14:00","1995","01","03","14:00","","-1.9","","-8.9","","59","","26","","33","","15.0","","100.71","","","","-9","",""
"-79.40","43.63","TORONTO ISLAND A","6158665","1995-01-03 15:00","1995","01","03","15:00","","-2.1","","-8.9","","60","","25","","35","","15.0","","100.74","","","","-10","",""
"-79.40","43.63","TORONTO ISLAND A","6158665","1995-01-03 16:00","1995","01","03","16:00","","-2.5","","-8.4","","64","","24","","41","","15.0","","100.74","","","","-11","",""
"-79.40","43.63","TORONTO ISLAND A","6158665","1995-01-03 17:00","1995","01","03","17:00","","-4.3","","-7.9","","76","","27","","33","","4.0","","100.77","","","","-12","","Snow"
"-79.40","43.63","TORONTO ISLAND A","6158665","1995-01-03 18:00","1995","01","03","18:00","","-4.5","","-10.4","","63","","27","","35","","15.0","","100.81","","","","-13","",""
"-79.40","43.63","TORONTO ISLAND A","6158665","1995-01-03 19:00","1995","01","03","19:00","","-5.2","","-10.3","","67","","28","","26","","15.0","","100.81","","","","-13","",""
"-79.40","43.63","TORONTO ISLAND A","6158665","1995-01-03 20:00","1995","01","03","20:00","","-5.9","","-11.1","","67","","28","","26","","15.0","","100.84","","","","-14","",""
"-79.40","43.63","TORONTO ISLAND A","6158665","1995-01-03 21:00","1995","01","03","21:00","","-6.8","","-11.7","","68","","28","","26","","15.0","","100.81","","","","-15","",""
"-79.40","43.63","TORONTO ISLAND A","6158665","1995-01-03 22:00","1995","01","03","22:00","","-7.5","","-11.8","","71","","28","","17","","15.0","","100.84","","","","-14","",""
"-79.40","43.63","TORONTO ISLAND A","6158665","1995-01-03 23:00","1995","01","03","23:00","","-7.1","","-10.7","","75","","27","","22","","15.0","","100.81","","","","-15","",""
"-79.40","43.63","TORONTO ISLAND A","6158665","1995-01-04 00:00","1995","01","04","00:00","","-6.9","","-12.0","","67","","27","","33","","15.0","","100.81","","","","-16","",""
"-79.40","43.63","TORONTO ISLAND A","6158665","1995-01-04 01:00","1995","01","04","01:00","","-7.5","","-11.5","","73","","24","","39","","15.0","","100.81","","","","-17","",""
"-79.40","43.63","TORONTO ISLAND A","6158665","1995-01-04 02:00","1995","01","04","02:00","","-7.8","","-11.2","","77","","24","","39","","15.0","","100.81","","","","-18","",""
"-79.40","43.63","TORONTO ISLAND A","6158665","1995-01-04 03:00","1995","01","04","03:00","","-8.2","","-11.1","","80","","25","","35","","15.0","","100.88","","","","-18","",""
"-79.40","43.63","TORONTO ISLAND A","6158665","1995-01-04 04:00","1995","01","04","04:00","","-8.5","","-11.6","","78","","26","","32","","5.6","","100.88","","","","-18","","Snow"
"-79.40","43.63","TORONTO ISLAND A","6158665","1995-01-04 05:00","1995","01","04","05:00","","-9.1","","-14.8","","63","","26","","39","","15.0","","100.84","","","","-19","",""
"-79.40","43.63","TORONTO ISLAND A","6158665","1995-01-04 06:00","1995","01","04","06:00","","-9.4","","-14.3","","67","","26","","33","","15.0","","100.84","","","","-19","",""
"-79.40","43.63","TORONTO ISLAND A","6158665","1995-01-04 07:00","1995","01","04","07:00","","-10.0","","-14.1","","72","","26","","35","","15.0","","100.84","","","","-20","",""
"-79.40","43.63","TORONTO ISLAND A","6158665","1995-01-04 08:00","1995","01","04","08:00","","-10.3","","-14.1","","74","","26","","35","","15.0","","100.84","","","","-21","",""
"-79.40","43.63","TORONTO ISLAND A","6158665","1995-01-04 09:00","1995","01","04","09:00","","-10.1","","-14.6","","70","","26","","37","","15.0","","100.88","","","","-21","",""
"-79.40","43.63","TORONTO ISLAND A","6158665","1995-01-04 10:00","1995","01","04","10:00","","-10.0","","-14.9","","67","","27","","46","","15.0","","100.84","","","","-21","",""
"-79.40","43.63","TORONTO ISLAND A","6158665","1995-01-04 11:00","1995","01","04","11:00","","-9.5","","-15.8","","60","","27","","48","","15.0","","100.81","","","","-21","",""
"-79.40","43.63","TORONTO ISLAND A","6158665","1995-01-04 12:00","1995","01","04","12:00","","-9.1","","-15.7","","59","","26","","48","","15.0","","100.77","","","","-20","",""
"-79.40","43.63","TORONTO ISLAND A","6158665","1995-01-04 13:00","1995","01","04","13:00","","-8.0","","-14.0","","62","","26","","61","","15.0","","100.81","","","","-20","","NA"
"-79.40","43.63","TORONTO ISLAND A","6158665","1995-01-04 14:00","1995","01","04","14:00","","-8.1","","-14.2","","61","","27","","44","","15.0","","100.88","","","","-19","",""
"-79.40","43.63","TORONTO ISLAND A","6158665","1995-01-04 15:00","1995","01","04","15:00","","-8.1","","-13.7","","64","","25","","32","","15.0","","100.98","","","","-17","",""
"-79.40","43.63","TORONTO ISLAND A","6158665","1995-01-04 16:00","1995","01","04","16:00","","-8.9","","-15.1","","61","","29","","20","","15.0","","101.04","","","","-16","",""
"-79.40","43.63","TORONTO ISLAND A","6158665","1995-01-04 17:00","1995","01","04","17:00","","-9.2","","-16.4","","56","","27","","30","","15.0","","101.14","","","","-18","",""
"-79.40","43.63","TORONTO ISLAND A","6158665","1995-01-04 18:00","1995","01","04","18:00","","-9.0","","-15.0","","62","","28","","26","","15.0","","101.21","","","","-18","","NA"
"-79.40","43.63","TORONTO ISLAND A","6158665","1995-01-04 19:00","1995","01","04","19:00","","-9.8","","-13.9","","72","","27","","32","","15.0","","101.25","","","","-20","",""
"-79.40","43.63","TORONTO ISLAND A","6158665","1995-01-04 20:00","1995","01","04","20:00","","-10.0","","-14.1","","72","","27","","39","","15.0","","101.28","","","","-21","",""
"-79.40","43.63","TORONTO ISLAND A","6158665","1995-01-04 21:00","1995","01","04","21:00","","-10.2","","-14.6","","70","","25","","37","","15.0","","101.28","","","","-21","",""
"-79.40","43.63","TORONTO ISLAND A","6158665","1995-01-04 22:00","1995","01","04","22:00","","-10.9","","-14.5","","75","","26","","41","","15.0","","101.28","","","","-22","",""
"-79.40","43.63","TORONTO ISLAND A","6158665","1995-01-04 23:00","1995","01","04","23:00","","-11.1","","-14.4","","77","","26","","39","","15.0","","101.28","","","","-22","",""
"-79.40","43.63","TORONTO ISLAND A","6158665","1995-01-05 00:00","1995","01","05","00:00","","-11.0","","-15.0","","72","","27","","33","","15.0","","101.31","","","","-21","","NA"
"-79.40","43.63","TORONTO ISLAND A","6158665","1995-01-05 01:00","1995","01","05","01:00","","-10.9","","-14.0","","78","","25","","35","","15.0","","101.28","","","","-21","",""
"-79.40","43.63","TORONTO ISLAND A","6158665","1995-01-05 02:00","1995","01","05","02:00","","-10.7","","-14.2","","75","","26","","39","","15.0","","101.31","","","","-22","",""
"-79.40","43.63","TORONTO ISLAND A","6158665","1995-01-05 03:00","1995","01","05","03:00","","-10.6","","-14.0","","76","","25","","37","","15.0","","101.38","","","","-21","",""
"-79.40","43.63","TORONTO ISLAND A","6158665","1995-01-05 04:00","1995","01","05","04:00","","-10.1","","-13.7","","75","","27","","32","","15.0","","101.35","","","","-20","",""
"-79.40","43.63","TORONTO ISLAND A","6158665","1995-01-05 05:00","1995","01","05","05:00","","-9.8","","-13.9","","72","","27","","37","","15.0","","101.35","","","","-20","",""
"-79.40","43.63","TORONTO ISLAND A","6158665","1995-01-05 06:00","1995","01","05","06:00","","-10.7","","-13.3","","81","","26","","41","","15.0","","101.38","","","","-22","",""
"-79.40","43.63","TORONTO ISLAND A","6158665","1995-01-05 07:00","1995","01","05","07:00","","-10.9","","-14.2","","77","","25","","37","","15.0","","101.41","","","","-22","",""
"-79.40","43.63","TORONTO ISLAND A","6158665","1995-01-05 08:00","1995","01","05","08:00","","-10.8","","-14.7","","73","","25","","39","","15.0","","101.38","","","","-22","",""
"-79.40","43.63","TORONTO ISLAND A","6158665","1995-01-05 09:00","1995","01","05","09:00","","-10.7","","-14.0","","77","","25","","48","","15.0","","101.41","","","","-23","",""
"-79.40","43.63","TORONTO ISLAND A","6158665","1995-01-05 10:00","1995","01","05","10:00","","-10.3","","-14.4","","72","","25","","50","","15.0","","101.41","","","","-22","",""
"-79.40","43.63","TORONTO ISLAND A","6158665","1995-01-05 11:00","1995","01","05","11:00","","-9.9","","-14.4","","70","","24","","44","","15.0","","101.38","","","","-21","",""
"-79.40","43.63","TORONTO ISLAND A","6158665","1995-01-05 12:00","1995","01","05","12:00","","-8.4","","-13.3","","68","","25","","50","","15.0","","101.25","","","","-20","",""
"-79.40","43.63","TORONTO ISLAND A","6158665","1995-01-05 13:00","1995","01","05","13:00"
"-79.40","43.63","TORONTO ISLAND A","6158665","1995-01-05 14:00","1995","01","05","14:00","","-6.7","","-14.1","","56","","23","","54","","15.0","","101.04","","","","-18","",""
"-79.40","43.63","TORONTO ISLAND A","6158665","1995-01-05 15:00","1995","01","05","15:00","","-5.3","","-13.8","","51","","24","","56","","15.0","","100.94","","","","-16","",""
"-79.40","43.63","TORONTO ISLAND A","6158665","1995-01-05 16:00","1995","01","05","16:00","","-5.0","","-14.6","","47","","24","","50","","15.0","","100.94","","","","-15","",""
"-79.40","43.63","TORONTO ISLAND A","6158665","1995-01-05 17:00","1995","01","05","17:00","","-5.4","","-14.1","","50","","24","","56","","15.0","","100.94","","","","-16","",""
"-79.40","43.63","TORONTO ISLAND A","6158665","1995-01-05 18:00","1995","01","05","18:00","","-5.5","","-12.9","","56","","24","","57","","15.0","","100.94","","","","-16","",""
"-79.40","43.63","TORONTO ISLAND A","6158665","1995-01-05 19:00","1995","01","05","19:00","","-5.2","","-10.1","","68","","24","","57","","15.0","","100.91","","","","-16","",""
"-79.40","43.63","TORONTO ISLAND A","6158665","1995-01-05 20:00","1995","01","05","20:00","","-4.9","","-9.7","","69","","24","","50","","15.0","","100.88","","","","-15","",""
"-79.40","43.63","TORONTO ISLAND A","6158665","1995-01-05 21:00","1995","01","05","21:00","","-4.8","","-9.9","","67","","24","","54","","15.0","","100.88","","","","-15","",""
"-79.40","43.63","TORONTO ISLAND A","6158665","1995-01-05 22:00","1995","01","05","22:00","","-4.4","","-9.3","","69","","24","","54","","15.0","","100.81","","","","-14","",""
"-79.40","43.63","TORONTO ISLAND A","6158665","1995-01-05 23:00","1995","01","05","23:00","","-4.5","","-10.4","","63","","24","","50","","15.0","","100.77","","","","-14","",""
"-79.40","43.63","TORONTO ISLAND A","6158665","1995-01-06 00:00","1995","01","06","00:00","","-4.3","","-10.9","","60","","25","","48","","15.0","","100.77","","","","-14","",""
"-79.40","43.63","TORONTO ISLAND A","6158665","1995-01-06 01:00","1995","01","06","01:00","","-4.3","","-10.8","","60","","24","","50","","15.0","","100.71","","","","-14","",""
"-79.40","43.63","TORONTO ISLAND A","6158665","1995-01-06 02:00","1995","01","06","02:00","","-3.9","","-9.2","","67","","24","","56","","15.0","","100.77","","","","-14","",""
"-79.40","43.63","TORONTO ISLAND A","6158665","1995-01-06 03:00","1995","01","06","03:00","","-4.2","","-9.3","","68","","24","","52","","15.0","","100.81","","","","-14","",""
"-79.40","43.63","TORONTO ISLAND A","6158665","1995-01-06 04:00","1995","01","06","04:00","","-3.9","","-8.6","","70","","23","","39","","15.0","","100.74","","","","-13","",""
"-79.40","43.63","TORONTO ISLAND A","6158665","1995-01-06 05:00","1995","01","06","05:00","","-3.7","","-8.1","","71","","24","","33","","15.0","","100.61","","","","-12","",""
"-79.40","43.63","TORONTO ISLAND A","6158665","1995-01-06 06:00","1995","01","06","06:00","","-2.5","","-6.0","","77","","22","","41","","15.0","","100.57","","","","-11","",""
"-79.40","43.63","TORONTO ISLAND A","6158665","1995-01-06 07:00","1995","01","06","07:00","","-2.6","","-6.5","","75","","21","","43","","15.0","","100.54","","","","-11","",""
"-79.40","43.63","TORONTO ISLAND A","6158665","1995-01-06 08:00","1995","01","06","08:00","","-2.3","","-6.6","","72","","21","","43","","15.0","","100.51","","","","-11","","Snow"
"-79.40","43.63","TORONTO ISLAND A","6158665","1995-01-06 09:00","1995","01","06","09:00","","-1.9","","-6.9","","69","","22","","44","","15.0","","100.47","","","","-10","","Snow"
"-79.40","43.63","TORONTO ISLAND A","6158665","1995-01-06 10:00","1995","01","06","10:00","","-1.4","","-7.0","","66","","21","","37","","15.0","","100.41","","","","-9","",""
"-79.40","43.63","TORONTO ISLAND A","6158665","1995-01-06 11:00","1995","01","06","11:00","","-1.3","","-6.4","","68","","24","","46","","15.0","","100.34","","","","-10","","Snow"
"-79.40","43.63","TORONTO ISLAND A","6158665","1995-01-06 12:00","1995","01","06","12:00","","-1.1","","-5.7","","71","","23","","32","","15.0","","100.14","","","","-8","","NA"
"-79.40","43.63","TORONTO ISLAND A","6158665","1995-01-06 13:00","1995","01","06","13:00","","-1.0","","-3.0","","86","","21","","33","","4.8","","100.00","","","","-8","","Snow"
"-79.40","43.63","TORONTO ISLAND A","6158665","1995-01-06 14:00","1995","01","06","14:00","","-1.3","","-3.5","","85","","21","","33","","4.0","","99.90","","","","-8","","Snow"
"-79.40","43.63","TORONTO ISLAND A","6158665","1995-01-06 15:00","1995","01","06","15:00","","-0.9","","-2.4","","90","","21","","33","","3.2","","99.93","","","","-8","","Snow"
"-79.40","43.63","TORONTO ISLAND A","6158665","1995-01-06 16:00","1995","01","06","16:00","","-1.0","","-3.0","","86","","21","","32","","5.6","","99.87","","","","-8","","Snow"
"-79.40","43.63","TORONTO ISLAND A","6158665","1995-01-06 17:00","1995","01","06","17:00","","-1.0","","-2.0","","93","","21","","30","","1.9","","99.77","","","","-8","","Snow"
"-79.40","43.63","TORONTO ISLAND A","6158665","1995-01-06 18:00","1995","01","06","18:00","","-0.9","","-1.4","","96","","23","","35","","1.6","","99.67","","","","-8","","Snow"
"-79.40","43.63","TORONTO ISLAND A","6158665","1995-01-06 19:00","1995","01","06","19:00","","-1.0","","-2.0","","93","","24","","30","","1.4","","99.67","","","","-8","","Snow"
"-79.40","43.63","TORONTO ISLAND A","6158665","1995-01-06 20:00","1995","01","06","20:00","","-2.0","","-2.0","","100","","27","","15","","1.3","","99.56","","","","-7","","Snow"
"-79.40","43.63","TORONTO ISLAND A","6158665","1995-01-06 21:00","1995","01","06","21:00","","-2.0","","-2.0","","100","","31","","4","","1.0","","99.46","","","","-3","","Snow"
"-79.40","43.63","TORONTO ISLAND A","6158665","1995-01-06 22:00","1995","01","06","22:00","","-2.2","","-2.6","","97","","30","","7","","1.1","","99.43","","","","-5","","Snow"
"-79.40","43.63","TORONTO ISLAND A","6158665","1995-01-06 23:00","1995","01","06","23:00"
"-79.40","43.63","TORONTO ISLAND A","6158665","1995-01-07 00:00","1995","01","07","00:00","","-2.0","","-4.0","","86","","36","","9","","8.0","","99.26","","","","-5","","Snow"
"-79.40","43.63","TORONTO ISLAND A","6158665","1995-01-07 01:00","1995","01","07","01:00","","-2.3","","-3.6","","91","","31","","6","","1.9","","99.20","","","","-5","","Snow"
"-79.40","43.63","TORONTO ISLAND A","6158665","1995-01-07 02:00","1995","01","07","02:00","","-3.0","","-3.0","","100","","32","","9","","2.3","","99.09","","","","-7","","Snow"
"-79.40","43.63","TORONTO ISLAND A","6158665","1995-01-07 03:00","1995","01","07","03:00","","-2.7","","-3.8","","92","","31","","7","","6.4","","99.09","","","","-6","","Snow"
"-79.40","43.63","TORONTO ISLAND A","6158665","1995-01-07 04:00","1995","01","07","04:00","","-2.6","","-3.9","","91","","31","","7","","2.9","","99.13","","","","-5","","Snow"
"-79.40","43.63","TORONTO ISLAND A","6158665","1995-01-07 05:00","1995","01","07","05:00","","-2.7","","-3.6","","94","","32","","9","","3.2","","99.16","","","","-6","","Snow"
"-79.40","43.63","TORONTO ISLAND A","6158665","1995-01-07 06:00","1995","01","07","06:00","","-2.6","","-3.7","","92","","31","","9","","5.6","","99.30","","","","-6","","Snow"
"-79.40","43.63","TORONTO ISLAND A","6158665","1995-01-07 07:00","1995","01","07","07:00"
"-79.40","43.63","TORONTO ISLAND A","6158665","1995-01-07 08:00","1995","01","07","08:00","","-2.2","","-3.2","","93","","32","","7","","4.0","","99.36","","","","-5","","Snow"
"-79.40","43.63","TORONTO ISLAND A","6158665","1995-01-07 09:00","1995","01","07","09:00","","-2.5","","-4.7","","85","","35","","13","","11.3","","99.50","","","","-7","",""
"-79.40","43.63","TORONTO ISLAND A","6158665","1995-01-07 10:00","1995","01","07","10:00","","-3.0","","-6.0","","80","","33","","32","","15.0","","99.63","","","","-11","","NA"
"-79.40","43.63","TORONTO ISLAND A","6158665","1995-01-07 11:00","1995","01","07","11:00","","-4.0","","-6.0","","86","","32","","30","","15.0","","99.77","","","","-12","","NA"
"-79.40","43.63","TORONTO ISLAND A","6158665","1995-01-07 12:00","1995","01","07","12:00","","-4.3","","-7.2","","80","","33","","24","","15.0","","99.83","","","","-11","",""
"-79.40","43.63","TORONTO ISLAND A","6158665","1995-01-07 13:00","1995","01","07","13:00","","-4.2","","-8.4","","72","","34","","28","","15.0","","99.90","","","","-12","",""
"-79.40","43.63","TORONTO ISLAND A","6158665","1995-01-07 14:00","1995","01","07","14:00","","-4.3","","-8.6","","72","","32","","20","","15.0","","100.00","","","","-11","",""
"-79.40","43.63","TORONTO ISLAND A","6158665","1995-01-07 15:00","1995","01","07","15:00","","-4.6","","-9.5","","69","","31","","20","","15.0","","100.10","","","","-11","",""
"-79.40","43.63","TORONTO ISLAND A","6158665","1995-01-07 16:00","1995","01","07","16:00","","-5.1","","-10.5","","66","","32","","17","","15.0","","100.27","","","","-11","",""
"-79.40","43.63","TORONTO ISLAND A","6158665","1995-01-07 17:00","1995","01","07","17:00","","-6.1","","-11.1","","68","","32","","17","","15.0","","100.37","","","","-12","",""
"-79.40","43.63","TORONTO ISLAND A","6158665","1995-01-07 18:00","1995","01","07","18:00","","-6.9","","-11.7","","69","","32","","13","","15.0","","100.47","","","","-12","",""
"-79.40","43.63","TORONTO ISLAND A","6158665","1995-01-07 19:00","1995","01","07","19:00","","-7.7","","-12.3","","70","","30","","13","","15.0","","100.57","","","","-13","",""
"-79.40","43.63","TORONTO ISLAND A","6158665","1995-01-07 20:00","1995","01","07","20:00","","-8.4","","-12.8","","71","","28","","13","","15.0","","100.64","","","","-14","",""
"-79.40","43.63","TORONTO ISLAND A","6158665","1995-01-07 21:00","1995","01","07","21:00","","-9.2","","-13.6","","70","","30","","7","","15.0","","100.67","","","","-13","",""
"-79.40","43.63","TORONTO ISLAND A","6158665","1995-01-07 22:00","1995","01","07","22:00","","-9.7","","-13.8","","72","","28","","11","","15.0","","100.71","","","","-15","",""
"-79.40","43.63","TORONTO ISLAND A","6158665","1995-01-07 23:00","1995","01","07","23:00","","-10.4","","-13.8","","76","","28","","9","","15.0","","100.74","","","","-15","",""
"-79.40","43.63","TORONTO ISLAND A","6158665","1995-01-08 00:00","1995","01","08","00:00","","-10.6","","-13.5","","79","","28","","11","","15.0","","100.74","","","","-16","",""
"-79.40","43.63","TORONTO ISLAND A","6158665","1995-01-08 01:00","1995","01","08","01:00","","-9.9","","-12.7","","80","","31","","6","","15.0","","100.71","","","","-13","",""
"-79.40","43.63","TORONTO ISLAND A","6158665","1995-01-08 02:00","1995","01","08","02:00","","-9.1","","-12.3","","78","","32","","4","","15.0","","100.64","","","","-11","",""
"-79.40","43.63","TORONTO ISLAND A","6158665","1995-01-08 03:00","1995","01","08","03:00","","-8.0","","-10.0","","85","","25","","17","","15.0","","100.71","","","","-15","","NA"
"-79.40","43.63","TORONTO ISLAND A","6158665","1995-01-08 04:00","1995","01","08","04:00","","-5.4","","-7.5","","85","","25","","26","","15.0","","100.64","","","","-13","",""
"-79.40","43.63","TORONTO ISLAND A","6158665","1995-01-08 05:00","1995","01","08","05:00","","-4.6","","-7.1","","83","","23","","32","","15.0","","100.61","","","","-13","",""
"-79.40","43.63","TORONTO ISLAND A","6158665","1995-01-08 06:00","1995","01","08","06:00","","-2.2","","-6.3","","73","","21","","41","","15.0","","100.54","","","","-10","",""
"-79.40","43.63","TORONTO ISLAND A","6158665","1995-01-08 07:00","1995","01","08","07:00","","-1.8","","-5.3","","77","","23","","39","","15.0","","100.51","","","","-10","",""
"-79.40","43.63","TORONTO ISLAND A","6158665","1995-01-08 08:00","1995","01","08","08:00","","-2.4","","-6.3","","75","","24","","41","","15.0","","100.47","","","","-11","",""
"-79.40","43.63","TORONTO ISLAND A","6158665","1995-01-08 09:00","1995","01","08","09:00","","-2.6","","-6.7","","73","","25","","41","","15.0","","100.51","","","","-11","",""
"-79.40","43.63","TORONTO ISLAND A","6158665","1995-01-08 10:00","1995","01","08","10:00","","-4.0","","-6.0","","86","","23","","48","","4.0","","100.57","","","","-13","","Snow"
"-79.40","43.63","TORONTO ISLAND A","6158665","1995-01-08 11:00","1995","01","08","11:00","","-4.3","","-7.7","","77","","23","","43","","5.6","","100.61","","","","-13","","Snow"
"-79.40","43.63","TORONTO ISLAND A","6158665","1995-01-08 12:00","1995","01","08","12:00","","-4.2","","-8.1","","74","","25","","46","","9.7","","100.57","","","","-14","","Snow"
"-79.40","43.63","TORONTO ISLAND A","6158665","1995-01-08 13:00","1995","01","08","13:00","","-3.9","","-9.3","","66","","25","","37","","15.0","","100.54","","","","-12","",""
"-79.40","43.63","TORONTO ISLAND A","6158665","1995-01-08 14:00","1995","01","08","14:00","","-3.8","","-8.5","","70","","24","","39","","15.0","","100.54","","","","-12","",""
"-79.40","43.63","TORONTO ISLAND A","6158665","1995-01-08 15:00","1995","01","08","15:00","","-3.5","","-8.9","","66","","24","","41","","15.0","","100.57","","","","-12","",""
"-79.40","43.63","TORONTO ISLAND A","6158665","1995-01-08 16:00","1995","01","08","16:00","","-4.0","","-9.0","","68","","25","","37","","15.0","","100.71","","","","-12","","NA"
"-79.40","43.63","TORONTO ISLAND A","6158665","1995-01-08 17:00","1995","01","08","17:00","","-4.3","","-9.6","","66","","25","","35","","15.0","","100.77","","","","-13","",""
"-79.40","43.63","TORONTO ISLAND A","6158665","1995-01-08 18:00","1995","01","08","18:00","","-4.8","","-9.1","","72","","23","","37","","15.0","","100.84","","","","-14","","Snow"
"-79.40","43.63","TORONTO ISLAND A","6158665","1995-01-08 19:00","1995","01","08","19:00","","-5.6","","-9.3","","75","","24","","37","","15.0","","100.91","","","","-15","",""
"-79.40","43.63","TORONTO ISLAND A","6158665","1995-01-08 20:00","1995","01","08","20:00","","-5.7","","-9.4","","75","","24","","30","","15.0","","100.94","","","","-14","",""
"-79.40","43.63","TORONTO ISLAND A","6158665","1995-01-08 21:00","1995","01","08","21:00","","-6.0","","-9.0","","79","","25","","26","","15.0","","100.94","","","","-14","","Snow"
"-79.40","43.63","TORONTO ISLAND A","6158665","1995-01-08 22:00","1995","01","08","22:00","","-5.5","","-9.0","","76","","24","","32","","15.0","","100.94","","","","-14","","Snow"
"-79.40","43.63","TORONTO ISLAND A","6158665","1995-01-08 23:00","1995","01","08","23:00","","-5.7","","-9.1","","77","","25","","30","","15.0","","100.94","","","","-14","",""
"-79.40","43.63","TORONTO ISLAND A","6158665","1995-01-09 00:00","1995","01","09","00:00","","-5.3","","-8.4","","79","","24","","37","","15.0","","100.88","","","","-14","",""
"-79.40","43.63","TORONTO ISLAND A","6158665","1995-01-09 01:00","1995","01","09","01:00","","-5.2","","-8.5","","78","","24","","37","","15.0","","100.94","","","","-14","",""
"-79.40","43.63","TORONTO ISLAND A","6158665","1995-01-09 02:00","1995","01","09","02:00","","-5.4","","-8.5","","79","","24","","41","","15.0","","100.98","","","","-15","",""
"-79.40","43.63","TORONTO ISLAND A","6158665","1995-01-09 03:00","1995","01","09","03:00","","-5.2","","-8.9","","75","","24","","41","","15.0","","101.01","","","","-14","",""
"-79.40","43.63","TORONTO ISLAND A","6158665","1995-01-09 04:00","1995","01","09","04:00","","-5.5","","-9.2","","75","","25","","39","","15.0","","100.98","","","","-15","",""
"-79.40","43.63","TORONTO ISLAND A","6158665","1995-01-09 05:00","1995","01","09","05:00","","-6.3","","-9.6","","77","","25","","33","","15.0","","101.04","","","","-15","",""
"-79.40","43.63","TORONTO ISLAND A","6158665","1995-01-09 06:00","1995","01","09","06:00","","-6.2","","-8.8","","82","","25","","37","","15.0","","101.11","","","","-15","",""
"-79.40","43.63","TORONTO ISLAND A","6158665","1995-01-09 07:00","1995","01","09","07:00","","-6.4","","-9.3","","80","","25","","39","","15.0","","101.18","","","","-16","",""
"-79.40","43.63","TORONTO ISLAND A","6158665","1995-01-09 08:00","1995","01","09","08:00","","-6.6","","-9.5","","80","","26","","35","","15.0","","101.25","","","","-16","",""
"-79.40","43.63","TORONTO ISLAND A","6158665","1995-01-09 09:00","1995","01","09","09:00","","-6.2","","-9.3","","79","","25","","33","","15.0","","101.31","","","","-15","",""
"-79.40","43.63","TORONTO ISLAND A","6158665","1995-01-09 10:00","1995","01","09","10:00","","-5.7","","-9.1","","77","","25","","26","","15.0","","101.35","","","","-13","",""
"-79.40","43.63","TORONTO ISLAND A","6158665","1995-01-09 11:00","1995","01","09","11:00","","-5.1","","-9.2","","73","","25","","24","","15.0","","101.38","","","","-12","",""
"-79.40","43.63","TORONTO ISLAND A","6158665","1995-01-09 12:00","1995","01","09","12:00","","-4.7","","-10.4","","64","","26","","28","","15.0","","101.35","","","","-12","",""
"-79.40","43.63","TORONTO ISLAND A","6158665","1995-01-09 13:00","1995","01","09","13:00","","-4.0","","-11.0","","58","","30","","20","","15.0","","101.35","","","","-10","","NA"
"-79.40","43.63","TORONTO ISLAND A","6158665","1995-01-09 14:00","1995","01","09","14:00","","-4.8","","-11.7","","58","","30","","26","","15.0","","101.35","","","","-12","",""
"-79.40","43.63","TORONTO ISLAND A","6158665","1995-01-09 15:00","1995","01","09","15:00","","-4.3","","-12.3","","54","","28","","22","","15.0","","101.41","","","","-11","",""
"-79.40","43.63","TORONTO ISLAND A","6158665","1995-01-09 16:00","1995","01","09","16:00","","-4.8","","-11.8","","58","","27","","20","","15.0","","101.45","","","","-11","",""
"-79.40","43.63","TORONTO ISLAND A","6158665","1995-01-09 17:00","1995","01","09","17:00","","-6.0","","-11.0","","68","","27","","17","","15.0","","101.51","","","","-12","","NA"
"-79.40","43.63","TORONTO ISLAND A","6158665","1995-01-09 18:00","1995","01","09","18:00","","-5.9","","-10.1","","72","","28","","24","","15.0","","101.62","","","","-13","",""
"-79.40","43.63","TORONTO ISLAND A","6158665","1995-01-09 19:00","1995","01","09","19:00","","-6.0","","-10.6","","70","","28","","24","","15.0","","101.65","","","","-13","",""
"-79.40","43.63","TORONTO ISLAND A","6158665","1995-01-09 20:00","1995","01","09","20:00","","-6.7","","-11.6","","68","","28","","15","","15.0","","101.72","","","","-13","",""
"-79.40","43.63","TORONTO ISLAND A","6158665","1995-01-09 21:00","1995","01","09","21:00","","-6.6","","-10.1","","76","","25","","26","","15.0","","101.75","","","","-15","",""
"-79.40","43.63","TORONTO ISLAND A","6158665","1995-01-09 22:00","1995","01","09","22:00","","-6.9","","-10.4","","76","","27","","19","","15.0","","101.78","","","","-14","",""
"-79.40","43.63","TORONTO ISLAND A","6158665","1995-01-09 23:00","1995","01","09","23:00","","-7.7","","-11.6","","74","","27","","17","","15.0","","101.82","","","","-14","",""
"-79.40","43.63","TORONTO ISLAND A","6158665","1995-01-10 00:00","1995","01","10","00:00","","-7.6","","-12.1","","70","","27","","17","","15.0","","101.82","","","","-14","",""
"-79.40","43.63","TORONTO ISLAND A","6158665","1995-01-10 01:00","1995","01","10","01:00","","-7.7","","-11.6","","74","","27","","19","","15.0","","101.82","","","","-15","",""
"-79.40","43.63","TORONTO ISLAND A","6158665","1995-01-10 02:00","1995","01","10","02:00","","-8.1","","-11.8","","75","","30","","11","","15.0","","101.82","","","","-13","",""
"-79.40","43.63","TORONTO ISLAND A","6158665","1995-01-10 03:00","1995","01","10","03:00","","-8.1","","-12.0","","73","","32","","15","","15.0","","101.92","","","","-14","",""
"-79.40","43.63","TORONTO ISLAND A","6158665","1995-01-10 04:00","1995","01","10","04:00","","-8.9","","-12.3","","76","","35","","9","","15.0","","102.02","","","","-14","",""
"-79.40","43.63","TORONTO ISLAND A","6158665","1995-01-10 05:00","1995","01","10","05:00","","-10.1","","-14.8","","68","","4","","20","","15.0","","102.05","","","","-18","",""
"-79.40","43.63","TORONTO ISLAND A","6158665","1995-01-10 06:00","1995","01","10","06:00","","-10.1","","-14.7","","69","","36","","15","","15.0","","102.09","","","","-17","",""
"-79.40","43.63","TORONTO ISLAND A","6158665","1995-01-10 07:00","1995","01","10","07:00","","-10.2","","-15.2","","67","","1","","11","","15.0","","102.15","","","","-16","",""
"-79.40","43.63","TORONTO ISLAND A","6158665","1995-01-10 08:00","1995","01","10","08:00","","-10.0","","-15.0","","67","","4","","15","","15.0","","102.22","","","","-17","","NA"
"-79.40","43.63","TORONTO ISLAND A","6158665","1995-01-10 09:00","1995","01","10","09:00","","-10.0","","-14.0","","72","","3","","17","","15.0","","102.25","","","","-17","","NA"
"-79.40","43.63","TORONTO ISLAND A","6158665","1995-01-10 10:00","1995","01","10","10:00","","-10.1","","-13.2","","78","","5","","20","","8.0","","102.29","","","","-18","","Snow"
"-79.40","43.63","TORONTO ISLAND A","6158665","1995-01-10 11:00","1995","01","10","11:00","","-10.0","","-13.0","","79","","5","","28","","4.0","","102.25","","","","-19","","Snow"
"-79.40","43.63","TORONTO ISLAND A","6158665","1995-01-10 12:00","1995","01","10","12:00","","-9.8","","-12.3","","82","","2","","17","","2.9","","102.25","","","","-17","","Snow"
"-79.40","43.63","TORONTO ISLAND A","6158665","1995-01-10 13:00","1995","01","10","13:00"
"-79.40","43.63","TORONTO ISLAND A","6158665","1995-01-10 14:00","1995","01","10","14:00","","-9.5","","-11.7","","84","","5","","28","","1.9","","102.12","","","","-19","","Snow"
"-79.40","43.63","TORONTO ISLAND A","6158665","1995-01-10 15:00","1995","01","10","15:00","","-9.4","","-11.5","","85","","5","","28","","1.6","","102.12","","","","-18","","Snow"
"-79.40","43.63","TORONTO ISLAND A","6158665","1995-01-10 16:00","1995","01","10","16:00","","-9.4","","-11.4","","85","","5","","33","","1.9","","102.12","","","","-19","","Snow"
"-79.40","43.63","TORONTO ISLAND A","6158665","1995-01-10 17:00","1995","01","10","17:00","","-9.6","","-11.9","","83","","5","","30","","2.9","","102.15","","","","-19","","Snow"
"-79.40","43.63","TORONTO ISLAND A","6158665","1995-01-10 18:00","1995","01","10","18:00","","-10.7","","-13.1","","82","","5","","28","","1.9","","102.15","","","","-20","","Snow"
"-79.40","43.63","TORONTO ISLAND A","6158665","1995-01-10 19:00","1995","01","10","19:00","","-10.2","","-11.6","","89","","6","","37","","1.9","","102.02","","","","-21","","Snow"
"-79.40","43.63","TORONTO ISLAND A","6158665","1995-01-10 20:00","1995","01","10","20:00","","-9.3","","-9.8","","96","","5","","39","","1.6","","102.02","","","","-20","","Snow"
"-79.40","43.63","TORONTO ISLAND A","6158665","1995-01-10 21:00","1995","01","10","21:00","","-10.3","","-11.0","","95","","5","","32","","1.9","","102.02","","","","-20","","Snow"
"-79.40","43.63","TORONTO ISLAND A","6158665","1995-01-10 22:00","1995","01","10","22:00","","-11.6","","-12.8","","91","","4","","32","","1.6","","102.05","","","","-22","","Snow"
"-79.40","43.63","TORONTO ISLAND A","6158665","1995-01-10 23:00","1995","01","10","23:00","","-11.4","","-12.6","","91","","4","","41","","1.1","","101.99","","","","-23","","Snow"
"-79.40","43.63","TORONTO ISLAND A","6158665","1995-01-11 00:00","1995","01","11","00:00","","-8.8","","-9.4","","95","","6","","54","","0.3","","101.92","","","","-20","","Heavy Snow"
"-79.40","43.63","TORONTO ISLAND A","6158665","1995-01-11 01:00","1995","01","11","01:00","","-9.1","","-9.7","","95","","6","","43","","0.3","","101.88","","","","-20","","Heavy Snow"
"-79.40","43.63","TORONTO ISLAND A","6158665","1995-01-11 02:00","1995","01","11","02:00","","-8.5","","-9.1","","95","","7","","46","","0.6","","101.85","","","","-19","","Moderate Snow"
"-79.40","43.63","TORONTO ISLAND A","6158665","1995-01-11 03:00","1995","01","11","03:00","","-8.4","","-8.7","","98","","7","","43","","0.8","","101.82","","","","-19","","Snow"
"-79.40","43.63","TORONTO ISLAND A","6158665","1995-01-11 04:00","1995","01","11","04:00","","-7.3","","-8.0","","95","","7","","37","","1.6","","101.78","","","","-17","","NA"
"-79.40","43.63","TORONTO ISLAND A","6158665","1995-01-11 05:00","1995","01","11","05:00","","-9.0","","-9.7","","95","","5","","32","","1.9","","101.78","","","","-18","","Snow"
"-79.40","43.63","TORONTO ISLAND A","6158665","1995-01-11 06:00","1995","01","11","06:00","","-8.5","","-9.0","","96","","5","","33","","1.6","","101.75","","","","-18","","Snow"
"-79.40","43.63","TORONTO ISLAND A","6158665","1995-01-11 07:00","1995","01","11","07:00","","-8.2","","-8.8","","95","","5","","32","","0.8","","101.72","","","","-17","","Snow"
"-79.40","43.63","TORONTO ISLAND A","6158665","1995-01-11 08:00","1995","01","11","08:00","","-7.5","","-8.0","","96","","5","","37","","1.3","","101.65","","","","-17","","NA"
"-79.40","43.63","TORONTO ISLAND A","6158665","1995-01-11 09:00","1995","01","11","09:00","","-6.6","","-6.9","","98","","7","","44","","1.0","","101.65","","","","-17","","Snow"
"-79.40","43.63","TORONTO ISLAND A","6158665","1995-01-11 10:00","1995","01","11","10:00","","-5.9","","-6.3","","97","","7","","41","","0.8","","101.62","","","","-15","","Snow"
"-79.40","43.63","TORONTO ISLAND A","6158665","1995-01-11 11:00","1995","01","11","11:00","","-5.3","","-5.5","","98","","7","","43","","1.4","","101.55","","","","-15","","NA"
"-79.40","43.63","TORONTO ISLAND A","6158665","1995-01-11 12:00","1995","01","11","12:00","","-7.1","","-7.4","","98","","5","","32","","2.9","","101.48","","","","-16","","NA"
"-79.40","43.63","TORONTO ISLAND A","6158665","1995-01-11 13:00","1995","01","11","13:00","","-6.5","","-7.0","","96","","5","","30","","4.8","","101.38","","","","-15","","NA"
"-79.40","43.63","TORONTO ISLAND A","6158665","1995-01-11 14:00","1995","01","11","14:00","","-6.9","","-7.4","","96","","5","","35","","4.0","","101.28","","","","-16","","NA"
"-79.40","43.63","TORONTO ISLAND A","6158665","1995-01-11 15:00","1995","01","11","15:00","","-5.1","","-5.5","","97","","6","","41","","0.6","","101.21","","","","-14","","NA"
"-79.40","43.63","TORONTO ISLAND A","6158665","1995-01-11 16:00","1995","01","11","16:00","","-4.3","","-4.6","","98","","7","","39","","0.3","","101.21","","","","-13","","NA"
"-79.40","43.63","TORONTO ISLAND A","6158665","1995-01-11 17:00","1995","01","11","17:00","","-4.0","","-4.3","","98","","7","","41","","0.3","","101.14","","","","-13","","NA"
"-79.40","43.63","TORONTO ISLAND A","6158665","1995-01-11 18:00","1995","01","11","18:00","","-4.1","","-4.3","","99","","7","","37","","0.2","","101.14","","","","-13","","NA"
"-79.40","43.63","TORONTO ISLAND A","6158665","1995-01-11 19:00","1995","01","11","19:00","","-3.8","","-4.0","","99","","7","","35","","0.2","","101.11","","","","-12","","NA"
"-79.40","43.63","TORONTO ISLAND A","6158665","1995-01-11 20:00","1995","01","11","20:00","","-3.3","","-3.6","","98","","7","","33","","0.2","","101.08","","","","-11","","NA"
"-79.40","43.63","TORONTO ISLAND A","6158665","1995-01-11 21:00","1995","01","11","21:00","","-4.7","","-5.0","","98","","5","","32","","0.5","","101.04","","","","-13","","NA"
"-79.40","43.63","TORONTO ISLAND A","6158665","1995-01-11 22:00","1995","01","11","22:00","","-4.2","","-4.6","","97","","7","","28","","0.6","","100.98","","","","-12","","NA"
"-79.40","43.63","TORONTO ISLAND A","6158665","1995-01-11 23:00","1995","01","11","23:00","","-3.1","","-3.3","","99","","6","","30","","0.3","","100.88","","","","-11","","NA"
"-79.40","43.63","TORONTO ISLAND A","6158665","1995-01-12 00:00","1995","01","12","00:00","","-2.6","","-2.7","","99","","5","","26","","0.5","","100.77","","","","-9","","Moderate Snow"
"-79.40","43.63","TORONTO ISLAND A","6158665","1995-01-12 01:00","1995","01","12","01:00"
"-79.40","43.63","TORONTO ISLAND A","6158665","1995-01-12 02:00","1995","01","12","02:00","","-1.7","","-1.7","","100","","6","","20","","1.0","","100.67","","","","-7","","NA"
"-79.40","43.63","TORONTO ISLAND A","6158665","1995-01-12 03:00","1995","01","12","03:00","","-1.5","","-1.5","","100","","6","","19","","1.3","","100.61","","","","-7","","NA"
"-79.40","43.63","TORONTO ISLAND A","6158665","1995-01-12 04:00","1995","01","12","04:00","","-0.2","","-0.2","","100","","7","","15","","1.4","","100.54","","","","-5","","NA"
"-79.40","43.63","TORONTO ISLAND A","6158665","1995-01-12 05:00","1995","01","12","05:00","","0.1","","0.1","","100","","9","","13","","1.0","","100.47","","","","","","NA"
"-79.40","43.63","TORONTO ISLAND A","6158665","1995-01-12 06:00","1995","01","12","06:00","","0.8","","0.8","","100","","8","","11","","0.8","","100.44","","","","","","NA"
"-79.40","43.63","TORONTO ISLAND A","6158665","1995-01-12 07:00","1995","01","12","07:00","","0.8","","0.8","","100","","8","","11","","0.8","","100.44","","","","","","NA"
"-79.40","43.63","TORONTO ISLAND A","6158665","1995-01-12 08:00","1995","01","12","08:00","","1.6","","1.6","","100","","10","","9","","1.1","","100.41","","","","","","NA"
"-79.40","43.63","TORONTO ISLAND A","6158665","1995-01-12 09:00","1995","01","12","09:00"
"-79.40","43.63","TORONTO ISLAND A","6158665","1995-01-12 10:00","1995","01","12","10:00","","1.9","","1.9","","100","","9","","9","","0.6","","100.37","","","","","","NA"
"-79.40","43.63","TORONTO ISLAND A","6158665","1995-01-12 11:00","1995","01","12","11:00","","1.9","","1.9","","100","","7","","17","","0.5","","100.30","","","","","","NA"
"-79.40","43.63","TORONTO ISLAND A","6158665","1995-01-12 12:00","1995","01","12","12:00"
"-79.40","43.63","TORONTO ISLAND A","6158665","1995-01-12 13:00","1995","01","12","13:00","","2.2","","2.2","","100","","8","","17","","1.1","","100.07","","","","","","NA"
"-79.40","43.63","TORONTO ISLAND A","6158665","1995-01-12 14:00","1995","01","12","14:00","","2.5","","2.5","","100","","7","","17","","1.1","","99.97","","","","","","Moderate Rain"
"-79.40","43.63","TORONTO ISLAND A","6158665","1995-01-12 15:00","1995","01","12","15:00","","3.0","","3.0","","100","","10","","15","","1.0","","99.93","","","","","","Rain"
"-79.40","43.63","TORONTO ISLAND A","6158665","1995-01-12 16:00","1995","01","12","16:00","","3.6","","3.6","","100","","7","","15","","0.3","","99.90","","","","","",""
"-79.40","43.63","TORONTO ISLAND A","6158665","1995-01-12 17:00","1995","01","12","17:00","","3.6","","3.6","","100","","8","","11","","0.3","","99.90","","","","","",""
"-79.40","43.63","TORONTO ISLAND A","6158665","1995-01-12 18:00","1995","01","12","18:00","","3.8","","3.8","","100","","8","","11","","0.3","","99.90","","","","","",""
"-79.40","43.63","TORONTO ISLAND A","6158665","1995-01-12 19:00","1995","01","12","19:00","","3.3","","3.3","","100","","9","","11","","0.3","","99.90","","","","","",""
"-79.40","43.63","TORONTO ISLAND A","6158665","1995-01-12 20:00","1995","01","12","20:00","","3.1","","3.1","","100","","8","","9","","0.2","","99.90","","","","","",""
"-79.40","43.63","TORONTO ISLAND A","6158665","1995-01-12 21:00","1995","01","12","21:00","","3.5","","3.5","","100","","8","","9","","0.2","","99.93","","","","","",""
"-79.40","43.63","TORONTO ISLAND A","6158665","1995-01-12 22:00","1995","01","12","22:00","","4.0","","4.0","","100","","","","0","","0.5","","99.97","","","","","",""
"-79.40","43.63","TORONTO ISLAND A","6158665","1995-01-12 23:00","1995","01","12","23:00","","5.3","","5.3","","100","","","","0","","0.3","","100.04","","","","","",""
"-79.40","43.63","TORONTO ISLAND A","6158665","1995-01-13 00:00","1995","01","13","00:00","","5.8","","5.8","","100","","26","","6","","0.2","","100.10","","","","","",""
"-79.40","43.63","TORONTO ISLAND A","6158665","1995-01-13 01:00","1995","01","13","01:00","","6.7","","6.7","","100","","30","","11","","0.8","","100.17","","","","","",""
"-79.40","43.63","TORONTO ISLAND A","6158665","1995-01-13 02:00","1995","01","13","02:00","","7.9","","7.9","","100","","27","","19","","4.8","","100.20","","","","","",""
"-79.40","43.63","TORONTO ISLAND A","6158665","1995-01-13 03:00","1995","01","13","03:00","","6.3","","6.3","","100","","26","","15","","4.0","","100.30","","","","","",""
"-79.40","43.63","TORONTO ISLAND A","6158665","1995-01-13 04:00","1995","01","13","04:00","","4.4","","4.4","","100","","25","","11","","2.3","","100.37","","","","","",""
"-79.40","43.63","TORONTO ISLAND A","6158665","1995-01-13 05:00","1995","01","13","05:00","","6.3","","6.3","","100","","28","","13","","1.9","","100.44","","","","","",""
"-79.40","43.63","TORONTO ISLAND A","6158665","1995-01-13 06:00","1995","01","13","06:00","","5.1","","5.1","","100","","","","0","","1.4","","100.51","","","","","",""
"-79.40","43.63","TORONTO ISLAND A","6158665","1995-01-13 07:00","1995","01","13","07:00","","4.6","","4.6","","100","","9","","6","","0.3","","100.54","","","","","",""
"-79.40","43.63","TORONTO ISLAND A","6158665","1995-01-13 08:00","1995","01","13","08:00","","5.7","","5.7","","100","","8","","11","","2.6","","100.57","","","","","",""
"-79.40","43.63","TORONTO ISLAND A","6158665","1995-01-13 09:00","1995","01","13","09:00","","3.5","","3.5","","100","","7","","15","","1.4","","100.64","","","","","",""
"-79.40","43.63","TORONTO ISLAND A","6158665","1995-01-13 10:00","1995","01","13","10:00","","3.9","","3.9","","100","","7","","17","","2.6","","100.67","","","","","",""
"-79.40","43.63","TORONTO ISLAND A","6158665","1995-01-13 11:00","1995","01","13","11:00","","6.0","","6.0","","100","","7","","15","","2.6","","100.71","","","","","","NA"
"-79.40","43.63","TORONTO ISLAND A","6158665","1995-01-13 12:00","1995","01","13","12:00","","6.7","","6.7","","100","","8","","15","","1.4","","100.61","","","","","","Rain"
"-79.40","43.63","TORONTO ISLAND A","6158665","1995-01-13 13:00","1995","01","13","13:00","","7.0","","7.0","","100","","8","","9","","1.1","","100.64","","","","","","NA"
"-79.40","43.63","TORONTO ISLAND A","6158665","1995-01-13 14:00","1995","01","13","14:00","","6.7","","6.7","","100","","9","","11","","1.9","","100.64","","","","","",""
"-79.40","43.63","TORONTO ISLAND A","6158665","1995-01-13 15:00","1995","01","13","15:00","","5.9","","5.9","","100","","9","","11","","1.9","","100.67","","","","","",""
"-79.40","43.63","TORONTO ISLAND A","6158665","1995-01-13 16:00","1995","01","13","16:00","","4.6","","4.6","","100","","8","","15","","1.0","","100.71","","","","","",""
"-79.40","43.63","TORONTO ISLAND A","6158665","1995-01-13 17:00","1995","01","13","17:00","","5.0","","5.0","","100","","9","","13","","0.3","","100.71","","","","","","NA"
"-79.40","43.63","TORONTO ISLAND A","6158665","1995-01-13 18:00","1995","01","13","18:00","","5.1","","5.1","","100","","7","","13","","0.3","","100.74","","","","","",""
"-79.40","43.63","TORONTO ISLAND A","6158665","1995-01-13 19:00","1995","01","13","19:00","","5.5","","5.5","","100","","7","","13","","0.5","","100.74","","","","","",""
"-79.40","43.63","TORONTO ISLAND A","6158665","1995-01-13 20:00","1995","01","13","20:00","","6.9","","6.9","","100","","8","","9","","1.6","","100.77","","","","","",""
"-79.40","43.63","TORONTO ISLAND A","6158665","1995-01-13 21:00","1995","01","13","21:00","","5.5","","5.5","","100","","9","","9","","0.3","","100.77","","","","","",""
"-79.40","43.63","TORONTO ISLAND A","6158665","1995-01-13 22:00","1995","01","13","22:00","","6.3","","6.3","","100","","8","","13","","2.3","","100.74","","","","","",""
"-79.40","43.63","TORONTO ISLAND A","6158665","1995-01-13 23:00","1995","01","13","23:00","","5.4","","5.4","","100","","7","","11","","2.3","","100.71","","","","","",""
"-79.40","43.63","TORONTO ISLAND A","6158665","1995-01-14 00:00","1995","01","14","00:00","","4.6","","4.6","","100","","","","0","","0.5","","100.74","","","","","",""
"-79.40","43.63","TORONTO ISLAND A","6158665","1995-01-14 01:00","1995","01","14","01:00","","4.6","","4.6","","100","","","","0","","1.0","","100.67","","","","","",""
"-79.40","43.63","TORONTO ISLAND A","6158665","1995-01-14 02:00","1995","01","14","02:00","","5.8","","5.8","","100","","9","","7","","0.8","","100.67","","","","","",""
"-79.40","43.63","TORONTO ISLAND A","6158665","1995-01-14 03:00","1995","01","14","03:00","","5.4","","5.4","","100","","8","","11","","2.3","","100.67","","","","","",""
"-79.40","43.63","TORONTO ISLAND A","6158665","1995-01-14 04:00","1995","01","14","04:00"
"-79.40","43.63","TORONTO ISLAND A","6158665","1995-01-14 05:00","1995","01","14","05:00","","4.3","","4.3","","100","","8","","13","","0.5","","100.64","","","","","",""
"-79.40","43.63","TORONTO ISLAND A","6158665","1995-01-14 06:00","1995","01","14","06:00","","5.1","","5.1","","100","","8","","15","","2.9","","100.61","","","","","",""
"-79.40","43.63","TORONTO ISLAND A","6158665","1995-01-14 07:00","1995","01","14","07:00","","5.7","","5.7","","100","","8","","22","","4.0","","100.57","","","","","",""
"-79.40","43.63","TORONTO ISLAND A","6158665","1995-01-14 08:00","1995","01","14","08:00","","6.0","","6.0","","100","","7","","19","","4.8","","100.57","","","","","",""
"-79.40","43.63","TORONTO ISLAND A","6158665","1995-01-14 09:00","1995","01","14","09:00","","6.6","","6.2","","97","","8","","15","","4.8","","100.61","","","","","",""
"-79.40","43.63","TORONTO ISLAND A","6158665","1995-01-14 10:00","1995","01","14","10:00","","6.0","","6.0","","100","","8","","22","","4.0","","100.61","","","","","","Rain"
"-79.40","43.63","TORONTO ISLAND A","6158665","1995-01-14 11:00","1995","01","14","11:00","","7.6","","6.6","","93","","8","","24","","6.4","","100.51","","","","","",""
"-79.40","43.63","TORONTO ISLAND A","6158665","1995-01-14 12:00","1995","01","14","12:00","","7.6","","6.6","","93","","8","","22","","8.0","","100.37","","","","","",""
"-79.40","43.63","TORONTO ISLAND A","6158665","1995-01-14 13:00","1995","01","14","13:00","","7.6","","6.7","","94","","8","","26","","9.7","","100.30","","","","","",""
"-79.40","43.63","TORONTO ISLAND A","6158665","1995-01-14 14:00","1995","01","14","14:00","","9.0","","8.0","","93","","8","","19","","9.7","","100.20","","","","","","Rain"
"-79.40","43.63","TORONTO ISLAND A","6158665","1995-01-14 15:00","1995","01","14","15:00","","9.3","","8.9","","97","","8","","19","","6.4","","100.17","","","","","","Rain"
"-79.40","43.63","TORONTO ISLAND A","6158665","1995-01-14 16:00","1995","01","14","16:00","","9.4","","8.5","","94","","8","","20","","9.7","","100.10","","","","","",""
"-79.40","43.63","TORONTO ISLAND A","6158665","1995-01-14 17:00","1995","01","14","17:00","","9.5","","8.4","","93","","9","","17","","12.9","","100.04","","","","","",""
"-79.40","43.63","TORONTO ISLAND A","6158665","1995-01-14 18:00","1995","01","14","18:00","","9.2","","8.2","","93","","7","","24","","15.0","","100.04","","","","","",""
"-79.40","43.63","TORONTO ISLAND A","6158665","1995-01-14 19:00","1995","01","14","19:00","","9.5","","8.2","","92","","8","","20","","15.0","","100.04","","","","","",""
"-79.40","43.63","TORONTO ISLAND A","6158665","1995-01-14 20:00","1995","01","14","20:00","","9.5","","8.1","","91","","7","","19","","15.0","","99.97","","","","","",""
"-79.40","43.63","TORONTO ISLAND A","6158665","1995-01-14 21:00","1995","01","14","21:00","","9.0","","8.0","","93","","8","","17","","9.7","","99.97","","","","","","Moderate Rain"
"-79.40","43.63","TORONTO ISLAND A","6158665","1995-01-14 22:00","1995","01","14","22:00","","8.6","","8.4","","99","","8","","13","","9.7","","100.04","","","","","","Rain"
"-79.40","43.63","TORONTO ISLAND A","6158665","1995-01-14 23:00","1995","01","14","23:00"
"-79.40","43.63","TORONTO ISLAND A","6158665","1995-01-15 00:00","1995","01","15","00:00","","6.8","","6.8","","100","","9","","17","","4.0","","99.93","","","","","","Rain"
"-79.40","43.63","TORONTO ISLAND A","6158665","1995-01-15 01:00","1995","01","15","01:00","","7.8","","7.8","","100","","8","","15","","2.3","","99.83","","","","","","Rain"
"-79.40","43.63","TORONTO ISLAND A","6158665","1995-01-15 02:00","1995","01","15","02:00"
"-79.40","43.63","TORONTO ISLAND A","6158665","1995-01-15 03:00","1995","01","15","03:00","","9.0","","9.0","","100","","8","","13","","0.3","","99.80","","","","","","Rain"
"-79.40","43.63","TORONTO ISLAND A","6158665","1995-01-15 04:00","1995","01","15","04:00","","9.4","","9.4","","100","","7","","15","","0.2","","99.67","","","","","","Rain"
"-79.40","43.63","TORONTO ISLAND A","6158665","1995-01-15 05:00","1995","01","15","05:00","","8.9","","8.9","","100","","36","","4","","0.2","","99.63","","","","","","Rain"
"-79.40","43.63","TORONTO ISLAND A","6158665","1995-01-15 06:00","1995","01","15","06:00","","8.6","","8.6","","100","","12","","6","","0.6","","99.67","","","","","","Rain"
"-79.40","43.63","TORONTO ISLAND A","6158665","1995-01-15 07:00","1995","01","15","07:00","","9.1","","9.1","","100","","","","0","","0.6","","99.67","","","","","","Moderate Rain"
"-79.40","43.63","TORONTO ISLAND A","6158665","1995-01-15 08:00","1995","01","15","08:00"
"-79.40","43.63","TORONTO ISLAND A","6158665","1995-01-15 09:00","1995","01","15","09:00","","7.4","","7.2","","99","","34","","24","","4.0","","99.83","","","","","","Rain"
"-79.40","43.63","TORONTO ISLAND A","6158665","1995-01-15 10:00","1995","01","15","10:00","","6.4","","5.8","","96","","33","","28","","12.9","","99.90","","","","","","Rain"
"-79.40","43.63","TORONTO ISLAND A","6158665","1995-01-15 11:00","1995","01","15","11:00","","6.2","","5.1","","93","","34","","30","","15.0","","99.87","","","","","","Rain"
"-79.40","43.63","TORONTO ISLAND A","6158665","1995-01-15 12:00","1995","01","15","12:00","","5.8","","4.6","","92","","33","","20","","15.0","","99.87","","","","","","Rain"
"-79.40","43.63","TORONTO ISLAND A","6158665","1995-01-15 13:00","1995","01","15","13:00","","6.2","","4.8","","91","","34","","13","","15.0","","99.83","","","","","","Drizzle"
"-79.40","43.63","TORONTO ISLAND A","6158665","1995-01-15 14:00","1995","01","15","14:00","","6.0","","4.4","","89","","32","","22","","15.0","","99.87","","","","","","Rain"
"-79.40","43.63","TORONTO ISLAND A","6158665","1995-01-15 15:00","1995","01","15","15:00"
"-79.40","43.63","TORONTO ISLAND A","6158665","1995-01-15 16:00","1995","01","15","16:00","","4.7","","3.5","","92","","33","","24","","12.9","","99.93","","","","","","Rain"
"-79.40","43.63","TORONTO ISLAND A","6158665","1995-01-15 17:00","1995","01","15","17:00","","4.3","","3.3","","93","","34","","30","","9.7","","99.90","","","","","","Rain"
"-79.40","43.63","TORONTO ISLAND A","6158665","1995-01-15 18:00","1995","01","15","18:00","","4.2","","3.4","","95","","34","","28","","8.0","","99.90","","","","","","Moderate Rain"
"-79.40","43.63","TORONTO ISLAND A","6158665","1995-01-15 19:00","1995","01","15","19:00","","3.8","","","M","","M","33","","32","","6.4","","99.90","","","","","","Moderate Rain"
"-79.40","43.63","TORONTO ISLAND A","6158665","1995-01-15 20:00","1995","01","15","20:00","","3.9","","","M","","M","34","","28","","9.7","","99.87","","","","","","Moderate Rain"
"-79.40","43.63","TORONTO ISLAND A","6158665","1995-01-15 21:00","1995","01","15","21:00","","3.9","","","M","","M","35","","41","","5.6","","99.80","","","","","","Moderate Rain"
"-79.40","43.63","TORONTO ISLAND A","6158665","1995-01-15 22:00","1995","01","15","22:00"
"-79.40","43.63","TORONTO ISLAND A","6158665","1995-01-15 23:00","1995","01","15","23:00","","3.7","","","M","","M","35","","22","","3.2","","99.83","","","","","","Moderate Rain"
"-79.40","43.63","TORONTO ISLAND A","6158665","1995-01-16 00:00","1995","01","16","00:00","","3.4","","","M","","M","34","","32","","2.9","","99.83","","","","","","Moderate Rain"
"-79.40","43.63","TORONTO ISLAND A","6158665","1995-01-16 01:00","1995","01","16","01:00","","3.1","","","M","","M","34","","32","","2.9","","99.83","","","","","","Heavy Rain"
"-79.40","43.63","TORONTO ISLAND A","6158665","1995-01-16 02:00","1995","01","16","02:00","","2.5","","","M","","M","35","","43","","1.6","","99.80","","","","","","Moderate Rain"
"-79.40","43.63","TORONTO ISLAND A","6158665","1995-01-16 03:00","1995","01","16","03:00","","2.8","","","M","","M","35","","39","","6.4","","99.83","","","","","","Rain"
"-79.40","43.63","TORONTO ISLAND A","6158665","1995-01-16 04:00","1995","01","16","04:00","","2.4","","","M","","M","35","","22","","15.0","","99.83","","","","","","Rain"
"-79.40","43.63","TORONTO ISLAND A","6158665","1995-01-16 05:00","1995","01","16","05:00","","2.4","","","M","","M","33","","13","","4.8","","99.90","","","","","","Moderate Rain"
"-79.40","43.63","TORONTO ISLAND A","6158665","1995-01-16 06:00","1995","01","16","06:00","","2.0","","","M","","M","32","","28","","5.6","","100.07","","","","","","Rain"
"-79.40","43.63","TORONTO ISLAND A","6158665","1995-01-16 07:00","1995","01","16","07:00","","1.3","","","M","","M","33","","22","","8.0","","100.17","","","","","",""
"-79.40","43.63","TORONTO ISLAND A","6158665","1995-01-16 08:00","1995","01","16","08:00","","1.6","","","M","","M","34","","17","","4.0","","100.24","","","","","","Rain"
"-79.40","43.63","TORONTO ISLAND A","6158665","1995-01-16 09:00","1995","01","16","09:00","","1.4","","","M","","M","32","","17","","2.9","","100.34","","","","","","Snow"
"-79.40","43.63","TORONTO ISLAND A","6158665","1995-01-16 10:00","1995","01","16","10:00","","1.2","","","M","","M","32","","24","","4.8","","100.41","","","","","","Snow"
"-79.40","43.63","TORONTO ISLAND A","6158665","1995-01-16 11:00","1995","01","16","11:00","","1.1","","","M","","M","33","","32","","11.3","","100.47","","","","","",""
"-79.40","43.63","TORONTO ISLAND A","6158665","1995-01-16 12:00","1995","01","16","12:00","","1.0","","","M","","M","32","","26","","6.4","","100.51","","","","","","NA"
"-79.40","43.63","TORONTO ISLAND A","6158665","1995-01-16 13:00","1995","01","16","13:00","","1.3","","","M","","M","33","","24","","2.9","","100.54","","","","","","Snow"
"-79.40","43.63","TORONTO ISLAND A","6158665","1995-01-16 14:00","1995","01","16","14:00"
"-79.40","43.63","TORONTO ISLAND A","6158665","1995-01-16 15:00","1995","01","16","15:00"
"-79.40","43.63","TORONTO ISLAND A","6158665","1995-01-16 16:00","1995","01","16","16:00","","1.6","","","M","","M","32","","22","","15.0","","100.71","","","","","","Snow"
"-79.40","43.63","TORONTO ISLAND A","6158665","1995-01-16 17:00","1995","01","16","17:00","","","M","","M","","M","32","","17","","15.0","","100.77","","","","","","NA"
"-79.40","43.63","TORONTO ISLAND A","6158665","1995-01-16 18:00","1995","01","16","18:00","","","M","","M","","M","33","","15","","15.0","","100.88","","","","","","NA"
"-79.40","43.63","TORONTO ISLAND A","6158665","1995-01-16 19:00","1995","01","16","19:00","","","M","","M","","M","33","","11","","15.0","","100.91","","","","","","NA"
"-79.40","43.63","TORONTO ISLAND A","6158665","1995-01-16 20:00","1995","01","16","20:00","","","M","","M","","M","32","","28","","15.0","","101.01","","","","","","NA"
"-79.40","43.63","TORONTO ISLAND A","6158665","1995-01-16 21:00","1995","01","16","21:00","","","M","","M","","M","34","","28","","15.0","","101.01","","","","","","NA"
"-79.40","43.63","TORONTO ISLAND A","6158665","1995-01-16 22:00","1995","01","16","22:00","","","M","","M","","M","34","","22","","15.0","","101.04","","","","","","NA"
"-79.40","43.63","TORONTO ISLAND A","6158665","1995-01-16 23:00","1995","01","16","23:00","","","M","","M","","M","33","","22","","15.0","","101.08","","","","","","NA"
"-79.40","43.63","TORONTO ISLAND A","6158665","1995-01-17 00:00","1995","01","17","00:00","","","M","","M","","M","32","","13","","15.0","","101.14","","","","","","NA"
"-79.40","43.63","TORONTO ISLAND A","6158665","1995-01-17 01:00","1995","01","17","01:00","","","M","","M","","M","32","","9","","15.0","","101.11","","","","","","NA"
"-79.40","43.63","TORONTO ISLAND A","6158665","1995-01-17 02:00","1995","01","17","02:00","","","M","","M","","M","32","","6","","15.0","","101.14","","","","","","NA"
"-79.40","43.63","TORONTO ISLAND A","6158665","1995-01-17 03:00","1995","01","17","03:00","","","M","","M","","M","16","","4","","15.0","","101.18","","","","","","NA"
"-79.40","43.63","TORONTO ISLAND A","6158665","1995-01-17 04:00","1995","01","17","04:00","","","M","","M","","M","30","","4","","15.0","","101.18","","","","","","NA"
"-79.40","43.63","TORONTO ISLAND A","6158665","1995-01-17 05:00","1995","01","17","05:00","","","M","","M","","M","32","","9","","15.0","","101.25","","","","","","NA"
"-79.40","43.63","TORONTO ISLAND A","6158665","1995-01-17 06:00","1995","01","17","06:00","","","M","","M","","M","30","","9","","15.0","","101.31","","","","","","NA"
"-79.40","43.63","TORONTO ISLAND A","6158665","1995-01-17 07:00","1995","01","17","07:00","","-1.0","","","M","","M","32","","6","","15.0","","101.31","","","","-3","","NA"
"-79.40","43.63","TORONTO ISLAND A","6158665","1995-01-17 08:00","1995","01","17","08:00","","-1.0","","","M","","M","34","","9","","15.0","","101.41","","","","-4","","NA"
"-79.40","43.63","TORONTO ISLAND A","6158665","1995-01-17 09:00","1995","01","17","09:00","","","M","","M","","M","35","","7","","15.0","","101.48","","","","","","NA"
"-79.40","43.63","TORONTO ISLAND A","6158665","1995-01-17 10:00","1995","01","17","10:00","","","M","","M","","M","9","","6","","15.0","","101.51","","","","","","NA"
"-79.40","43.63","TORONTO ISLAND A","6158665","1995-01-17 11:00","1995","01","17","11:00","","","M","","M","","M","10","","6","","12.9","","101.51","","","","","","NA"
"-79.40","43.63","TORONTO ISLAND A","6158665","1995-01-17 12:00","1995","01","17","12:00","","","M","","M","","M","12","","7","","12.9","","101.45","","","","","","NA"
"-79.40","43.63","TORONTO ISLAND A","6158665","1995-01-17 13:00","1995","01","17","13:00","","","M","","M","","M","11","","7","","12.9","","101.41","","","","","","NA"
"-79.40","43.63","TORONTO ISLAND A","6158665","1995-01-17 14:00","1995","01","17","14:00","","","M","","M","","M","9","","9","","12.9","","101.38","","","","","","NA"
"-79.40","43.63","TORONTO ISLAND A","6158665","1995-01-17 15:00","1995","01","17","15:00","","0.0","","0.0","","100","","9","","9","","15.0","","101.41","","","","-3","","NA"
"-79.40","43.63","TORONTO ISLAND A","6158665","1995-01-17 16:00","1995","01","17","16:00","","0.0","","0.0","","100","","8","","15","","12.9","","101.45","","","","-4","","NA"
"-79.40","43.63","TORONTO ISLAND A","6158665","1995-01-17 17:00","1995","01","17","17:00","","0.0","","0.0","","100","","7","","17","","15.0","","101.45","","","","-5","","NA"
"-79.40","43.63","TORONTO ISLAND A","6158665","1995-01-17 18:00","1995","01","17","18:00","","1.0","","1.0","","100","","7","","15","","9.7","","101.41","","","","","","NA"
"-79.40","43.63","TORONTO ISLAND A","6158665","1995-01-17 19:00","1995","01","17","19:00","","","M","","M","","M","9","","7","","15.0","","101.45","","","","","","NA"
"-79.40","43.63","TORONTO ISLAND A","6158665","1995-01-17 20:00","1995","01","17","20:00","","","M","","M","","M","12","","15","","15.0","","101.48","","","","","","NA"
"-79.40","43.63","TORONTO ISLAND A","6158665","1995-01-17 21:00","1995","01","17","21:00","","","M","","M","","M","10","","15","","15.0","","101.48","","","","","","Snow"
"-79.40","43.63","TORONTO ISLAND A","6158665","1995-01-17 22:00","1995","01","17","22:00","","","M","","M","","M","10","","17","","15.0","","101.48","","","","","","NA"
"-79.40","43.63","TORONTO ISLAND A","6158665","1995-01-17 23:00","1995","01","17","23:00","","","M","","M","","M","10","","22","","15.0","","101.45","","","","","","NA"
"-79.40","43.63","TORONTO ISLAND A","6158665","1995-01-18 00:00","1995","01","18","00:00","","","M","","M","","M","9","","24","","15.0","","101.41","","","","","","NA"
"-79.40","43.63","TORONTO ISLAND A","6158665","1995-01-18 01:00","1995","01","18","01:00","","","M","","M","","M","11","","13","","15.0","","101.51","","","","","","NA"
"-79.40","43.63","TORONTO ISLAND A","6158665","1995-01-18 02:00","1995","01","18","02:00","","","M","","M","","M","11","","19","","15.0","","101.45","","","","","","NA"
"-79.40","43.63","TORONTO ISLAND A","6158665","1995-01-18 03:00","1995","01","18","03:00","","","M","","M","","M","10","","20","","15.0","","101.41","","","","","","NA"
"-79.40","43.63","TORONTO ISLAND A","6158665","1995-01-18 04:00","1995","01","18","04:00","","","M","","M","","M","10","","24","","15.0","","101.38","","","","","","NA"
"-79.40","43.63","TORONTO ISLAND A","6158665","1995-01-18 05:00","1995","01","18","05:00","","","M","","M","","M","11","","20","","2.6","","101.31","","","","","","NA"
"-79.40","43.63","TORONTO ISLAND A","6158665","1995-01-18 06:00","1995","01","18","06:00"
"-79.40","43.63","TORONTO ISLAND A","6158665","1995-01-18 07:00","1995","01","18","07:00","","","M","","M","","M","12","","11","","3.2","","101.35","","","","","","NA"
"-79.40","43.63","TORONTO ISLAND A","6158665","1995-01-18 08:00","1995","01","18","08:00","","","M","","M","","M","10","","19","","12.9","","101.31","","","","","","NA"
"-79.40","43.63","TORONTO ISLAND A","6158665","1995-01-18 09:00","1995","01","18","09:00","","","M","","M","","M","9","","13","","15.0","","101.41","","","","","",""
"-79.40","43.63","TORONTO ISLAND A","6158665","1995-01-18 10:00","1995","01","18","10:00","","","M","","M","","M","7","","20","","12.9","","101.38","","","","","","NA"
"-79.40","43.63","TORONTO ISLAND A","6158665","1995-01-18 11:00","1995","01","18","11:00","","","M","","M","","M","7","","19","","15.0","","101.38","","","","","","NA"
"-79.40","43.63","TORONTO ISLAND A","6158665","1995-01-18 12:00","1995","01","18","12:00","","","M","","M","","M","7","","17","","15.0","","101.35","","","","","","NA"
"-79.40","43.63","TORONTO ISLAND A","6158665","1995-01-18 13:00","1995","01","18","13:00","","","M","","M","","M","6","","19","","9.7","","101.28","","","","","","NA"
"-79.40","43.63","TORONTO ISLAND A","6158665","1995-01-18 14:00","1995","01","18","14:00"
"-79.40","43.63","TORONTO ISLAND A","6158665","1995-01-18 15:00","1995","01","18","15:00","","","M","","M","","M","10","","9","","8.0","","101.25","","","","","","NA"
"-79.40","43.63","TORONTO ISLAND A","6158665","1995-01-18 16:00","1995","01","18","16:00"
"-79.40","43.63","TORONTO ISLAND A","6158665","1995-01-18 17:00","1995","01","18","17:00","","","M","","M","","M","8","","7","","8.0","","101.25","","","","","","NA"
"-79.40","43.63","TORONTO ISLAND A","6158665","1995-01-18 18:00","1995","01","18","18:00","","","M","","M","","M","8","","13","","8.0","","101.18","","","","","","NA"
"-79.40","43.63","TORONTO ISLAND A","6158665","1995-01-18 19:00","1995","01","18","19:00","","","M","","M","","M","7","","7","","9.7","","101.25","","","","","",""
"-79.40","43.63","TORONTO ISLAND A","6158665","1995-01-18 20:00","1995","01","18","20:00","","4.0","","4.0","","100","","","","0","","11.3","","101.21","","","","","","NA"
"-79.40","43.63","TORONTO ISLAND A","6158665","1995-01-18 21:00","1995","01","18","21:00","","","M","","M","","M","","","0","","6.4","","101.21","","","","","","NA"
"-79.40","43.63","TORONTO ISLAND A","6158665","1995-01-18 22:00","1995","01","18","22:00","","","M","","M","","M","8","","9","","1.8","","101.18","","","","","","NA"
"-79.40","43.63","TORONTO ISLAND A","6158665","1995-01-18 23:00","1995","01","18","23:00","","","M","","M","","M","8","","11","","0.3","","101.11","","","","","","NA"
"-79.40","43.63","TORONTO ISLAND A","6158665","1995-01-19 00:00","1995","01","19","00:00","","","M","","M","","M","7","","11","","0.2","","101.08","","","","","","NA"
"-79.40","43.63","TORONTO ISLAND A","6158665","1995-01-19 01:00","1995","01","19","01:00","","","M","","M","","M","6","","9","","1.1","","100.98","","","","","","NA"
"-79.40","43.63","TORONTO ISLAND A","6158665","1995-01-19 02:00","1995","01","19","02:00"
"-79.40","43.63","TORONTO ISLAND A","6158665","1995-01-19 03:00","1995","01","19","03:00","","","M","","M","","M","6","","17","","0.2","","100.94","","","","","","NA"
"-79.40","43.63","TORONTO ISLAND A","6158665","1995-01-19 04:00","1995","01","19","04:00","","","M","","M","","M","6","","20","","0.3","","100.81","","","","","","NA"
"-79.40","43.63","TORONTO ISLAND A","6158665","1995-01-19 05:00","1995","01","19","05:00","","","M","","M","","M","7","","22","","0.3","","100.71","","","","","","NA"
"-79.40","43.63","TORONTO ISLAND A","6158665","1995-01-19 06:00","1995","01","19","06:00","","","M","","M","","M","7","","15","","0.3","","100.71","","","","","","NA"
"-79.40","43.63","TORONTO ISLAND A","6158665","1995-01-19 07:00","1995","01","19","07:00","","","M","","M","","M","7","","13","","1.3","","100.71","","","","","","NA"
"-79.40","43.63","TORONTO ISLAND A","6158665","1995-01-19 08:00","1995","01","19","08:00","","","M","","M","","M","6","","11","","1.9","","100.67","","","","","","NA"
"-79.40","43.63","TORONTO ISLAND A","6158665","1995-01-19 09:00","1995","01","19","09:00","","","M","","M","","M","5","","22","","5.6","","100.64","","","","","","NA"
"-79.40","43.63","TORONTO ISLAND A","6158665","1995-01-19 10:00","1995","01","19","10:00","","","M","","M","","M","5","","15","","5.6","","100.61","","","","","","NA"
"-79.40","43.63","TORONTO ISLAND A","6158665","1995-01-19 11:00","1995","01","19","11:00","","","M","","M","","M","5","","20","","6.4","","100.51","","","","","","NA"
"-79.40","43.63","TORONTO ISLAND A","6158665","1995-01-19 12:00","1995","01","19","12:00","","4.0","","4.0","","100","","10","","13","","9.7","","100.44","","","","","","NA"
"-79.40","43.63","TORONTO ISLAND A","6158665","1995-01-19 13:00","1995","01","19","13:00","","3.0","","3.0","","100","","8","","9","","0.8","","100.37","","","","","","NA"
"-79.40","43.63","TORONTO ISLAND A","6158665","1995-01-19 14:00","1995","01","19","14:00","","3.0","","3.0","","100","","10","","9","","0.5","","100.24","","","","","","NA"
"-79.40","43.63","TORONTO ISLAND A","6158665","1995-01-19 15:00","1995","01","19","15:00","","3.0","","3.0","","100","","7","","20","","1.0","","100.14","","","","","","NA"
"-79.40","43.63","TORONTO ISLAND A","6158665","1995-01-19 16:00","1995","01","19","16:00","","3.0","","3.0","","100","","8","","15","","1.8","","100.17","","","","","","NA"
"-79.40","43.63","TORONTO ISLAND A","6158665","1995-01-19 17:00","1995","01","19","17:00","","3.0","","3.0","","100","","6","","19","","8.0","","100.07","","","","","","NA"
"-79.40","43.63","TORONTO ISLAND A","6158665","1995-01-19 18:00","1995","01","19","18:00","","4.0","","4.0","","100","","6","","20","","11.3","","99.97","","","","","","NA"
"-79.40","43.63","TORONTO ISLAND A","6158665","1995-01-19 19:00","1995","01","19","19:00","","5.0","","5.0","","100","","5","","20","","15.0","","99.90","","","","","","NA"
"-79.40","43.63","TORONTO ISLAND A","6158665","1995-01-19 20:00","1995","01","19","20:00","","5.0","","5.0","","100","","6","","24","","15.0","","99.90","","","","","","NA"
"-79.40","43.63","TORONTO ISLAND A","6158665","1995-01-19 21:00","1995","01","19","21:00","","4.0","","4.0","","100","","6","","26","","12.9","","99.87","","","","","","NA"
"-79.40","43.63","TORONTO ISLAND A","6158665","1995-01-19 22:00","1995","01","19","22:00","","4.0","","4.0","","100","","6","","24","","11.3","","99.77","","","","","","NA"
"-79.40","43.63","TORONTO ISLAND A","6158665","1995-01-19 23:00","1995","01","19","23:00","","4.0","","4.0","","100","","5","","22","","9.7","","99.63","","","","","","NA"
"-79.40","43.63","TORONTO ISLAND A","6158665","1995-01-20 00:00","1995","01","20","00:00","","4.0","","4.0","","100","","6","","30","","8.0","","99.60","","","","","",""
"-79.40","43.63","TORONTO ISLAND A","6158665","1995-01-20 01:00","1995","01","20","01:00","","4.0","","4.0","","100","","5","","28","","8.0","","99.43","","","","","","NA"
"-79.40","43.63","TORONTO ISLAND A","6158665","1995-01-20 02:00","1995","01","20","02:00","","4.0","","4.0","","100","","5","","28","","8.0","","99.33","","","","","","NA"
"-79.40","43.63","TORONTO ISLAND A","6158665","1995-01-20 03:00","1995","01","20","03:00","","4.4","","4.4","","100","","5","","30","","9.7","","99.33","","","","","",""
"-79.40","43.63","TORONTO ISLAND A","6158665","1995-01-20 04:00","1995","01","20","04:00","","5.0","","5.0","","100","","5","","28","","9.7","","99.23","","","","","","NA"
"-79.40","43.63","TORONTO ISLAND A","6158665","1995-01-20 05:00","1995","01","20","05:00","","4.6","","4.6","","100","","6","","39","","8.0","","99.16","","","","","","Moderate Rain"
"-79.40","43.63","TORONTO ISLAND A","6158665","1995-01-20 06:00","1995","01","20","06:00","","5.0","","5.0","","100","","6","","41","","5.6","","99.13","","","","","","Moderate Rain"
"-79.40","43.63","TORONTO ISLAND A","6158665","1995-01-20 07:00","1995","01","20","07:00","","5.0","","5.0","","100","","5","","37","","4.2","","98.99","","","","","","Heavy Rain"
"-79.40","43.63","TORONTO ISLAND A","6158665","1995-01-20 08:00","1995","01","20","08:00","","5.0","","5.0","","100","","5","","46","","4.7","","98.93","","","","","","Moderate Rain"
"-79.40","43.63","TORONTO ISLAND A","6158665","1995-01-20 09:00","1995","01","20","09:00","","5.0","","5.0","","100","","6","","54","","3.5","","98.86","","","","","","Heavy Rain"
"-79.40","43.63","TORONTO ISLAND A","6158665","1995-01-20 10:00","1995","01","20","10:00","","6.0","","6.0","","100","","5","","44","","9.7","","98.66","","","","","","Moderate Rain"
"-79.40","43.63","TORONTO ISLAND A","6158665","1995-01-20 11:00","1995","01","20","11:00","","6.9","","6.9","","100","","5","","39","","15.0","","98.52","","","","","","Rain"
"-79.40","43.63","TORONTO ISLAND A","6158665","1995-01-20 12:00","1995","01","20","12:00","","6.0","","6.0","","100","","5","","35","","9.7","","98.39","","","","","","Moderate Rain"
"-79.40","43.63","TORONTO ISLAND A","6158665","1995-01-20 13:00","1995","01","20","13:00","","6.0","","6.0","","100","","7","","30","","6.4","","98.32","","","","","","Rain"
"-79.40","43.63","TORONTO ISLAND A","6158665","1995-01-20 14:00","1995","01","20","14:00","","4.0","","4.0","","100","","9","","13","","4.7","","98.32","","","","","","Moderate Rain"
"-79.40","43.63","TORONTO ISLAND A","6158665","1995-01-20 15:00","1995","01","20","15:00","","5.0","","5.0","","100","","7","","22","","4.7","","98.32","","","","","","Moderate Rain"
"-79.40","43.63","TORONTO ISLAND A","6158665","1995-01-20 16:00","1995","01","20","16:00"
"-79.40","43.63","TORONTO ISLAND A","6158665","1995-01-20 17:00","1995","01","20","17:00","","5.0","","5.0","","100","","7","","35","","5.6","","98.35","","","","","","Rain"
"-79.40","43.63","TORONTO ISLAND A","6158665","1995-01-20 18:00","1995","01","20","18:00","","5.3","","5.3","","100","","6","","33","","3.1","","98.35","","","","","",""
"-79.40","43.63","TORONTO ISLAND A","6158665","1995-01-20 19:00","1995","01","20","19:00","","5.7","","5.7","","100","","5","","28","","15.0","","98.35","","","","","",""
"-79.40","43.63","TORONTO ISLAND A","6158665","1995-01-20 20:00","1995","01","20","20:00","","5.6","","","M","","M","5","","15","","2.3","","98.35","","","","","",""
"-79.40","43.63","TORONTO ISLAND A","6158665","1995-01-20 21:00","1995","01","20","21:00","","5.5","","5.5","","100","","4","","22","","8.0","","98.32","","","","","",""
"-79.40","43.63","TORONTO ISLAND A","6158665","1995-01-20 22:00","1995","01","20","22:00","","5.2","","5.2","","100","","4","","20","","8.0","","98.35","","","","","",""
"-79.40","43.63","TORONTO ISLAND A","6158665","1995-01-20 23:00","1995","01","20","23:00","","4.9","","","M","","M","5","","15","","9.7","","98.35","","","","","",""
"-79.40","43.63","TORONTO ISLAND A","6158665","1995-01-21 00:00","1995","01","21","00:00","","4.8","","","M","","M","2","","15","","5.6","","98.35","","","","","","Rain"
"-79.40","43.63","TORONTO ISLAND A","6158665","1995-01-21 01:00","1995","01","21","01:00","","4.6","","","M","","M","2","","7","","4.8","","98.35","","","","","","Rain"
"-79.40","43.63","TORONTO ISLAND A","6158665","1995-01-21 02:00","1995","01","21","02:00","","5.0","","5.0","","100","","36","","11","","11.3","","98.39","","","","","","Moderate Rain"
"-79.40","43.63","TORONTO ISLAND A","6158665","1995-01-21 03:00","1995","01","21","03:00","","4.0","","","M","","M","33","","7","","3.2","","98.39","","","","","","Rain"
"-79.40","43.63","TORONTO ISLAND A","6158665","1995-01-21 04:00","1995","01","21","04:00","","4.0","","","M","","M","31","","9","","4.8","","98.39","","","","","",""
"-79.40","43.63","TORONTO ISLAND A","6158665","1995-01-21 05:00","1995","01","21","05:00","","3.5","","","M","","M","31","","11","","4.0","","98.39","","","","","","Rain"
"-79.40","43.63","TORONTO ISLAND A","6158665","1995-01-21 06:00","1995","01","21","06:00","","3.0","","","M","","M","9","","7","","6.4","","98.42","","","","","","Rain"
"-79.40","43.63","TORONTO ISLAND A","6158665","1995-01-21 07:00","1995","01","21","07:00","","2.9","","","M","","M","12","","6","","15.0","","98.42","","","","","",""
"-79.40","43.63","TORONTO ISLAND A","6158665","1995-01-21 08:00","1995","01","21","08:00"
"-79.40","43.63","TORONTO ISLAND A","6158665","1995-01-21 09:00","1995","01","21","09:00"
"-79.40","43.63","TORONTO ISLAND A","6158665","1995-01-21 10:00","1995","01","21","10:00","","3.0","","","M","","M","24","","4","","9.7","","98.52","","","","","","NA"
"-79.40","43.63","TORONTO ISLAND A","6158665","1995-01-21 11:00","1995","01","21","11:00","","3.4","","","M","","M","23","","6","","15.0","","98.49","","","","","",""
"-79.40","43.63","TORONTO ISLAND A","6158665","1995-01-21 12:00","1995","01","21","12:00","","3.1","","","M","","M","10","","4","","15.0","","98.49","","","","","",""
"-79.40","43.63","TORONTO ISLAND A","6158665","1995-01-21 13:00","1995","01","21","13:00","","2.9","","","M","","M","11","","6","","5.6","","98.42","","","","","","Rain"
"-79.40","43.63","TORONTO ISLAND A","6158665","1995-01-21 14:00","1995","01","21","14:00"
"-79.40","43.63","TORONTO ISLAND A","6158665","1995-01-21 15:00","1995","01","21","15:00","","3.0","","","M","","M","18","","6","","9.7","","98.46","","","","","","Rain"
"-79.40","43.63","TORONTO ISLAND A","6158665","1995-01-21 16:00","1995","01","21","16:00","","3.0","","3.0","","100","","22","","15","","8.0","","98.49","","","","","","Rain"
"-79.40","43.63","TORONTO ISLAND A","6158665","1995-01-21 17:00","1995","01","21","17:00","","2.8","","2.8","","100","","23","","11","","8.0","","98.56","","","","","","Rain"
"-79.40","43.63","TORONTO ISLAND A","6158665","1995-01-21 18:00","1995","01","21","18:00","","3.0","","3.0","","100","","28","","11","","12.9","","98.62","","","","","","Rain"
"-79.40","43.63","TORONTO ISLAND A","6158665","1995-01-21 19:00","1995","01","21","19:00","","3.0","","3.0","","100","","27","","17","","8.0","","98.62","","","","","","Rain"
"-79.40","43.63","TORONTO ISLAND A","6158665","1995-01-21 20:00","1995","01","21","20:00","","3.0","","3.0","","100","","24","","22","","15.0","","98.66","","","","","","Rain"
"-79.40","43.63","TORONTO ISLAND A","6158665","1995-01-21 21:00","1995","01","21","21:00","","2.2","","2.2","","100","","25","","28","","15.0","","98.72","","","","","","Rain"
"-79.40","43.63","TORONTO ISLAND A","6158665","1995-01-21 22:00","1995","01","21","22:00","","1.5","","1.5","","100","","24","","28","","9.7","","98.79","","","","","","Snow"
"-79.40","43.63","TORONTO ISLAND A","6158665","1995-01-21 23:00","1995","01","21","23:00","","0.5","","0.5","","100","","23","","33","","4.0","","98.83","","","","","","Snow"
"-79.40","43.63","TORONTO ISLAND A","6158665","1995-01-22 00:00","1995","01","22","00:00","","0.2","","0.2","","100","","23","","35","","2.3","","98.86","","","","","","Snow"
"-79.40","43.63","TORONTO ISLAND A","6158665","1995-01-22 01:00","1995","01","22","01:00","","0.0","","0.0","","100","","23","","33","","1.9","","98.89","","","","-7","","Snow"
"-79.40","43.63","TORONTO ISLAND A","6158665","1995-01-22 02:00","1995","01","22","02:00","","-1.0","","-1.0","","100","","23","","33","","0.8","","98.96","","","","-8","","Snow"
"-79.40","43.63","TORONTO ISLAND A","6158665","1995-01-22 03:00","1995","01","22","03:00","","-0.7","","-0.7","","100","","23","","35","","1.6","","98.99","","","","-8","","Snow"
"-79.40","43.63","TORONTO ISLAND A","6158665","1995-01-22 04:00","1995","01","22","04:00","","-0.9","","-0.9","","100","","24","","32","","2.1","","99.03","","","","-8","","Snow"
"-79.40","43.63","TORONTO ISLAND A","6158665","1995-01-22 05:00","1995","01","22","05:00","","-0.7","","-0.7","","100","","23","","28","","3.9","","99.06","","","","-7","","Snow"
"-79.40","43.63","TORONTO ISLAND A","6158665","1995-01-22 06:00","1995","01","22","06:00","","-0.9","","-0.9","","100","","23","","24","","4.8","","99.13","","","","-7","","Snow"
"-79.40","43.63","TORONTO ISLAND A","6158665","1995-01-22 07:00","1995","01","22","07:00","","-0.6","","-0.6","","100","","22","","30","","5.6","","99.20","","","","-7","",""
"-79.40","43.63","TORONTO ISLAND A","6158665","1995-01-22 08:00","1995","01","22","08:00","","-1.0","","-1.0","","100","","22","","33","","2.6","","99.26","","","","-8","","Snow"
"-79.40","43.63","TORONTO ISLAND A","6158665","1995-01-22 09:00","1995","01","22","09:00","","-1.0","","-1.0","","100","","22","","37","","2.4","","99.33","","","","-8","","Snow"
"-79.40","43.63","TORONTO ISLAND A","6158665","1995-01-22 10:00","1995","01","22","10:00","","-1.0","","-1.0","","100","","21","","37","","8.0","","99.40","","","","-8","","Snow"
"-79.40","43.63","TORONTO ISLAND A","6158665","1995-01-22 11:00","1995","01","22","11:00","","-0.8","","-0.8","","100","","22","","32","","5.6","","99.43","","","","-8","","Snow"
"-79.40","43.63","TORONTO ISLAND A","6158665","1995-01-22 12:00","1995","01","22","12:00"
"-79.40","43.63","TORONTO ISLAND A","6158665","1995-01-22 13:00","1995","01","22","13:00","","-1.0","","-1.0","","100","","21","","35","","1.4","","99.36","","","","-8","","Snow"
"-79.40","43.63","TORONTO ISLAND A","6158665","1995-01-22 14:00","1995","01","22","14:00","","-0.7","","-0.7","","100","","20","","30","","2.4","","99.36","","","","-7","","Snow"
"-79.40","43.63","TORONTO ISLAND A","6158665","1995-01-22 15:00","1995","01","22","15:00","","-0.8","","-0.8","","100","","22","","33","","2.3","","99.40","","","","-8","","Snow"
"-79.40","43.63","TORONTO ISLAND A","6158665","1995-01-22 16:00","1995","01","22","16:00","","-1.0","","-1.0","","100","","22","","26","","2.6","","99.50","","","","-7","","Snow"
"-79.40","43.63","TORONTO ISLAND A","6158665","1995-01-22 17:00","1995","01","22","17:00","","-0.3","","-0.3","","100","","21","","35","","3.1","","99.56","","","","-7","","Snow"
"-79.40","43.63","TORONTO ISLAND A","6158665","1995-01-22 18:00","1995","01","22","18:00","","-0.6","","-0.6","","100","","23","","33","","12.9","","99.63","","","","-8","","Snow"
"-79.40","43.63","TORONTO ISLAND A","6158665","1995-01-22 19:00","1995","01","22","19:00","","-0.8","","-1.2","","97","","22","","35","","4.8","","99.67","","","","-8","","Snow"
"-79.40","43.63","TORONTO ISLAND A","6158665","1995-01-22 20:00","1995","01","22","20:00","","-0.9","","-1.3","","97","","22","","28","","3.4","","99.70","","","","-7","","Snow"
"-79.40","43.63","TORONTO ISLAND A","6158665","1995-01-22 21:00","1995","01","22","21:00","","-0.9","","-1.1","","99","","22","","32","","3.4","","99.73","","","","-8","","Snow"
"-79.40","43.63","TORONTO ISLAND A","6158665","1995-01-22 22:00","1995","01","22","22:00","","-1.3","","-1.3","","100","","23","","26","","4.3","","99.77","","","","-8","","Snow"
"-79.40","43.63","TORONTO ISLAND A","6158665","1995-01-22 23:00","1995","01","22","23:00","","-1.2","","-1.8","","96","","24","","26","","15.0","","99.80","","","","-8","",""
"-79.40","43.63","TORONTO ISLAND A","6158665","1995-01-23 00:00","1995","01","23","00:00","","-1.2","","-2.2","","93","","23","","30","","15.0","","99.80","","","","-8","",""
"-79.40","43.63","TORONTO ISLAND A","6158665","1995-01-23 01:00","1995","01","23","01:00","","-1.4","","-2.2","","94","","24","","28","","15.0","","99.77","","","","-8","",""
"-79.40","43.63","TORONTO ISLAND A","6158665","1995-01-23 02:00","1995","01","23","02:00","","-1.6","","-2.8","","92","","24","","32","","15.0","","99.80","","","","-9","",""
"-79.40","43.63","TORONTO ISLAND A","6158665","1995-01-23 03:00","1995","01","23","03:00","","-1.6","","-3.2","","89","","24","","28","","15.0","","99.90","","","","-8","",""
"-79.40","43.63","TORONTO ISLAND A","6158665","1995-01-23 04:00","1995","01","23","04:00","","-1.8","","-3.7","","87","","28","","11","","15.0","","99.93","","","","-6","",""
"-79.40","43.63","TORONTO ISLAND A","6158665","1995-01-23 05:00","1995","01","23","05:00","","-1.7","","-3.5","","87","","26","","13","","15.0","","99.93","","","","-6","",""
"-79.40","43.63","TORONTO ISLAND A","6158665","1995-01-23 06:00","1995","01","23","06:00","","-2.2","","-2.9","","95","","27","","9","","4.8","","100.00","","","","-6","","Snow"
"-79.40","43.63","TORONTO ISLAND A","6158665","1995-01-23 07:00","1995","01","23","07:00","","-1.9","","-3.3","","90","","25","","13","","15.0","","100.00","","","","-6","",""
"-79.40","43.63","TORONTO ISLAND A","6158665","1995-01-23 08:00","1995","01","23","08:00","","-1.7","","-3.2","","89","","25","","11","","15.0","","100.07","","","","-6","",""
"-79.40","43.63","TORONTO ISLAND A","6158665","1995-01-23 09:00","1995","01","23","09:00","","-1.6","","-3.0","","90","","25","","13","","12.9","","100.07","","","","-6","",""
"-79.40","43.63","TORONTO ISLAND A","6158665","1995-01-23 10:00","1995","01","23","10:00","","-1.7","","-2.6","","94","","27","","13","","6.4","","100.10","","","","-6","",""
"-79.40","43.63","TORONTO ISLAND A","6158665","1995-01-23 11:00","1995","01","23","11:00","","-1.3","","-2.9","","89","","26","","11","","9.7","","100.10","","","","-5","",""
"-79.40","43.63","TORONTO ISLAND A","6158665","1995-01-23 12:00","1995","01","23","12:00","","-0.9","","-2.7","","88","","27","","9","","8.0","","100.07","","","","-4","",""
"-79.40","43.63","TORONTO ISLAND A","6158665","1995-01-23 13:00","1995","01","23","13:00","","-0.8","","-3.0","","85","","26","","7","","11.3","","100.04","","","","-3","",""
"-79.40","43.63","TORONTO ISLAND A","6158665","1995-01-23 14:00","1995","01","23","14:00","","-0.6","","-2.7","","86","","26","","7","","8.0","","100.04","","","","-3","",""
"-79.40","43.63","TORONTO ISLAND A","6158665","1995-01-23 15:00","1995","01","23","15:00","","-0.1","","-2.5","","84","","30","","7","","8.0","","100.07","","","","-3","",""
"-79.40","43.63","TORONTO ISLAND A","6158665","1995-01-23 16:00","1995","01","23","16:00","","0.0","","-2.3","","84","","32","","4","","8.0","","100.14","","","","-1","",""
"-79.40","43.63","TORONTO ISLAND A","6158665","1995-01-23 17:00","1995","01","23","17:00","","-0.1","","-2.0","","87","","26","","7","","6.4","","100.20","","","","-3","",""
"-79.40","43.63","TORONTO ISLAND A","6158665","1995-01-23 18:00","1995","01","23","18:00","","-0.1","","-2.2","","86","","26","","9","","6.4","","100.24","","","","-3","",""
"-79.40","43.63","TORONTO ISLAND A","6158665","1995-01-23 19:00","1995","01","23","19:00","","0.0","","-2.1","","86","","30","","9","","8.0","","100.27","","","","-3","",""
"-79.40","43.63","TORONTO ISLAND A","6158665","1995-01-23 20:00","1995","01","23","20:00","","0.0","","-1.9","","87","","32","","9","","6.4","","100.27","","","","-3","",""
"-79.40","43.63","TORONTO ISLAND A","6158665","1995-01-23 21:00","1995","01","23","21:00","","-0.2","","-2.1","","87","","30","","9","","8.0","","100.24","","","","-3","",""
"-79.40","43.63","TORONTO ISLAND A","6158665","1995-01-23 22:00","1995","01","23","22:00","","-0.4","","-2.8","","84","","32","","11","","15.0","","100.27","","","","-4","",""
"-79.40","43.63","TORONTO ISLAND A","6158665","1995-01-23 23:00","1995","01","23","23:00","","-0.5","","-3.2","","82","","34","","9","","15.0","","100.27","","","","-4","",""
"-79.40","43.63","TORONTO ISLAND A","6158665","1995-01-24 00:00","1995","01","24","00:00","","-0.8","","-3.4","","83","","32","","11","","15.0","","100.27","","","","-5","",""
"-79.40","43.63","TORONTO ISLAND A","6158665","1995-01-24 01:00","1995","01","24","01:00","","-1.0","","-3.5","","83","","32","","7","","15.0","","100.27","","","","-4","",""
"-79.40","43.63","TORONTO ISLAND A","6158665","1995-01-24 02:00","1995","01","24","02:00","","-0.9","","-3.1","","85","","31","","6","","15.0","","100.27","","","","-3","",""
"-79.40","43.63","TORONTO ISLAND A","6158665","1995-01-24 03:00","1995","01","24","03:00","","-0.6","","-2.8","","85","","29","","7","","11.3","","100.30","","","","-3","",""
"-79.40","43.63","TORONTO ISLAND A","6158665","1995-01-24 04:00","1995","01","24","04:00","","-0.4","","-2.8","","84","","31","","9","","15.0","","100.30","","","","-4","",""
"-79.40","43.63","TORONTO ISLAND A","6158665","1995-01-24 05:00","1995","01","24","05:00","","-0.2","","-2.4","","85","","30","","9","","15.0","","100.34","","","","-3","",""
"-79.40","43.63","TORONTO ISLAND A","6158665","1995-01-24 06:00","1995","01","24","06:00","","-0.1","","-1.8","","88","","30","","9","","15.0","","100.34","","","","-3","",""
"-79.40","43.63","TORONTO ISLAND A","6158665","1995-01-24 07:00","1995","01","24","07:00","","-0.2","","-1.9","","88","","31","","13","","12.9","","100.37","","","","-4","",""
"-79.40","43.63","TORONTO ISLAND A","6158665","1995-01-24 08:00","1995","01","24","08:00","","-0.2","","-1.4","","92","","30","","11","","6.4","","100.44","","","","-4","","Snow"
"-79.40","43.63","TORONTO ISLAND A","6158665","1995-01-24 09:00","1995","01","24","09:00","","0.1","","-1.6","","88","","30","","13","","12.9","","100.47","","","","","","Snow"
"-79.40","43.63","TORONTO ISLAND A","6158665","1995-01-24 10:00","1995","01","24","10:00"
"-79.40","43.63","TORONTO ISLAND A","6158665","1995-01-24 11:00","1995","01","24","11:00","","0.0","","-1.0","","93","","32","","7","","6.4","","100.57","","","","-2","","Snow"
"-79.40","43.63","TORONTO ISLAND A","6158665","1995-01-24 12:00","1995","01","24","12:00","","0.2","","-1.4","","89","","33","","11","","4.8","","100.57","","","","","","Snow"
"-79.40","43.63","TORONTO ISLAND A","6158665","1995-01-24 13:00","1995","01","24","13:00","","0.6","","-1.6","","85","","31","","15","","12.9","","100.54","","","","","","Snow"
"-79.40","43.63","TORONTO ISLAND A","6158665","1995-01-24 14:00","1995","01","24","14:00","","0.8","","-1.5","","85","","32","","19","","15.0","","100.57","","","","","","Snow"
"-79.40","43.63","TORONTO ISLAND A","6158665","1995-01-24 15:00","1995","01","24","15:00","","1.1","","-1.6","","82","","31","","17","","15.0","","100.64","","","","","",""
"-79.40","43.63","TORONTO ISLAND A","6158665","1995-01-24 16:00","1995","01","24","16:00","","1.2","","-2.3","","77","","32","","22","","15.0","","100.71","","","","","",""
"-79.40","43.63","TORONTO ISLAND A","6158665","1995-01-24 17:00","1995","01","24","17:00","","1.1","","-2.0","","80","","32","","15","","15.0","","100.74","","","","","",""
"-79.40","43.63","TORONTO ISLAND A","6158665","1995-01-24 18:00","1995","01","24","18:00","","0.9","","-2.0","","81","","33","","15","","15.0","","100.84","","","","","",""
"-79.40","43.63","TORONTO ISLAND A","6158665","1995-01-24 19:00","1995","01","24","19:00","","0.8","","-2.0","","82","","31","","15","","15.0","","100.91","","","","","",""
"-79.40","43.63","TORONTO ISLAND A","6158665","1995-01-24 20:00","1995","01","24","20:00","","0.9","","-2.1","","80","","31","","19","","15.0","","100.94","","","","","",""
"-79.40","43.63","TORONTO ISLAND A","6158665","1995-01-24 21:00","1995","01","24","21:00","","0.6","","-2.5","","80","","30","","20","","15.0","","100.91","","","","","",""
"-79.40","43.63","TORONTO ISLAND A","6158665","1995-01-24 22:00","1995","01","24","22:00","","0.6","","-2.4","","80","","32","","30","","15.0","","100.91","","","","","",""
"-79.40","43.63","TORONTO ISLAND A","6158665","1995-01-24 23:00","1995","01","24","23:00","","0.6","","-2.1","","82","","31","","19","","15.0","","100.91","","","","","",""
"-79.40","43.63","TORONTO ISLAND A","6158665","1995-01-25 00:00","1995","01","25","00:00","","0.7","","-2.3","","80","","31","","30","","15.0","","100.88","","","","","",""
"-79.40","43.63","TORONTO ISLAND A","6158665","1995-01-25 01:00","1995","01","25","01:00","","0.6","","-2.4","","80","","31","","17","","15.0","","100.88","","","","","",""
"-79.40","43.63","TORONTO ISLAND A","6158665","1995-01-25 02:00","1995","01","25","02:00","","0.6","","-2.5","","80","","29","","19","","15.0","","100.91","","","","","",""
"-79.40","43.63","TORONTO ISLAND A","6158665","1995-01-25 03:00","1995","01","25","03:00","","0.4","","-2.8","","79","","30","","17","","15.0","","100.94","","","","","",""
"-79.40","43.63","TORONTO ISLAND A","6158665","1995-01-25 04:00","1995","01","25","04:00","","0.3","","-2.7","","80","","30","","19","","15.0","","100.94","","","","","",""
"-79.40","43.63","TORONTO ISLAND A","6158665","1995-01-25 05:00","1995","01","25","05:00","","0.3","","-2.9","","79","","30","","20","","15.0","","100.98","","","","","",""
"-79.40","43.63","TORONTO ISLAND A","6158665","1995-01-25 06:00","1995","01","25","06:00","","0.2","","-2.8","","80","","31","","15","","15.0","","101.01","","","","","",""
"-79.40","43.63","TORONTO ISLAND A","6158665","1995-01-25 07:00","1995","01","25","07:00","","0.2","","-2.9","","80","","32","","4","","15.0","","101.01","","","","","",""
"-79.40","43.63","TORONTO ISLAND A","6158665","1995-01-25 08:00","1995","01","25","08:00","","-0.1","","-2.6","","83","","27","","15","","15.0","","101.08","","","","-5","",""
"-79.40","43.63","TORONTO ISLAND A","6158665","1995-01-25 09:00","1995","01","25","09:00","","-0.1","","-2.8","","82","","34","","11","","15.0","","101.08","","","","-4","",""
"-79.40","43.63","TORONTO ISLAND A","6158665","1995-01-25 10:00","1995","01","25","10:00","","-0.1","","-2.8","","82","","1","","6","","15.0","","101.11","","","","-2","",""
"-79.40","43.63","TORONTO ISLAND A","6158665","1995-01-25 11:00","1995","01","25","11:00","","0.0","","-3.0","","80","","31","","4","","15.0","","101.11","","","","-1","",""
"-79.40","43.63","TORONTO ISLAND A","6158665","1995-01-25 12:00","1995","01","25","12:00","","0.2","","-3.0","","79","","36","","7","","15.0","","101.04","","","","","",""
"-79.40","43.63","TORONTO ISLAND A","6158665","1995-01-25 13:00","1995","01","25","13:00","","0.4","","-2.6","","80","","31","","6","","15.0","","100.98","","","","","",""
"-79.40","43.63","TORONTO ISLAND A","6158665","1995-01-25 14:00","1995","01","25","14:00","","0.3","","-2.3","","83","","18","","6","","15.0","","100.91","","","","","",""
"-79.40","43.63","TORONTO ISLAND A","6158665","1995-01-25 15:00","1995","01","25","15:00","","0.2","","-1.6","","88","","16","","4","","5.6","","100.91","","","","","",""
"-79.40","43.63","TORONTO ISLAND A","6158665","1995-01-25 16:00","1995","01","25","16:00"
"-79.40","43.63","TORONTO ISLAND A","6158665","1995-01-25 17:00","1995","01","25","17:00","","0.0","","-1.0","","93","","16","","4","","12.9","","100.94","","","","-1","","NA"
"-79.40","43.63","TORONTO ISLAND A","6158665","1995-01-25 18:00","1995","01","25","18:00","","-0.3","","-0.6","","98","","","","0","","6.4","","100.98","","","","","",""
"-79.40","43.63","TORONTO ISLAND A","6158665","1995-01-25 19:00","1995","01","25","19:00","","0.0","","-2.0","","86","","31","","13","","15.0","","100.98","","","","-4","","NA"
"-79.40","43.63","TORONTO ISLAND A","6158665","1995-01-25 20:00","1995","01","25","20:00","","-0.5","","-5.2","","70","","29","","17","","15.0","","100.98","","","","-5","",""
"-79.40","43.63","TORONTO ISLAND A","6158665","1995-01-25 21:00","1995","01","25","21:00","","-0.9","","-5.9","","69","","27","","22","","15.0","","100.98","","","","-7","",""
"-79.40","43.63","TORONTO ISLAND A","6158665","1995-01-25 22:00","1995","01","25","22:00","","-1.3","","-4.4","","79","","28","","17","","15.0","","100.98","","","","-6","",""
"-79.40","43.63","TORONTO ISLAND A","6158665","1995-01-25 23:00","1995","01","25","23:00","","-1.2","","-4.4","","79","","27","","13","","15.0","","100.94","","","","-5","",""
"-79.40","43.63","TORONTO ISLAND A","6158665","1995-01-26 00:00","1995","01","26","00:00","","-0.8","","-3.9","","79","","27","","11","","15.0","","100.94","","","","-5","",""
"-79.40","43.63","TORONTO ISLAND A","6158665","1995-01-26 01:00","1995","01","26","01:00","","-0.5","","-4.6","","74","","30","","24","","15.0","","100.91","","","","-6","",""
"-79.40","43.63","TORONTO ISLAND A","6158665","1995-01-26 02:00","1995","01","26","02:00","","-1.0","","-5.1","","74","","30","","17","","15.0","","100.94","","","","-6","",""
"-79.40","43.63","TORONTO ISLAND A","6158665","1995-01-26 03:00","1995","01","26","03:00","","-1.4","","-5.0","","76","","28","","19","","15.0","","100.94","","","","-7","",""
"-79.40","43.63","TORONTO ISLAND A","6158665","1995-01-26 04:00","1995","01","26","04:00","","-1.6","","-4.9","","78","","27","","15","","15.0","","100.94","","","","-6","",""
"-79.40","43.63","TORONTO ISLAND A","6158665","1995-01-26 05:00","1995","01","26","05:00","","-1.2","","-4.3","","79","","29","","13","","15.0","","100.94","","","","-5","",""
"-79.40","43.63","TORONTO ISLAND A","6158665","1995-01-26 06:00","1995","01","26","06:00","","-1.3","","-4.9","","76","","28","","17","","15.0","","100.98","","","","-6","",""
"-79.40","43.63","TORONTO ISLAND A","6158665","1995-01-26 07:00","1995","01","26","07:00","","-1.3","","-6.9","","66","","29","","28","","15.0","","100.98","","","","-8","",""
"-79.40","43.63","TORONTO ISLAND A","6158665","1995-01-26 08:00","1995","01","26","08:00","","-1.5","","-6.7","","68","","28","","24","","15.0","","101.01","","","","-8","","Snow"
"-79.40","43.63","TORONTO ISLAND A","6158665","1995-01-26 09:00","1995","01","26","09:00","","-1.9","","-5.0","","79","","27","","20","","12.9","","101.04","","","","-8","","Snow"
"-79.40","43.63","TORONTO ISLAND A","6158665","1995-01-26 10:00","1995","01","26","10:00","","-1.5","","-5.1","","76","","26","","22","","15.0","","101.08","","","","-7","","Snow"
"-79.40","43.63","TORONTO ISLAND A","6158665","1995-01-26 11:00","1995","01","26","11:00","","-1.6","","-6.0","","72","","29","","24","","15.0","","101.08","","","","-8","","Snow"
"-79.40","43.63","TORONTO ISLAND A","6158665","1995-01-26 12:00","1995","01","26","12:00","","-1.3","","-5.6","","73","","28","","15","","15.0","","101.01","","","","-6","",""
"-79.40","43.63","TORONTO ISLAND A","6158665","1995-01-26 13:00","1995","01","26","13:00","","-0.9","","-5.6","","70","","29","","20","","15.0","","100.94","","","","-6","",""
"-79.40","43.63","TORONTO ISLAND A","6158665","1995-01-26 14:00","1995","01","26","14:00","","-1.0","","-5.0","","74","","27","","26","","15.0","","100.88","","","","-7","","Snow"
"-79.40","43.63","TORONTO ISLAND A","6158665","1995-01-26 15:00","1995","01","26","15:00","","-0.6","","-4.3","","76","","25","","28","","15.0","","100.84","","","","-7","",""
"-79.40","43.63","TORONTO ISLAND A","6158665","1995-01-26 16:00","1995","01","26","16:00","","-0.4","","-6.0","","66","","27","","26","","15.0","","100.84","","","","-7","",""
"-79.40","43.63","TORONTO ISLAND A","6158665","1995-01-26 17:00","1995","01","26","17:00","","-0.9","","-5.7","","70","","25","","35","","15.0","","100.84","","","","-8","",""
"-79.40","43.63","TORONTO ISLAND A","6158665","1995-01-26 18:00","1995","01","26","18:00","","-1.7","","-5.2","","77","","26","","35","","15.0","","100.84","","","","-9","","Snow"
"-79.40","43.63","TORONTO ISLAND A","6158665","1995-01-26 19:00","1995","01","26","19:00","","-1.9","","-5.8","","75","","25","","35","","15.0","","100.88","","","","-9","",""
"-79.40","43.63","TORONTO ISLAND A","6158665","1995-01-26 20:00","1995","01","26","20:00","","-2.2","","-6.4","","73","","26","","35","","15.0","","100.91","","","","-10","",""
"-79.40","43.63","TORONTO ISLAND A","6158665","1995-01-26 21:00","1995","01","26","21:00","","-1.9","","-5.8","","75","","25","","32","","15.0","","100.88","","","","-9","",""
"-79.40","43.63","TORONTO ISLAND A","6158665","1995-01-26 22:00","1995","01","26","22:00","","-1.4","","-5.1","","76","","25","","32","","15.0","","100.88","","","","-9","",""
"-79.40","43.63","TORONTO ISLAND A","6158665","1995-01-26 23:00","1995","01","26","23:00","","-1.1","","-4.4","","78","","26","","22","","15.0","","100.88","","","","-7","",""
"-79.40","43.63","TORONTO ISLAND A","6158665","1995-01-27 00:00","1995","01","27","00:00","","-1.0","","-4.4","","78","","26","","28","","15.0","","100.88","","","","-8","","Snow"
"-79.40","43.63","TORONTO ISLAND A","6158665","1995-01-27 01:00","1995","01","27","01:00","","-0.9","","-4.2","","78","","26","","24","","15.0","","100.88","","","","-7","","Snow"
"-79.40","43.63","TORONTO ISLAND A","6158665","1995-01-27 02:00","1995","01","27","02:00","","-1.1","","-3.9","","81","","27","","19","","9.7","","100.91","","","","-6","","Snow"
"-79.40","43.63","TORONTO ISLAND A","6158665","1995-01-27 03:00","1995","01","27","03:00","","-0.9","","-4.0","","79","","27","","17","","15.0","","100.91","","","","-6","",""
"-79.40","43.63","TORONTO ISLAND A","6158665","1995-01-27 04:00","1995","01","27","04:00","","-1.7","","-5.7","","74","","35","","9","","15.0","","100.91","","","","-5","",""
"-79.40","43.63","TORONTO ISLAND A","6158665","1995-01-27 05:00","1995","01","27","05:00","","-3.5","","-7.0","","77","","35","","17","","15.0","","100.98","","","","-9","",""
"-79.40","43.63","TORONTO ISLAND A","6158665","1995-01-27 06:00","1995","01","27","06:00","","-4.7","","-8.5","","75","","34","","15","","15.0","","101.01","","","","-10","",""
"-79.40","43.63","TORONTO ISLAND A","6158665","1995-01-27 07:00","1995","01","27","07:00","","-5.2","","-9.6","","71","","34","","19","","15.0","","101.01","","","","-12","",""
"-79.40","43.63","TORONTO ISLAND A","6158665","1995-01-27 08:00","1995","01","27","08:00","","-5.4","","-9.5","","73","","36","","17","","15.0","","101.08","","","","-11","",""
"-79.40","43.63","TORONTO ISLAND A","6158665","1995-01-27 09:00","1995","01","27","09:00","","-5.5","","-10.0","","71","","35","","17","","15.0","","101.11","","","","-12","",""
"-79.40","43.63","TORONTO ISLAND A","6158665","1995-01-27 10:00","1995","01","27","10:00","","-5.0","","-9.5","","71","","35","","9","","15.0","","101.11","","","","-9","",""
"-79.40","43.63","TORONTO ISLAND A","6158665","1995-01-27 11:00","1995","01","27","11:00","","-4.7","","-9.7","","68","","32","","11","","15.0","","101.14","","","","-9","",""
"-79.40","43.63","TORONTO ISLAND A","6158665","1995-01-27 12:00","1995","01","27","12:00","","-4.1","","-9.1","","68","","30","","6","","15.0","","101.04","","","","-7","",""
"-79.40","43.63","TORONTO ISLAND A","6158665","1995-01-27 13:00","1995","01","27","13:00","","-3.2","","-8.0","","69","","32","","9","","15.0","","101.01","","","","-7","",""
"-79.40","43.63","TORONTO ISLAND A","6158665","1995-01-27 14:00","1995","01","27","14:00","","-2.8","","-7.5","","70","","26","","7","","15.0","","100.98","","","","-6","","Snow"
"-79.40","43.63","TORONTO ISLAND A","6158665","1995-01-27 15:00","1995","01","27","15:00","","-2.5","","-6.8","","72","","23","","9","","15.0","","100.98","","","","-6","",""
"-79.40","43.63","TORONTO ISLAND A","6158665","1995-01-27 16:00","1995","01","27","16:00","","-2.1","","-7.3","","68","","35","","6","","15.0","","101.01","","","","-4","",""
"-79.40","43.63","TORONTO ISLAND A","6158665","1995-01-27 17:00","1995","01","27","17:00","","-2.8","","-8.2","","66","","32","","13","","15.0","","101.04","","","","-7","",""
"-79.40","43.63","TORONTO ISLAND A","6158665","1995-01-27 18:00","1995","01","27","18:00","","-3.8","","-9.4","","65","","36","","15","","15.0","","101.14","","","","-9","",""
"-79.40","43.63","TORONTO ISLAND A","6158665","1995-01-27 19:00","1995","01","27","19:00","","-4.8","","-9.8","","68","","35","","11","","15.0","","101.18","","","","-9","",""
"-79.40","43.63","TORONTO ISLAND A","6158665","1995-01-27 20:00","1995","01","27","20:00","","-5.7","","-10.1","","71","","35","","20","","15.0","","101.21","","","","-12","",""
"-79.40","43.63","TORONTO ISLAND A","6158665","1995-01-27 21:00","1995","01","27","21:00","","-6.4","","-10.8","","71","","34","","20","","15.0","","101.25","","","","-13","",""
"-79.40","43.63","TORONTO ISLAND A","6158665","1995-01-27 22:00","1995","01","27","22:00","","-7.1","","-14.2","","57","","35","","19","","15.0","","101.35","","","","-14","",""
"-79.40","43.63","TORONTO ISLAND A","6158665","1995-01-27 23:00","1995","01","27","23:00","","-8.0","","-14.4","","60","","3","","17","","15.0","","101.38","","","","-15","",""
"-79.40","43.63","TORONTO ISLAND A","6158665","1995-01-28 00:00","1995","01","28","00:00","","-9.1","","-15.3","","61","","5","","28","","15.0","","101.38","","","","-18","",""
"-79.40","43.63","TORONTO ISLAND A","6158665","1995-01-28 01:00","1995","01","28","01:00","","-9.8","","-15.8","","62","","3","","22","","15.0","","101.41","","","","-18","",""
"-79.40","43.63","TORONTO ISLAND A","6158665","1995-01-28 02:00","1995","01","28","02:00","","-10.5","","-16.1","","63","","4","","19","","15.0","","101.45","","","","-18","",""
"-79.40","43.63","TORONTO ISLAND A","6158665","1995-01-28 03:00","1995","01","28","03:00","","-11.2","","-16.7","","64","","1","","15","","15.0","","101.48","","","","-18","",""
"-79.40","43.63","TORONTO ISLAND A","6158665","1995-01-28 04:00","1995","01","28","04:00","","-11.7","","-17.1","","64","","2","","11","","15.0","","101.55","","","","-18","",""
"-79.40","43.63","TORONTO ISLAND A","6158665","1995-01-28 05:00","1995","01","28","05:00","","-12.5","","-16.9","","70","","1","","15","","15.0","","101.58","","","","-20","",""
"-79.40","43.63","TORONTO ISLAND A","6158665","1995-01-28 06:00","1995","01","28","06:00","","-13.5","","-17.3","","73","","36","","20","","15.0","","101.62","","","","-22","",""
"-79.40","43.63","TORONTO ISLAND A","6158665","1995-01-28 07:00","1995","01","28","07:00","","-14.0","","-18.1","","71","","35","","20","","15.0","","101.65","","","","-23","",""
"-79.40","43.63","TORONTO ISLAND A","6158665","1995-01-28 08:00","1995","01","28","08:00","","-14.1","","-18.1","","72","","35","","15","","15.0","","101.68","","","","-22","",""
"-79.40","43.63","TORONTO ISLAND A","6158665","1995-01-28 09:00","1995","01","28","09:00","","-13.6","","-19.3","","62","","36","","17","","15.0","","101.72","","","","-22","",""
"-79.40","43.63","TORONTO ISLAND A","6158665","1995-01-28 10:00","1995","01","28","10:00","","-12.1","","-21.4","","46","","1","","9","","15.0","","101.68","","","","-17","",""
"-79.40","43.63","TORONTO ISLAND A","6158665","1995-01-28 11:00","1995","01","28","11:00","","-10.9","","-19.7","","48","","1","","7","","15.0","","101.65","","","","-15","",""
"-79.40","43.63","TORONTO ISLAND A","6158665","1995-01-28 12:00","1995","01","28","12:00","","-9.6","","-19.1","","46","","16","","7","","15.0","","101.62","","","","-14","",""
"-79.40","43.63","TORONTO ISLAND A","6158665","1995-01-28 13:00","1995","01","28","13:00","","-9.2","","-19.0","","45","","11","","6","","15.0","","101.48","","","","-13","",""
"-79.40","43.63","TORONTO ISLAND A","6158665","1995-01-28 14:00","1995","01","28","14:00","","-8.0","","-16.9","","49","","7","","15","","15.0","","101.41","","","","-14","",""
"-79.40","43.63","TORONTO ISLAND A","6158665","1995-01-28 15:00","1995","01","28","15:00","","-7.4","","-14.8","","55","","3","","13","","15.0","","101.38","","","","-13","",""
"-79.40","43.63","TORONTO ISLAND A","6158665","1995-01-28 16:00","1995","01","28","16:00","","-7.7","","-14.6","","58","","36","","17","","15.0","","101.38","","","","-14","",""
"-79.40","43.63","TORONTO ISLAND A","6158665","1995-01-28 17:00","1995","01","28","17:00","","-8.8","","-14.8","","62","","36","","17","","15.0","","101.45","","","","-16","",""
"-79.40","43.63","TORONTO ISLAND A","6158665","1995-01-28 18:00","1995","01","28","18:00","","-9.0","","-15.0","","62","","1","","15","","15.0","","101.51","","","","-16","","NA"
"-79.40","43.63","TORONTO ISLAND A","6158665","1995-01-28 19:00","1995","01","28","19:00","","-9.0","","-14.5","","64","","36","","15","","15.0","","101.58","","","","-16","",""
"-79.40","43.63","TORONTO ISLAND A","6158665","1995-01-28 20:00","1995","01","28","20:00","","-8.8","","-14.1","","65","","36","","15","","15.0","","101.62","","","","-15","",""
"-79.40","43.63","TORONTO ISLAND A","6158665","1995-01-28 21:00","1995","01","28","21:00","","-8.7","","-14.1","","65","","35","","11","","15.0","","101.62","","","","-14","",""
"-79.40","43.63","TORONTO ISLAND A","6158665","1995-01-28 22:00","1995","01","28","22:00","","-8.8","","-13.8","","67","","5","","15","","15.0","","101.65","","","","-15","",""
"-79.40","43.63","TORONTO ISLAND A","6158665","1995-01-28 23:00","1995","01","28","23:00","","-8.1","","-13.8","","63","","4","","19","","15.0","","101.65","","","","-15","",""
"-79.40","43.63","TORONTO ISLAND A","6158665","1995-01-29 00:00","1995","01","29","00:00","","-8.4","","-13.6","","66","","3","","17","","15.0","","101.62","","","","-15","",""
"-79.40","43.63","TORONTO ISLAND A","6158665","1995-01-29 01:00","1995","01","29","01:00","","-8.4","","-13.4","","67","","3","","22","","15.0","","101.62","","","","-16","",""
"-79.40","43.63","TORONTO ISLAND A","6158665","1995-01-29 02:00","1995","01","29","02:00","","-8.8","","-13.4","","69","","3","","20","","15.0","","101.62","","","","-16","",""
"-79.40","43.63","TORONTO ISLAND A","6158665","1995-01-29 03:00","1995","01","29","03:00","","-8.8","","-12.5","","75","","3","","19","","15.0","","101.62","","","","-16","",""
"-79.40","43.63","TORONTO ISLAND A","6158665","1995-01-29 04:00","1995","01","29","04:00","","-8.6","","-12.1","","76","","1","","11","","15.0","","101.62","","","","-14","",""
"-79.40","43.63","TORONTO ISLAND A","6158665","1995-01-29 05:00","1995","01","29","05:00","","-8.7","","-12.4","","75","","36","","13","","15.0","","101.62","","","","-15","",""
"-79.40","43.63","TORONTO ISLAND A","6158665","1995-01-29 06:00","1995","01","29","06:00","","-8.5","","-12.2","","75","","36","","11","","15.0","","101.65","","","","-14","",""
"-79.40","43.63","TORONTO ISLAND A","6158665","1995-01-29 07:00","1995","01","29","07:00","","-8.0","","-11.6","","75","","35","","9","","15.0","","101.65","","","","-13","",""
"-79.40","43.63","TORONTO ISLAND A","6158665","1995-01-29 08:00","1995","01","29","08:00","","-7.7","","-10.6","","80","","36","","4","","15.0","","101.72","","","","-10","",""
"-79.40","43.63","TORONTO ISLAND A","6158665","1995-01-29 09:00","1995","01","29","09:00","","-7.0","","-9.9","","80","","3","","11","","15.0","","101.72","","","","-12","",""
"-79.40","43.63","TORONTO ISLAND A","6158665","1995-01-29 10:00","1995","01","29","10:00","","-6.8","","-9.7","","80","","5","","13","","15.0","","101.75","","","","-12","",""
"-79.40","43.63","TORONTO ISLAND A","6158665","1995-01-29 11:00","1995","01","29","11:00","","-5.5","","-8.6","","79","","4","","13","","15.0","","101.75","","","","-11","",""
"-79.40","43.63","TORONTO ISLAND A","6158665","1995-01-29 12:00","1995","01","29","12:00","","-4.9","","-8.1","","78","","5","","9","","15.0","","101.68","","","","-9","",""
"-79.40","43.63","TORONTO ISLAND A","6158665","1995-01-29 13:00","1995","01","29","13:00","","-4.5","","-7.3","","81","","7","","11","","15.0","","101.62","","","","-9","",""
"-79.40","43.63","TORONTO ISLAND A","6158665","1995-01-29 14:00","1995","01","29","14:00","","-4.3","","-6.7","","83","","6","","9","","15.0","","101.55","","","","-8","",""
"-79.40","43.63","TORONTO ISLAND A","6158665","1995-01-29 15:00","1995","01","29","15:00","","-4.2","","-6.7","","83","","4","","13","","15.0","","101.48","","","","-9","",""
"-79.40","43.63","TORONTO ISLAND A","6158665","1995-01-29 16:00","1995","01","29","16:00","","-4.3","","-6.5","","85","","5","","15","","15.0","","101.45","","","","-10","",""
"-79.40","43.63","TORONTO ISLAND A","6158665","1995-01-29 17:00","1995","01","29","17:00","","-4.0","","-6.4","","83","","3","","7","","15.0","","101.41","","","","-7","",""
"-79.40","43.63","TORONTO ISLAND A","6158665","1995-01-29 18:00","1995","01","29","18:00","","-4.2","","-6.0","","87","","3","","7","","15.0","","101.35","","","","-7","",""
"-79.40","43.63","TORONTO ISLAND A","6158665","1995-01-29 19:00","1995","01","29","19:00","","-4.1","","-6.0","","87","","4","","7","","15.0","","101.31","","","","-7","",""
"-79.40","43.63","TORONTO ISLAND A","6158665","1995-01-29 20:00","1995","01","29","20:00","","-4.1","","-5.6","","89","","4","","4","","15.0","","101.28","","","","-6","",""
"-79.40","43.63","TORONTO ISLAND A","6158665","1995-01-29 21:00","1995","01","29","21:00","","-3.1","","-5.0","","87","","35","","6","","15.0","","101.21","","","","-6","",""
"-79.40","43.63","TORONTO ISLAND A","6158665","1995-01-29 22:00","1995","01","29","22:00","","-2.9","","-5.1","","85","","35","","11","","15.0","","101.18","","","","-7","",""
"-79.40","43.63","TORONTO ISLAND A","6158665","1995-01-29 23:00","1995","01","29","23:00","","-3.9","","-5.5","","89","","31","","9","","15.0","","101.11","","","","-8","",""
"-79.40","43.63","TORONTO ISLAND A","6158665","1995-01-30 00:00","1995","01","30","00:00","","-4.3","","-6.2","","87","","34","","13","","15.0","","101.08","","","","-9","",""
"-79.40","43.63","TORONTO ISLAND A","6158665","1995-01-30 01:00","1995","01","30","01:00"
"-79.40","43.63","TORONTO ISLAND A","6158665","1995-01-30 02:00","1995","01","30","02:00","","-6.0","","-7.0","","93","","32","","9","","8.0","","101.08","","","","-10","","NA"
"-79.40","43.63","TORONTO ISLAND A","6158665","1995-01-30 03:00","1995","01","30","03:00","","-7.2","","-7.7","","96","","30","","6","","6.4","","101.04","","","","-10","",""
"-79.40","43.63","TORONTO ISLAND A","6158665","1995-01-30 04:00","1995","01","30","04:00","","-7.2","","-8.1","","93","","29","","6","","8.0","","101.01","","","","-10","",""
"-79.40","43.63","TORONTO ISLAND A","6158665","1995-01-30 05:00","1995","01","30","05:00","","-7.6","","-8.9","","90","","30","","7","","9.7","","100.94","","","","-11","",""
"-79.40","43.63","TORONTO ISLAND A","6158665","1995-01-30 06:00","1995","01","30","06:00","","-7.2","","-9.3","","85","","30","","7","","11.3","","100.94","","","","-11","",""
"-79.40","43.63","TORONTO ISLAND A","6158665","1995-01-30 07:00","1995","01","30","07:00","","-6.6","","-8.8","","84","","31","","6","","12.9","","100.91","","","","-10","",""
"-79.40","43.63","TORONTO ISLAND A","6158665","1995-01-30 08:00","1995","01","30","08:00","","-6.1","","-8.1","","86","","30","","7","","9.7","","100.91","","","","-9","",""
"-79.40","43.63","TORONTO ISLAND A","6158665","1995-01-30 09:00","1995","01","30","09:00","","-5.0","","-7.5","","83","","31","","7","","11.3","","100.88","","","","-8","",""
"-79.40","43.63","TORONTO ISLAND A","6158665","1995-01-30 10:00","1995","01","30","10:00","","-3.2","","-5.9","","82","","27","","9","","11.3","","100.84","","","","-7","",""
"-79.40","43.63","TORONTO ISLAND A","6158665","1995-01-30 11:00","1995","01","30","11:00","","-2.3","","-5.6","","78","","23","","11","","11.3","","100.81","","","","-6","",""
"-79.40","43.63","TORONTO ISLAND A","6158665","1995-01-30 12:00","1995","01","30","12:00"
"-79.40","43.63","TORONTO ISLAND A","6158665","1995-01-30 13:00","1995","01","30","13:00","","-0.3","","-4.1","","75","","20","","17","","15.0","","100.61","","","","-5","",""
"-79.40","43.63","TORONTO ISLAND A","6158665","1995-01-30 14:00","1995","01","30","14:00","","-0.1","","-4.1","","74","","19","","22","","15.0","","100.51","","","","-6","",""
"-79.40","43.63","TORONTO ISLAND A","6158665","1995-01-30 15:00","1995","01","30","15:00","","0.4","","-3.4","","76","","21","","24","","15.0","","100.44","","","","","",""
"-79.40","43.63","TORONTO ISLAND A","6158665","1995-01-30 16:00","1995","01","30","16:00","","0.7","","-2.4","","80","","23","","19","","15.0","","100.41","","","","","",""
"-79.40","43.63","TORONTO ISLAND A","6158665","1995-01-30 17:00","1995","01","30","17:00","","0.9","","-3.7","","71","","28","","17","","15.0","","100.37","","","","","",""
"-79.40","43.63","TORONTO ISLAND A","6158665","1995-01-30 18:00","1995","01","30","18:00","","0.7","","-3.1","","76","","27","","15","","15.0","","100.37","","","","","",""
"-79.40","43.63","TORONTO ISLAND A","6158665","1995-01-30 19:00","1995","01","30","19:00","","0.7","","-3.0","","76","","28","","13","","15.0","","100.34","","","","","",""
"-79.40","43.63","TORONTO ISLAND A","6158665","1995-01-30 20:00","1995","01","30","20:00","","0.4","","-3.1","","77","","27","","20","","15.0","","100.27","","","","","",""
"-79.40","43.63","TORONTO ISLAND A","6158665","1995-01-30 21:00","1995","01","30","21:00","","0.3","","-2.8","","80","","27","","32","","15.0","","100.20","","","","","",""
"-79.40","43.63","TORONTO ISLAND A","6158665","1995-01-30 22:00","1995","01","30","22:00","","-0.1","","-3.1","","80","","27","","20","","15.0","","100.17","","","","-5","",""
"-79.40","43.63","TORONTO ISLAND A","6158665","1995-01-30 23:00","1995","01","30","23:00","","-0.2","","-3.2","","80","","26","","30","","15.0","","100.14","","","","-7","",""
"-79.40","43.63","TORONTO ISLAND A","6158665","1995-01-31 00:00","1995","01","31","00:00","","-0.3","","-4.2","","75","","25","","20","","15.0","","100.10","","","","-6","",""
"-79.40","43.63","TORONTO ISLAND A","6158665","1995-01-31 01:00","1995","01","31","01:00","","-0.6","","-3.7","","80","","24","","30","","15.0","","100.04","","","","-7","",""
"-79.40","43.63","TORONTO ISLAND A","6158665","1995-01-31 02:00","1995","01","31","02:00","","-1.3","","-4.7","","78","","24","","35","","15.0","","99.97","","","","-9","",""
"-79.40","43.63","TORONTO ISLAND A","6158665","1995-01-31 03:00","1995","01","31","03:00","","-1.7","","-4.5","","81","","23","","35","","15.0","","99.90","","","","-9","",""
"-79.40","43.63","TORONTO ISLAND A","6158665","1995-01-31 04:00","1995","01","31","04:00","","-2.1","","-4.9","","81","","22","","32","","15.0","","99.83","","","","-9","",""
"-79.40","43.63","TORONTO ISLAND A","6158665","1995-01-31 05:00","1995","01","31","05:00","","-2.1","","-5.6","","77","","24","","37","","15.0","","99.73","","","","-10","",""
"-79.40","43.63","TORONTO ISLAND A","6158665","1995-01-31 06:00","1995","01","31","06:00","","-1.5","","-4.9","","78","","22","","43","","15.0","","99.60","","","","-10","",""
"-79.40","43.63","TORONTO ISLAND A","6158665","1995-01-31 07:00","1995","01","31","07:00","","-1.0","","-3.7","","82","","23","","44","","15.0","","99.53","","","","-9","",""
"-79.40","43.63","TORONTO ISLAND A","6158665","1995-01-31 08:00","1995","01","31","08:00","","-0.8","","-4.0","","79","","23","","41","","15.0","","99.46","","","","-9","",""
"-79.40","43.63","TORONTO ISLAND A","6158665","1995-01-31 09:00","1995","01","31","09:00","","-0.2","","-3.8","","77","","23","","44","","15.0","","99.40","","","","-8","",""
"-79.40","43.63","TORONTO ISLAND A","6158665","1995-01-31 10:00","1995","01","31","10:00","","-0.1","","-3.5","","78","","24","","50","","15.0","","99.36","","","","-8","",""
"-79.40","43.63","TORONTO ISLAND A","6158665","1995-01-31 11:00","1995","01","31","11:00","","-0.1","","-3.0","","81","","22","","54","","15.0","","99.26","","","","-9","",""
"-79.40","43.63","TORONTO ISLAND A","6158665","1995-01-31 12:00","1995","01","31","12:00","","-0.4","","-3.0","","83","","23","","41","","15.0","","99.26","","","","-8","",""
"-79.40","43.63","TORONTO ISLAND A","6158665","1995-01-31 13:00","1995","01","31","13:00","","-0.3","","-3.4","","80","","24","","46","","15.0","","99.16","","","","-8","",""
"-79.40","43.63","TORONTO ISLAND A","6158665","1995-01-31 14:00","1995","01","31","14:00","","-0.3","","-3.7","","78","","25","","50","","12.9","","99.09","","","","-9","",""
"-79.40","43.63","TORONTO ISLAND A","6158665","1995-01-31 15:00","1995","01","31","15:00","","-0.5","","-2.7","","85","","25","","43","","12.9","","99.09","","","","-8","",""
"-79.40","43.63","TORONTO ISLAND A","6158665","1995-01-31 16:00","1995","01","31","16:00","","-0.5","","-2.5","","86","","23","","48","","6.4","","99.09","","","","-9","","Snow"
"-79.40","43.63","TORONTO ISLAND A","6158665","1995-01-31 17:00","1995","01","31","17:00"
"-79.40","43.63","TORONTO ISLAND A","6158665","1995-01-31 18:00","1995","01","31","18:00","","-0.2","","-2.2","","86","","24","","43","","9.7","","99.09","","","","-8","",""
"-79.40","43.63","TORONTO ISLAND A","6158665","1995-01-31 19:00","1995","01","31","19:00","","0.0","","-1.0","","93","","24","","46","","9.7","","99.03","","","","-8","","NA"
"-79.40","43.63","TORONTO ISLAND A","6158665","1995-01-31 20:00","1995","01","31","20:00"
"-79.40","43.63","TORONTO ISLAND A","6158665","1995-01-31 21:00","1995","01","31","21:00","","1.0","","-1.0","","86","","24","","33","","8.0","","99.06","","","","","","NA"
"-79.40","43.63","TORONTO ISLAND A","6158665","1995-01-31 22:00","1995","01","31","22:00","","1.6","","-0.4","","87","","24","","33","","9.7","","98.99","","","","","",""
"-79.40","43.63","TORONTO ISLAND A","6158665","1995-01-31 23:00","1995","01","31","23:00","","2.0","","-0.9","","81","","25","","28","","9.7","","98.99","","","","","",""
