"Longitude (x)","Latitude (y)","Station Name","Climate ID","Date/Time (LST)","Year","Month","Day","Time (LST)","Flag","Temp (°C)","Temp Flag","Dew Point Temp (°C)","Dew Point Temp Flag","Rel Hum (%)","Rel Hum Flag","Wind Dir (10s deg)","Wind Dir Flag","Wind Spd (km/h)","Wind Spd Flag","Visibility (km)","Visibility Flag","Stn Press (kPa)","Stn Press Flag","Hmdx","Hmdx Flag","Wind Chill","Wind Chill Flag","Weather"
"-79.40","43.63","TORONTO ISLAND A","6158665","1990-09-01 00:00","1990","09","01","00:00"
"-79.40","43.63","TORONTO ISLAND A","6158665","1990-09-01 01:00","1990","09","01","01:00"
"-79.40","43.63","TORONTO ISLAND A","6158665","1990-09-01 02:00","1990","09","01","02:00","","","","","","","","","","0","","","","","","","","","","NA"
"-79.40","43.63","TORONTO ISLAND A","6158665","1990-09-01 03:00","1990","09","01","03:00","","","","","","","","32","","2","","","","","","","","","","NA"
"-79.40","43.63","TORONTO ISLAND A","6158665","1990-09-01 04:00","1990","09","01","04:00","","","","","","","","32","","4","","","","","","","","","","NA"
"-79.40","43.63","TORONTO ISLAND A","6158665","1990-09-01 05:00","1990","09","01","05:00","","","","","","","","","","0","","","","","","","","","","NA"
"-79.40","43.63","TORONTO ISLAND A","6158665","1990-09-01 06:00","1990","09","01","06:00","","18.3","","16.2","","88","","23","","2","","11.3","","101.09","","","","","","Mostly Cloudy"
"-79.40","43.63","TORONTO ISLAND A","6158665","1990-09-01 07:00","1990","09","01","07:00","","19.6","","15.0","","75","","","","0","","16.1","","101.12","","","","","","Mostly Cloudy"
"-79.40","43.63","TORONTO ISLAND A","6158665","1990-09-01 08:00","1990","09","01","08:00","","20.4","","15.3","","73","","25","","2","","12.9","","101.09","","25","","","","Mostly Cloudy"
"-79.40","43.63","TORONTO ISLAND A","6158665","1990-09-01 09:00","1990","09","01","09:00","","20.3","","16.1","","77","","","","0","","12.9","","101.05","","25","","","","Mostly Cloudy"
"-79.40","43.63","TORONTO ISLAND A","6158665","1990-09-01 10:00","1990","09","01","10:00","","21.6","","17.8","","79","","22","","7","","12.9","","101.05","","27","","","","Mostly Cloudy"
"-79.40","43.63","TORONTO ISLAND A","6158665","1990-09-01 11:00","1990","09","01","11:00","","22.6","","18.3","","77","","21","","4","","12.9","","101.02","","29","","","","Mostly Cloudy"
"-79.40","43.63","TORONTO ISLAND A","6158665","1990-09-01 12:00","1990","09","01","12:00","","22.3","","18.6","","80","","20","","7","","12.9","","100.95","","29","","","","Mostly Cloudy"
"-79.40","43.63","TORONTO ISLAND A","6158665","1990-09-01 13:00","1990","09","01","13:00","","23.5","","19.5","","78","","23","","9","","12.9","","100.92","","31","","","","Mostly Cloudy"
"-79.40","43.63","TORONTO ISLAND A","6158665","1990-09-01 14:00","1990","09","01","14:00","","24.4","","20.0","","77","","19","","11","","12.9","","100.85","","32","","","","Mostly Cloudy"
"-79.40","43.63","TORONTO ISLAND A","6158665","1990-09-01 15:00","1990","09","01","15:00","","24.9","","20.1","","75","","19","","13","","12.9","","100.75","","33","","","","Mostly Cloudy"
"-79.40","43.63","TORONTO ISLAND A","6158665","1990-09-01 16:00","1990","09","01","16:00","","24.1","","20.3","","79","","20","","19","","12.9","","100.75","","32","","","","Mostly Cloudy"
"-79.40","43.63","TORONTO ISLAND A","6158665","1990-09-01 17:00","1990","09","01","17:00","","23.8","","20.3","","81","","21","","20","","12.9","","100.72","","32","","","","Mainly Clear"
"-79.40","43.63","TORONTO ISLAND A","6158665","1990-09-01 18:00","1990","09","01","18:00","","23.4","","20.2","","82","","21","","19","","11.3","","100.68","","31","","","","Mainly Clear"
"-79.40","43.63","TORONTO ISLAND A","6158665","1990-09-01 19:00","1990","09","01","19:00","","22.7","","20.3","","86","","25","","11","","11.3","","100.68","","31","","","","Mainly Clear"
"-79.40","43.63","TORONTO ISLAND A","6158665","1990-09-01 20:00","1990","09","01","20:00","","22.6","","20.0","","85","","25","","11","","11.3","","100.72","","30","","","","Mainly Clear"
"-79.40","43.63","TORONTO ISLAND A","6158665","1990-09-01 21:00","1990","09","01","21:00","","22.7","","19.9","","84","","26","","11","","11.3","","100.72","","30","","","","Mostly Cloudy"
"-79.40","43.63","TORONTO ISLAND A","6158665","1990-09-01 22:00","1990","09","01","22:00","","22.1","","19.7","","86","","25","","9","","9.7","","100.72","","29","","","","Haze"
"-79.40","43.63","TORONTO ISLAND A","6158665","1990-09-01 23:00","1990","09","01","23:00","","","","","","","","25","","7","","","","","","","","","","NA"
"-79.40","43.63","TORONTO ISLAND A","6158665","1990-09-02 00:00","1990","09","02","00:00","","","","","","","","25","","6","","","","","","","","","","NA"
"-79.40","43.63","TORONTO ISLAND A","6158665","1990-09-02 01:00","1990","09","02","01:00","","","","","","","","24","","11","","","","","","","","","","NA"
"-79.40","43.63","TORONTO ISLAND A","6158665","1990-09-02 02:00","1990","09","02","02:00","","","","","","","","25","","7","","","","","","","","","","NA"
"-79.40","43.63","TORONTO ISLAND A","6158665","1990-09-02 03:00","1990","09","02","03:00","","","","","","","","25","","6","","","","","","","","","","NA"
"-79.40","43.63","TORONTO ISLAND A","6158665","1990-09-02 04:00","1990","09","02","04:00","","","","","","","","24","","11","","","","","","","","","","NA"
"-79.40","43.63","TORONTO ISLAND A","6158665","1990-09-02 05:00","1990","09","02","05:00","","","","","","","","25","","11","","","","","","","","","","NA"
"-79.40","43.63","TORONTO ISLAND A","6158665","1990-09-02 06:00","1990","09","02","06:00","","20.8","","15.8","","73","","33","","4","","16.1","","100.72","","25","","","","Clear"
"-79.40","43.63","TORONTO ISLAND A","6158665","1990-09-02 07:00","1990","09","02","07:00","","21.2","","16.1","","73","","28","","2","","16.1","","100.79","","26","","","","Clear"
"-79.40","43.63","TORONTO ISLAND A","6158665","1990-09-02 08:00","1990","09","02","08:00","","22.7","","14.3","","59","","30","","11","","24.1","","100.82","","26","","","","Clear"
"-79.40","43.63","TORONTO ISLAND A","6158665","1990-09-02 09:00","1990","09","02","09:00","","25.2","","12.4","","45","","31","","17","","25.0","","100.79","","28","","","","Clear"
"-79.40","43.63","TORONTO ISLAND A","6158665","1990-09-02 10:00","1990","09","02","10:00","","26.5","","12.9","","43","","32","","13","","25.0","","100.82","","29","","","","Clear"
"-79.40","43.63","TORONTO ISLAND A","6158665","1990-09-02 11:00","1990","09","02","11:00","","25.2","","17.6","","63","","21","","13","","25.0","","100.82","","31","","","","Clear"
"-79.40","43.63","TORONTO ISLAND A","6158665","1990-09-02 12:00","1990","09","02","12:00","","27.1","","13.6","","43","","1","","11","","25.0","","100.82","","30","","","","Mainly Clear"
"-79.40","43.63","TORONTO ISLAND A","6158665","1990-09-02 13:00","1990","09","02","13:00","","27.9","","13.9","","42","","30","","17","","25.0","","100.82","","31","","","","Mostly Cloudy"
"-79.40","43.63","TORONTO ISLAND A","6158665","1990-09-02 14:00","1990","09","02","14:00","","25.4","","16.7","","59","","10","","6","","25.0","","100.82","","30","","","","Mostly Cloudy"
"-79.40","43.63","TORONTO ISLAND A","6158665","1990-09-02 15:00","1990","09","02","15:00","","27.8","","15.2","","46","","34","","11","","19.3","","100.82","","32","","","","Mainly Clear"
"-79.40","43.63","TORONTO ISLAND A","6158665","1990-09-02 16:00","1990","09","02","16:00","","25.8","","15.5","","53","","1","","24","","16.1","","100.85","","30","","","","Mostly Cloudy"
"-79.40","43.63","TORONTO ISLAND A","6158665","1990-09-02 17:00","1990","09","02","17:00","","25.2","","15.8","","56","","1","","15","","19.3","","100.92","","30","","","","Mostly Cloudy"
"-79.40","43.63","TORONTO ISLAND A","6158665","1990-09-02 18:00","1990","09","02","18:00","","24.5","","14.5","","54","","1","","19","","24.1","","100.92","","28","","","","Mostly Cloudy"
"-79.40","43.63","TORONTO ISLAND A","6158665","1990-09-02 19:00","1990","09","02","19:00","","24.0","","14.7","","56","","1","","9","","24.1","","100.95","","28","","","","Mainly Clear"
"-79.40","43.63","TORONTO ISLAND A","6158665","1990-09-02 20:00","1990","09","02","20:00","","22.6","","15.3","","63","","34","","19","","25.0","","101.05","","27","","","","Mostly Cloudy"
"-79.40","43.63","TORONTO ISLAND A","6158665","1990-09-02 21:00","1990","09","02","21:00","","21.7","","14.8","","65","","34","","11","","25.0","","101.12","","26","","","","Mostly Cloudy"
"-79.40","43.63","TORONTO ISLAND A","6158665","1990-09-02 22:00","1990","09","02","22:00","","21.0","","13.9","","64","","1","","15","","25.0","","101.19","","","","","","Mainly Clear"
"-79.40","43.63","TORONTO ISLAND A","6158665","1990-09-02 23:00","1990","09","02","23:00","","","","","","","","1","","20","","","","","","","","","","NA"
"-79.40","43.63","TORONTO ISLAND A","6158665","1990-09-03 00:00","1990","09","03","00:00","","","","","","","","3","","17","","","","","","","","","","NA"
"-79.40","43.63","TORONTO ISLAND A","6158665","1990-09-03 01:00","1990","09","03","01:00","","","","","","","","3","","20","","","","","","","","","","NA"
"-79.40","43.63","TORONTO ISLAND A","6158665","1990-09-03 02:00","1990","09","03","02:00","","","","","","","","3","","22","","","","","","","","","","NA"
"-79.40","43.63","TORONTO ISLAND A","6158665","1990-09-03 03:00","1990","09","03","03:00","","","","","","","","4","","19","","","","","","","","","","NA"
"-79.40","43.63","TORONTO ISLAND A","6158665","1990-09-03 04:00","1990","09","03","04:00","","","","","","","","1","","15","","","","","","","","","","NA"
"-79.40","43.63","TORONTO ISLAND A","6158665","1990-09-03 05:00","1990","09","03","05:00","","","","","","","","1","","15","","","","","","","","","","NA"
"-79.40","43.63","TORONTO ISLAND A","6158665","1990-09-03 06:00","1990","09","03","06:00","","13.5","","7.7","","68","","36","","11","","25.0","","101.69","","","","","","Clear"
"-79.40","43.63","TORONTO ISLAND A","6158665","1990-09-03 07:00","1990","09","03","07:00","","13.5","","7.9","","69","","36","","13","","25.0","","101.79","","","","","","Clear"
"-79.40","43.63","TORONTO ISLAND A","6158665","1990-09-03 08:00","1990","09","03","08:00","","15.4","","7.7","","60","","4","","17","","25.0","","101.79","","","","","","Clear"
"-79.40","43.63","TORONTO ISLAND A","6158665","1990-09-03 09:00","1990","09","03","09:00","","16.3","","7.7","","57","","7","","24","","25.0","","101.83","","","","","","Clear"
"-79.40","43.63","TORONTO ISLAND A","6158665","1990-09-03 10:00","1990","09","03","10:00","","17.1","","7.9","","55","","9","","22","","25.0","","101.86","","","","","","Clear"
"-79.40","43.63","TORONTO ISLAND A","6158665","1990-09-03 11:00","1990","09","03","11:00","","17.2","","7.9","","54","","9","","22","","25.0","","101.86","","","","","","Clear"
"-79.40","43.63","TORONTO ISLAND A","6158665","1990-09-03 12:00","1990","09","03","12:00","","17.8","","8.4","","54","","10","","17","","25.0","","101.89","","","","","","Clear"
"-79.40","43.63","TORONTO ISLAND A","6158665","1990-09-03 13:00","1990","09","03","13:00","","18.2","","8.8","","54","","10","","17","","25.0","","101.86","","","","","","Clear"
"-79.40","43.63","TORONTO ISLAND A","6158665","1990-09-03 14:00","1990","09","03","14:00","","18.2","","9.6","","57","","13","","15","","25.0","","101.86","","","","","","Clear"
"-79.40","43.63","TORONTO ISLAND A","6158665","1990-09-03 15:00","1990","09","03","15:00","","18.4","","9.1","","55","","12","","15","","25.0","","101.86","","","","","","Clear"
"-79.40","43.63","TORONTO ISLAND A","6158665","1990-09-03 16:00","1990","09","03","16:00","","18.1","","9.5","","57","","14","","13","","25.0","","101.83","","","","","","Mainly Clear"
"-79.40","43.63","TORONTO ISLAND A","6158665","1990-09-03 17:00","1990","09","03","17:00","","18.0","","10.0","","60","","14","","7","","25.0","","101.79","","","","","","Mainly Clear"
"-79.40","43.63","TORONTO ISLAND A","6158665","1990-09-03 18:00","1990","09","03","18:00","","17.8","","10.3","","62","","10","","9","","25.0","","101.76","","","","","","Mainly Clear"
"-79.40","43.63","TORONTO ISLAND A","6158665","1990-09-03 19:00","1990","09","03","19:00","","16.7","","10.4","","66","","10","","6","","25.0","","101.76","","","","","","Mainly Clear"
"-79.40","43.63","TORONTO ISLAND A","6158665","1990-09-03 20:00","1990","09","03","20:00","","16.7","","10.7","","68","","10","","6","","25.0","","101.86","","","","","","Clear"
"-79.40","43.63","TORONTO ISLAND A","6158665","1990-09-03 21:00","1990","09","03","21:00","","16.9","","10.9","","68","","","","0","","25.0","","101.89","","","","","","Clear"
"-79.40","43.63","TORONTO ISLAND A","6158665","1990-09-03 22:00","1990","09","03","22:00","","16.2","","11.2","","72","","8","","6","","25.0","","101.86","","","","","","Clear"
"-79.40","43.63","TORONTO ISLAND A","6158665","1990-09-03 23:00","1990","09","03","23:00","","","","","","","","9","","7","","","","","","","","","","NA"
"-79.40","43.63","TORONTO ISLAND A","6158665","1990-09-04 00:00","1990","09","04","00:00","","","","","","","","8","","4","","","","","","","","","","NA"
"-79.40","43.63","TORONTO ISLAND A","6158665","1990-09-04 01:00","1990","09","04","01:00","","","","","","","","11","","9","","","","","","","","","","NA"
"-79.40","43.63","TORONTO ISLAND A","6158665","1990-09-04 02:00","1990","09","04","02:00","","","","","","","","14","","11","","","","","","","","","","NA"
"-79.40","43.63","TORONTO ISLAND A","6158665","1990-09-04 03:00","1990","09","04","03:00","","","","","","","","13","","7","","","","","","","","","","NA"
"-79.40","43.63","TORONTO ISLAND A","6158665","1990-09-04 04:00","1990","09","04","04:00","","","","","","","","12","","6","","","","","","","","","","NA"
"-79.40","43.63","TORONTO ISLAND A","6158665","1990-09-04 05:00","1990","09","04","05:00","","","","","","","","11","","4","","","","","","","","","","NA"
"-79.40","43.63","TORONTO ISLAND A","6158665","1990-09-04 06:00","1990","09","04","06:00","","16.3","","12.3","","77","","10","","6","","25.0","","101.73","","","","","","Mostly Cloudy"
"-79.40","43.63","TORONTO ISLAND A","6158665","1990-09-04 07:00","1990","09","04","07:00","","17.0","","12.9","","77","","","","0","","24.1","","101.76","","","","","","Mostly Cloudy"
"-79.40","43.63","TORONTO ISLAND A","6158665","1990-09-04 08:00","1990","09","04","08:00","","18.6","","13.9","","74","","9","","4","","24.1","","101.73","","","","","","Mostly Cloudy"
"-79.40","43.63","TORONTO ISLAND A","6158665","1990-09-04 09:00","1990","09","04","09:00","","19.6","","14.5","","72","","","","0","","24.1","","101.69","","","","","","Mostly Cloudy"
"-79.40","43.63","TORONTO ISLAND A","6158665","1990-09-04 10:00","1990","09","04","10:00","","19.9","","14.5","","71","","20","","6","","19.3","","101.69","","","","","","Mostly Cloudy"
"-79.40","43.63","TORONTO ISLAND A","6158665","1990-09-04 11:00","1990","09","04","11:00","","20.1","","14.6","","71","","19","","11","","16.1","","101.59","","","","","","Cloudy"
"-79.40","43.63","TORONTO ISLAND A","6158665","1990-09-04 12:00","1990","09","04","12:00","","20.0","","14.8","","72","","19","","7","","24.1","","101.56","","","","","","Cloudy"
"-79.40","43.63","TORONTO ISLAND A","6158665","1990-09-04 13:00","1990","09","04","13:00","","20.6","","15.3","","72","","22","","9","","24.1","","101.49","","25","","","","Mostly Cloudy"
"-79.40","43.63","TORONTO ISLAND A","6158665","1990-09-04 14:00","1990","09","04","14:00","","22.0","","16.1","","69","","18","","6","","24.1","","101.42","","27","","","","Mostly Cloudy"
"-79.40","43.63","TORONTO ISLAND A","6158665","1990-09-04 15:00","1990","09","04","15:00","","22.3","","16.3","","69","","16","","15","","19.3","","101.36","","27","","","","Cloudy"
"-79.40","43.63","TORONTO ISLAND A","6158665","1990-09-04 16:00","1990","09","04","16:00","","21.6","","16.9","","75","","11","","9","","19.3","","101.29","","27","","","","Cloudy"
"-79.40","43.63","TORONTO ISLAND A","6158665","1990-09-04 17:00","1990","09","04","17:00","","21.2","","17.6","","80","","10","","9","","19.3","","101.22","","27","","","","Cloudy"
"-79.40","43.63","TORONTO ISLAND A","6158665","1990-09-04 18:00","1990","09","04","18:00","","22.2","","18.5","","79","","18","","9","","12.9","","101.09","","29","","","","Cloudy"
"-79.40","43.63","TORONTO ISLAND A","6158665","1990-09-04 19:00","1990","09","04","19:00","","21.7","","19.3","","86","","26","","4","","12.9","","101.12","","29","","","","Cloudy"
"-79.40","43.63","TORONTO ISLAND A","6158665","1990-09-04 20:00","1990","09","04","20:00","","22.0","","19.0","","83","","21","","15","","12.9","","101.12","","29","","","","Mostly Cloudy"
"-79.40","43.63","TORONTO ISLAND A","6158665","1990-09-04 21:00","1990","09","04","21:00","","21.8","","17.2","","75","","23","","15","","12.9","","101.09","","27","","","","Mostly Cloudy"
"-79.40","43.63","TORONTO ISLAND A","6158665","1990-09-04 22:00","1990","09","04","22:00","","21.2","","16.2","","73","","23","","15","","16.1","","101.09","","26","","","","Mostly Cloudy"
"-79.40","43.63","TORONTO ISLAND A","6158665","1990-09-04 23:00","1990","09","04","23:00","","","","","","","","22","","6","","","","","","","","","","NA"
"-79.40","43.63","TORONTO ISLAND A","6158665","1990-09-05 00:00","1990","09","05","00:00","","","","","","","","21","","11","","","","","","","","","","NA"
"-79.40","43.63","TORONTO ISLAND A","6158665","1990-09-05 01:00","1990","09","05","01:00","","","","","","","","21","","13","","","","","","","","","","NA"
"-79.40","43.63","TORONTO ISLAND A","6158665","1990-09-05 02:00","1990","09","05","02:00","","","","","","","","21","","17","","","","","","","","","","NA"
"-79.40","43.63","TORONTO ISLAND A","6158665","1990-09-05 03:00","1990","09","05","03:00","","","","","","","","21","","13","","","","","","","","","","NA"
"-79.40","43.63","TORONTO ISLAND A","6158665","1990-09-05 04:00","1990","09","05","04:00","","","","","","","","","","0","","","","","","","","","","NA"
"-79.40","43.63","TORONTO ISLAND A","6158665","1990-09-05 05:00","1990","09","05","05:00","","","","","","","","","","0","","","","","","","","","","NA"
"-79.40","43.63","TORONTO ISLAND A","6158665","1990-09-05 06:00","1990","09","05","06:00","","20.7","","19.5","","93","","","","0","","4.8","","100.68","","28","","","","Fog"
"-79.40","43.63","TORONTO ISLAND A","6158665","1990-09-05 07:00","1990","09","05","07:00","","20.9","","19.5","","92","","24","","6","","6.4","","100.75","","28","","","","Fog"
"-79.40","43.63","TORONTO ISLAND A","6158665","1990-09-05 08:00","1990","09","05","08:00","","21.2","","18.6","","85","","27","","6","","6.4","","100.79","","28","","","","Fog"
"-79.40","43.63","TORONTO ISLAND A","6158665","1990-09-05 09:00","1990","09","05","09:00","","22.9","","19.2","","80","","25","","6","","4.8","","100.82","","30","","","","Haze"
"-79.40","43.63","TORONTO ISLAND A","6158665","1990-09-05 10:00","1990","09","05","10:00","","23.1","","18.9","","77","","1","","17","","8.0","","100.82","","30","","","","Haze"
"-79.40","43.63","TORONTO ISLAND A","6158665","1990-09-05 11:00","1990","09","05","11:00","","22.9","","19.0","","79","","2","","11","","8.0","","100.82","","30","","","","Haze"
"-79.40","43.63","TORONTO ISLAND A","6158665","1990-09-05 12:00","1990","09","05","12:00","","24.9","","19.5","","72","","","","0","","11.3","","100.75","","32","","","","Mostly Cloudy"
"-79.40","43.63","TORONTO ISLAND A","6158665","1990-09-05 13:00","1990","09","05","13:00","","22.9","","19.2","","80","","17","","6","","11.3","","100.82","","30","","","","Cloudy"
"-79.40","43.63","TORONTO ISLAND A","6158665","1990-09-05 14:00","1990","09","05","14:00","","22.6","","19.4","","82","","18","","4","","8.0","","100.82","","30","","","","Haze"
"-79.40","43.63","TORONTO ISLAND A","6158665","1990-09-05 15:00","1990","09","05","15:00","","22.3","","19.6","","85","","18","","4","","8.0","","100.79","","30","","","","Haze"
"-79.40","43.63","TORONTO ISLAND A","6158665","1990-09-05 16:00","1990","09","05","16:00","","23.5","","19.7","","79","","19","","4","","8.0","","100.79","","31","","","","Haze"
"-79.40","43.63","TORONTO ISLAND A","6158665","1990-09-05 17:00","1990","09","05","17:00","","22.7","","20.3","","86","","18","","7","","8.0","","100.75","","31","","","","Haze"
"-79.40","43.63","TORONTO ISLAND A","6158665","1990-09-05 18:00","1990","09","05","18:00","","21.8","","19.2","","85","","16","","4","","8.0","","100.79","","29","","","","Haze"
"-79.40","43.63","TORONTO ISLAND A","6158665","1990-09-05 19:00","1990","09","05","19:00","","21.2","","19.5","","90","","","","0","","4.0","","100.82","","28","","","","Fog"
"-79.40","43.63","TORONTO ISLAND A","6158665","1990-09-05 20:00","1990","09","05","20:00","","20.7","","19.5","","93","","","","0","","3.6","","100.82","","28","","","","Fog"
"-79.40","43.63","TORONTO ISLAND A","6158665","1990-09-05 21:00","1990","09","05","21:00","","20.6","","19.5","","93","","","","0","","3.6","","100.82","","28","","","","Fog"
"-79.40","43.63","TORONTO ISLAND A","6158665","1990-09-05 22:00","1990","09","05","22:00","","19.7","","18.9","","95","","","","0","","3.2","","100.82","","","","","","Fog"
"-79.40","43.63","TORONTO ISLAND A","6158665","1990-09-05 23:00","1990","09","05","23:00","","","","","","","","13","","4","","","","","","","","","","NA"
"-79.40","43.63","TORONTO ISLAND A","6158665","1990-09-06 00:00","1990","09","06","00:00","","","","","","","","","","0","","","","","","","","","","NA"
"-79.40","43.63","TORONTO ISLAND A","6158665","1990-09-06 01:00","1990","09","06","01:00","","","","","","","","","","0","","","","","","","","","","NA"
"-79.40","43.63","TORONTO ISLAND A","6158665","1990-09-06 02:00","1990","09","06","02:00","","","","","","","","","","0","","","","","","","","","","NA"
"-79.40","43.63","TORONTO ISLAND A","6158665","1990-09-06 03:00","1990","09","06","03:00","","","","","","","","","","0","","","","","","","","","","NA"
"-79.40","43.63","TORONTO ISLAND A","6158665","1990-09-06 04:00","1990","09","06","04:00","","","","","","","","","","0","","","","","","","","","","NA"
"-79.40","43.63","TORONTO ISLAND A","6158665","1990-09-06 05:00","1990","09","06","05:00","","","","","","","","","","0","","","","","","","","","","NA"
"-79.40","43.63","TORONTO ISLAND A","6158665","1990-09-06 06:00","1990","09","06","06:00","","19.7","","19.3","","97","","8","","4","","0.8","","100.62","","","","","","Fog"
"-79.40","43.63","TORONTO ISLAND A","6158665","1990-09-06 07:00","1990","09","06","07:00","","20.2","","19.6","","96","","","","0","","2.0","","100.58","","27","","","","Fog"
"-79.40","43.63","TORONTO ISLAND A","6158665","1990-09-06 08:00","1990","09","06","08:00","","20.8","","19.1","","90","","","","0","","1.6","","100.58","","28","","","","Fog"
"-79.40","43.63","TORONTO ISLAND A","6158665","1990-09-06 09:00","1990","09","06","09:00","","20.7","","19.1","","91","","27","","11","","2.4","","100.62","","28","","","","Fog"
"-79.40","43.63","TORONTO ISLAND A","6158665","1990-09-06 10:00","1990","09","06","10:00","","21.3","","19.6","","90","","22","","11","","1.2","","100.55","","29","","","","Fog"
"-79.40","43.63","TORONTO ISLAND A","6158665","1990-09-06 11:00","1990","09","06","11:00","","21.5","","19.3","","87","","16","","13","","1.6","","100.38","","29","","","","Fog"
"-79.40","43.63","TORONTO ISLAND A","6158665","1990-09-06 12:00","1990","09","06","12:00","","21.9","","19.1","","84","","21","","20","","2.4","","100.38","","29","","","","Fog"
"-79.40","43.63","TORONTO ISLAND A","6158665","1990-09-06 13:00","1990","09","06","13:00","","21.9","","19.0","","84","","21","","19","","4.8","","100.28","","29","","","","Fog"
"-79.40","43.63","TORONTO ISLAND A","6158665","1990-09-06 14:00","1990","09","06","14:00","","22.5","","19.3","","82","","21","","13","","4.8","","100.25","","30","","","","Fog"
"-79.40","43.63","TORONTO ISLAND A","6158665","1990-09-06 15:00","1990","09","06","15:00","","21.6","","19.8","","89","","17","","7","","4.8","","100.15","","29","","","","Rain Showers,Fog"
"-79.40","43.63","TORONTO ISLAND A","6158665","1990-09-06 16:00","1990","09","06","16:00","","21.7","","20.3","","92","","20","","19","","4.8","","99.98","","30","","","","Rain Showers,Fog"
"-79.40","43.63","TORONTO ISLAND A","6158665","1990-09-06 17:00","1990","09","06","17:00","","21.6","","20.4","","93","","23","","19","","4.8","","99.98","","30","","","","Fog"
"-79.40","43.63","TORONTO ISLAND A","6158665","1990-09-06 18:00","1990","09","06","18:00","","21.5","","19.9","","91","","23","","17","","4.8","","99.94","","29","","","","Fog"
"-79.40","43.63","TORONTO ISLAND A","6158665","1990-09-06 19:00","1990","09","06","19:00","","21.3","","19.9","","92","","25","","6","","4.8","","99.88","","29","","","","Fog"
"-79.40","43.63","TORONTO ISLAND A","6158665","1990-09-06 20:00","1990","09","06","20:00","","21.5","","19.7","","90","","25","","7","","11.3","","99.84","","29","","","","Mostly Cloudy"
"-79.40","43.63","TORONTO ISLAND A","6158665","1990-09-06 21:00","1990","09","06","21:00","","21.1","","19.8","","92","","22","","9","","11.3","","99.78","","29","","","","Mostly Cloudy"
"-79.40","43.63","TORONTO ISLAND A","6158665","1990-09-06 22:00","1990","09","06","22:00","","21.5","","19.8","","90","","25","","7","","11.3","","99.74","","29","","","","Mostly Cloudy"
"-79.40","43.63","TORONTO ISLAND A","6158665","1990-09-06 23:00","1990","09","06","23:00","","","","","","","","27","","4","","","","","","","","","","NA"
"-79.40","43.63","TORONTO ISLAND A","6158665","1990-09-07 00:00","1990","09","07","00:00","","","","","","","","25","","4","","","","","","","","","","NA"
"-79.40","43.63","TORONTO ISLAND A","6158665","1990-09-07 01:00","1990","09","07","01:00","","","","","","","","23","","6","","","","","","","","","","NA"
"-79.40","43.63","TORONTO ISLAND A","6158665","1990-09-07 02:00","1990","09","07","02:00"
"-79.40","43.63","TORONTO ISLAND A","6158665","1990-09-07 03:00","1990","09","07","03:00"
"-79.40","43.63","TORONTO ISLAND A","6158665","1990-09-07 04:00","1990","09","07","04:00"
"-79.40","43.63","TORONTO ISLAND A","6158665","1990-09-07 05:00","1990","09","07","05:00"
"-79.40","43.63","TORONTO ISLAND A","6158665","1990-09-07 06:00","1990","09","07","06:00","","21.3","","19.4","","89","","32","","9","","4.0","","99.64","","28","","","","Fog"
"-79.40","43.63","TORONTO ISLAND A","6158665","1990-09-07 07:00","1990","09","07","07:00","","21.3","","19.0","","87","","33","","7","","6.4","","99.74","","28","","","","Haze"
"-79.40","43.63","TORONTO ISLAND A","6158665","1990-09-07 08:00","1990","09","07","08:00","","22.0","","18.1","","79","","33","","17","","12.9","","99.74","","28","","","","Mostly Cloudy"
"-79.40","43.63","TORONTO ISLAND A","6158665","1990-09-07 09:00","1990","09","07","09:00","","22.6","","17.9","","75","","34","","19","","12.9","","99.78","","29","","","","Cloudy"
"-79.40","43.63","TORONTO ISLAND A","6158665","1990-09-07 10:00","1990","09","07","10:00","","22.9","","17.4","","71","","35","","15","","12.9","","99.94","","28","","","","Cloudy"
"-79.40","43.63","TORONTO ISLAND A","6158665","1990-09-07 11:00","1990","09","07","11:00","","22.9","","17.7","","73","","36","","6","","12.9","","99.98","","29","","","","Mostly Cloudy"
"-79.40","43.63","TORONTO ISLAND A","6158665","1990-09-07 12:00","1990","09","07","12:00","","23.3","","17.5","","70","","36","","17","","16.1","","100.05","","29","","","","Mostly Cloudy"
"-79.40","43.63","TORONTO ISLAND A","6158665","1990-09-07 13:00","1990","09","07","13:00","","23.1","","16.1","","65","","36","","22","","25.0","","100.11","","28","","","","Mostly Cloudy"
"-79.40","43.63","TORONTO ISLAND A","6158665","1990-09-07 14:00","1990","09","07","14:00","","23.1","","14.5","","58","","36","","22","","25.0","","100.28","","27","","","","Mostly Cloudy"
"-79.40","43.63","TORONTO ISLAND A","6158665","1990-09-07 15:00","1990","09","07","15:00","","22.2","","14.1","","60","","34","","17","","25.0","","100.28","","26","","","","Mainly Clear"
"-79.40","43.63","TORONTO ISLAND A","6158665","1990-09-07 16:00","1990","09","07","16:00","","21.5","","12.4","","56","","36","","22","","25.0","","100.38","","","","","","Mainly Clear"
"-79.40","43.63","TORONTO ISLAND A","6158665","1990-09-07 17:00","1990","09","07","17:00","","21.1","","11.8","","55","","36","","19","","25.0","","100.42","","","","","","Mainly Clear"
"-79.40","43.63","TORONTO ISLAND A","6158665","1990-09-07 18:00","1990","09","07","18:00","","20.1","","9.2","","50","","36","","19","","25.0","","100.52","","","","","","Clear"
"-79.40","43.63","TORONTO ISLAND A","6158665","1990-09-07 19:00","1990","09","07","19:00","","19.1","","8.3","","49","","36","","13","","25.0","","100.58","","","","","","Clear"
"-79.40","43.63","TORONTO ISLAND A","6158665","1990-09-07 20:00","1990","09","07","20:00","","17.7","","9.4","","58","","34","","19","","25.0","","100.68","","","","","","Clear"
"-79.40","43.63","TORONTO ISLAND A","6158665","1990-09-07 21:00","1990","09","07","21:00","","17.2","","7.2","","52","","2","","15","","25.0","","100.82","","","","","","Clear"
"-79.40","43.63","TORONTO ISLAND A","6158665","1990-09-07 22:00","1990","09","07","22:00","","16.1","","4.7","","47","","3","","19","","25.0","","100.95","","","","","","Clear"
"-79.40","43.63","TORONTO ISLAND A","6158665","1990-09-07 23:00","1990","09","07","23:00","","","","","","","","6","","22","","","","","","","","","","NA"
"-79.40","43.63","TORONTO ISLAND A","6158665","1990-09-08 00:00","1990","09","08","00:00","","","","","","","","6","","17","","","","","","","","","","NA"
"-79.40","43.63","TORONTO ISLAND A","6158665","1990-09-08 01:00","1990","09","08","01:00","","","","","","","","5","","24","","","","","","","","","","NA"
"-79.40","43.63","TORONTO ISLAND A","6158665","1990-09-08 02:00","1990","09","08","02:00","","","","","","","","5","","22","","","","","","","","","","NA"
"-79.40","43.63","TORONTO ISLAND A","6158665","1990-09-08 03:00","1990","09","08","03:00","","","","","","","","5","","22","","","","","","","","","","NA"
"-79.40","43.63","TORONTO ISLAND A","6158665","1990-09-08 04:00","1990","09","08","04:00","","","","","","","","5","","20","","","","","","","","","","NA"
"-79.40","43.63","TORONTO ISLAND A","6158665","1990-09-08 05:00","1990","09","08","05:00","","","","","","","","5","","17","","","","","","","","","","NA"
"-79.40","43.63","TORONTO ISLAND A","6158665","1990-09-08 06:00","1990","09","08","06:00","","12.0","","6.4","","69","","6","","17","","25.0","","101.29","","","","","","Clear"
"-79.40","43.63","TORONTO ISLAND A","6158665","1990-09-08 07:00","1990","09","08","07:00","","13.0","","7.6","","70","","6","","17","","25.0","","101.32","","","","","","Mainly Clear"
"-79.40","43.63","TORONTO ISLAND A","6158665","1990-09-08 08:00","1990","09","08","08:00","","15.1","","8.5","","65","","7","","17","","25.0","","101.36","","","","","","Mainly Clear"
"-79.40","43.63","TORONTO ISLAND A","6158665","1990-09-08 09:00","1990","09","08","09:00","","15.7","","9.1","","65","","11","","17","","25.0","","101.36","","","","","","Mostly Cloudy"
"-79.40","43.63","TORONTO ISLAND A","6158665","1990-09-08 10:00","1990","09","08","10:00","","16.4","","9.6","","64","","11","","15","","25.0","","101.42","","","","","","Mostly Cloudy"
"-79.40","43.63","TORONTO ISLAND A","6158665","1990-09-08 11:00","1990","09","08","11:00","","16.8","","9.4","","62","","11","","19","","25.0","","101.42","","","","","","Mostly Cloudy"
"-79.40","43.63","TORONTO ISLAND A","6158665","1990-09-08 12:00","1990","09","08","12:00","","17.1","","8.7","","58","","9","","22","","25.0","","101.39","","","","","","Mainly Clear"
"-79.40","43.63","TORONTO ISLAND A","6158665","1990-09-08 13:00","1990","09","08","13:00","","17.6","","8.3","","54","","9","","20","","25.0","","101.36","","","","","","Clear"
"-79.40","43.63","TORONTO ISLAND A","6158665","1990-09-08 14:00","1990","09","08","14:00","","17.2","","8.0","","55","","9","","19","","25.0","","101.29","","","","","","Clear"
"-79.40","43.63","TORONTO ISLAND A","6158665","1990-09-08 15:00","1990","09","08","15:00","","17.8","","9.0","","56","","9","","22","","25.0","","101.26","","","","","","Mainly Clear"
"-79.40","43.63","TORONTO ISLAND A","6158665","1990-09-08 16:00","1990","09","08","16:00","","17.7","","9.0","","57","","8","","24","","25.0","","101.22","","","","","","Mainly Clear"
"-79.40","43.63","TORONTO ISLAND A","6158665","1990-09-08 17:00","1990","09","08","17:00","","17.1","","8.9","","58","","8","","24","","25.0","","101.19","","","","","","Mainly Clear"
"-79.40","43.63","TORONTO ISLAND A","6158665","1990-09-08 18:00","1990","09","08","18:00","","16.6","","8.6","","59","","8","","22","","25.0","","101.12","","","","","","Mostly Cloudy"
"-79.40","43.63","TORONTO ISLAND A","6158665","1990-09-08 19:00","1990","09","08","19:00","","16.4","","8.9","","61","","8","","19","","25.0","","101.09","","","","","","Mostly Cloudy"
"-79.40","43.63","TORONTO ISLAND A","6158665","1990-09-08 20:00","1990","09","08","20:00","","16.6","","10.2","","66","","8","","22","","25.0","","101.09","","","","","","Mostly Cloudy"
"-79.40","43.63","TORONTO ISLAND A","6158665","1990-09-08 21:00","1990","09","08","21:00","","16.6","","11.0","","69","","8","","22","","25.0","","101.09","","","","","","Mostly Cloudy"
"-79.40","43.63","TORONTO ISLAND A","6158665","1990-09-08 22:00","1990","09","08","22:00","","17.1","","11.7","","71","","7","","11","","25.0","","101.09","","","","","","Mostly Cloudy"
"-79.40","43.63","TORONTO ISLAND A","6158665","1990-09-08 23:00","1990","09","08","23:00","","","","","","","","7","","7","","","","","","","","","","NA"
"-79.40","43.63","TORONTO ISLAND A","6158665","1990-09-09 00:00","1990","09","09","00:00","","","","","","","","34","","4","","","","","","","","","","NA"
"-79.40","43.63","TORONTO ISLAND A","6158665","1990-09-09 01:00","1990","09","09","01:00","","","","","","","","","","0","","","","","","","","","","NA"
"-79.40","43.63","TORONTO ISLAND A","6158665","1990-09-09 02:00","1990","09","09","02:00","","","","","","","","35","","4","","","","","","","","","","NA"
"-79.40","43.63","TORONTO ISLAND A","6158665","1990-09-09 03:00","1990","09","09","03:00","","","","","","","","","","0","","","","","","","","","","NA"
"-79.40","43.63","TORONTO ISLAND A","6158665","1990-09-09 04:00","1990","09","09","04:00","","","","","","","","34","","6","","","","","","","","","","NA"
"-79.40","43.63","TORONTO ISLAND A","6158665","1990-09-09 05:00","1990","09","09","05:00","","","","","","","","","","0","","","","","","","","","","NA"
"-79.40","43.63","TORONTO ISLAND A","6158665","1990-09-09 06:00","1990","09","09","06:00","","14.6","","12.7","","88","","","","0","","25.0","","100.79","","","","","","Mostly Cloudy"
"-79.40","43.63","TORONTO ISLAND A","6158665","1990-09-09 07:00","1990","09","09","07:00","","16.5","","14.3","","87","","33","","2","","24.1","","100.82","","","","","","Cloudy"
"-79.40","43.63","TORONTO ISLAND A","6158665","1990-09-09 08:00","1990","09","09","08:00","","17.1","","14.5","","85","","7","","4","","24.1","","100.75","","","","","","Cloudy"
"-79.40","43.63","TORONTO ISLAND A","6158665","1990-09-09 09:00","1990","09","09","09:00","","17.5","","14.7","","84","","9","","4","","24.1","","100.75","","","","","","Cloudy"
"-79.40","43.63","TORONTO ISLAND A","6158665","1990-09-09 10:00","1990","09","09","10:00","","18.6","","15.4","","82","","12","","4","","19.3","","100.72","","","","","","Cloudy"
"-79.40","43.63","TORONTO ISLAND A","6158665","1990-09-09 11:00","1990","09","09","11:00","","18.4","","15.0","","81","","9","","9","","16.1","","100.72","","","","","","Cloudy"
"-79.40","43.63","TORONTO ISLAND A","6158665","1990-09-09 12:00","1990","09","09","12:00","","18.3","","15.7","","85","","11","","7","","16.1","","100.68","","","","","","Rain Showers"
"-79.40","43.63","TORONTO ISLAND A","6158665","1990-09-09 13:00","1990","09","09","13:00","","18.4","","15.7","","84","","11","","2","","12.9","","100.68","","","","","","Cloudy"
"-79.40","43.63","TORONTO ISLAND A","6158665","1990-09-09 14:00","1990","09","09","14:00","","18.6","","15.7","","83","","","","0","","12.9","","100.62","","","","","","Cloudy"
"-79.40","43.63","TORONTO ISLAND A","6158665","1990-09-09 15:00","1990","09","09","15:00","","18.9","","15.8","","82","","10","","13","","12.9","","100.58","","","","","","Cloudy"
"-79.40","43.63","TORONTO ISLAND A","6158665","1990-09-09 16:00","1990","09","09","16:00","","19.2","","15.7","","80","","10","","15","","19.3","","100.58","","","","","","Mostly Cloudy"
"-79.40","43.63","TORONTO ISLAND A","6158665","1990-09-09 17:00","1990","09","09","17:00","","19.0","","15.4","","80","","9","","15","","12.9","","100.55","","","","","","Mostly Cloudy"
"-79.40","43.63","TORONTO ISLAND A","6158665","1990-09-09 18:00","1990","09","09","18:00","","18.7","","15.5","","82","","11","","13","","16.1","","100.58","","","","","","Mostly Cloudy"
"-79.40","43.63","TORONTO ISLAND A","6158665","1990-09-09 19:00","1990","09","09","19:00","","17.7","","15.4","","86","","12","","15","","24.1","","100.62","","","","","","Mostly Cloudy"
"-79.40","43.63","TORONTO ISLAND A","6158665","1990-09-09 20:00","1990","09","09","20:00","","17.6","","15.4","","87","","12","","11","","24.1","","100.68","","","","","","Mostly Cloudy"
"-79.40","43.63","TORONTO ISLAND A","6158665","1990-09-09 21:00","1990","09","09","21:00","","17.4","","15.1","","87","","14","","9","","24.1","","100.68","","","","","","Mostly Cloudy"
"-79.40","43.63","TORONTO ISLAND A","6158665","1990-09-09 22:00","1990","09","09","22:00","","17.4","","15.4","","88","","12","","4","","24.1","","100.68","","","","","","Mostly Cloudy"
"-79.40","43.63","TORONTO ISLAND A","6158665","1990-09-09 23:00","1990","09","09","23:00","","","","","","","","15","","15","","","","","","","","","","NA"
"-79.40","43.63","TORONTO ISLAND A","6158665","1990-09-10 00:00","1990","09","10","00:00","","","","","","","","17","","15","","","","","","","","","","NA"
"-79.40","43.63","TORONTO ISLAND A","6158665","1990-09-10 01:00","1990","09","10","01:00","","","","","","","","21","","15","","","","","","","","","","NA"
"-79.40","43.63","TORONTO ISLAND A","6158665","1990-09-10 02:00","1990","09","10","02:00","","","","","","","","24","","15","","","","","","","","","","NA"
"-79.40","43.63","TORONTO ISLAND A","6158665","1990-09-10 03:00","1990","09","10","03:00","","","","","","","","21","","13","","","","","","","","","","NA"
"-79.40","43.63","TORONTO ISLAND A","6158665","1990-09-10 04:00","1990","09","10","04:00","","","","","","","","19","","15","","","","","","","","","","NA"
"-79.40","43.63","TORONTO ISLAND A","6158665","1990-09-10 05:00","1990","09","10","05:00","","","","","","","","24","","17","","","","","","","","","","NA"
"-79.40","43.63","TORONTO ISLAND A","6158665","1990-09-10 06:00","1990","09","10","06:00","","18.2","","17.0","","93","","26","","13","","4.8","","100.68","","","","","","Fog"
"-79.40","43.63","TORONTO ISLAND A","6158665","1990-09-10 07:00","1990","09","10","07:00","","18.6","","17.0","","90","","25","","15","","4.8","","100.72","","","","","","Fog"
"-79.40","43.63","TORONTO ISLAND A","6158665","1990-09-10 08:00","1990","09","10","08:00","","19.1","","17.1","","88","","24","","19","","4.8","","100.68","","","","","","Fog"
"-79.40","43.63","TORONTO ISLAND A","6158665","1990-09-10 09:00","1990","09","10","09:00","","20.3","","17.7","","85","","24","","22","","8.0","","100.68","","26","","","","Haze"
"-79.40","43.63","TORONTO ISLAND A","6158665","1990-09-10 10:00","1990","09","10","10:00","","21.6","","18.1","","81","","23","","19","","6.4","","100.68","","28","","","","Haze"
"-79.40","43.63","TORONTO ISLAND A","6158665","1990-09-10 11:00","1990","09","10","11:00","","21.7","","18.3","","81","","23","","19","","6.4","","100.72","","28","","","","Haze"
"-79.40","43.63","TORONTO ISLAND A","6158665","1990-09-10 12:00","1990","09","10","12:00","","22.5","","18.9","","80","","22","","13","","6.4","","100.68","","29","","","","Haze"
"-79.40","43.63","TORONTO ISLAND A","6158665","1990-09-10 13:00","1990","09","10","13:00","","25.8","","18.6","","65","","26","","19","","6.4","","100.68","","32","","","","Haze"
"-79.40","43.63","TORONTO ISLAND A","6158665","1990-09-10 14:00","1990","09","10","14:00","","24.8","","18.9","","70","","18","","11","","6.4","","100.68","","31","","","","Haze"
"-79.40","43.63","TORONTO ISLAND A","6158665","1990-09-10 15:00","1990","09","10","15:00","","24.8","","18.5","","68","","18","","7","","9.7","","100.65","","31","","","","Haze"
"-79.40","43.63","TORONTO ISLAND A","6158665","1990-09-10 16:00","1990","09","10","16:00","","23.2","","19.2","","78","","19","","28","","11.3","","100.62","","30","","","","Mostly Cloudy"
"-79.40","43.63","TORONTO ISLAND A","6158665","1990-09-10 17:00","1990","09","10","17:00","","22.7","","19.1","","80","","22","","26","","8.0","","100.65","","30","","","","Haze"
"-79.40","43.63","TORONTO ISLAND A","6158665","1990-09-10 18:00","1990","09","10","18:00","","22.5","","19.4","","83","","22","","26","","9.7","","100.68","","30","","","","Haze"
"-79.40","43.63","TORONTO ISLAND A","6158665","1990-09-10 19:00","1990","09","10","19:00","","21.6","","19.3","","87","","22","","17","","9.7","","100.75","","29","","","","Haze"
"-79.40","43.63","TORONTO ISLAND A","6158665","1990-09-10 20:00","1990","09","10","20:00","","22.1","","18.9","","82","","25","","4","","9.7","","100.85","","29","","","","Haze"
"-79.40","43.63","TORONTO ISLAND A","6158665","1990-09-10 21:00","1990","09","10","21:00","","22.6","","18.2","","76","","34","","6","","11.3","","100.85","","29","","","","Clear"
"-79.40","43.63","TORONTO ISLAND A","6158665","1990-09-10 22:00","1990","09","10","22:00","","22.3","","17.8","","76","","36","","7","","12.9","","100.92","","28","","","","Mainly Clear"
"-79.40","43.63","TORONTO ISLAND A","6158665","1990-09-10 23:00","1990","09","10","23:00","","","","","","","","34","","11","","","","","","","","","","NA"
"-79.40","43.63","TORONTO ISLAND A","6158665","1990-09-11 00:00","1990","09","11","00:00","","","","","","","","35","","13","","","","","","","","","","NA"
"-79.40","43.63","TORONTO ISLAND A","6158665","1990-09-11 01:00","1990","09","11","01:00","","","","","","","","34","","9","","","","","","","","","","NA"
"-79.40","43.63","TORONTO ISLAND A","6158665","1990-09-11 02:00","1990","09","11","02:00","","","","","","","","35","","11","","","","","","","","","","NA"
"-79.40","43.63","TORONTO ISLAND A","6158665","1990-09-11 03:00","1990","09","11","03:00","","","","","","","","34","","9","","","","","","","","","","NA"
"-79.40","43.63","TORONTO ISLAND A","6158665","1990-09-11 04:00","1990","09","11","04:00","","","","","","","","35","","7","","","","","","","","","","NA"
"-79.40","43.63","TORONTO ISLAND A","6158665","1990-09-11 05:00","1990","09","11","05:00","","","","","","","","33","","7","","","","","","","","","","NA"
"-79.40","43.63","TORONTO ISLAND A","6158665","1990-09-11 06:00","1990","09","11","06:00","","18.0","","12.7","","71","","35","","11","","24.1","","101.32","","","","","","Mostly Cloudy"
"-79.40","43.63","TORONTO ISLAND A","6158665","1990-09-11 07:00","1990","09","11","07:00","","18.3","","14.6","","79","","6","","15","","24.1","","101.36","","","","","","Mostly Cloudy"
"-79.40","43.63","TORONTO ISLAND A","6158665","1990-09-11 08:00","1990","09","11","08:00","","18.6","","14.8","","78","","8","","31","","24.1","","101.39","","","","","","Cloudy"
"-79.40","43.63","TORONTO ISLAND A","6158665","1990-09-11 09:00","1990","09","11","09:00","","18.6","","14.6","","78","","7","","24","","24.1","","101.46","","","","","","Cloudy"
"-79.40","43.63","TORONTO ISLAND A","6158665","1990-09-11 10:00","1990","09","11","10:00","","18.9","","14.1","","74","","7","","33","","24.1","","101.46","","","","","","Mostly Cloudy"
"-79.40","43.63","TORONTO ISLAND A","6158665","1990-09-11 11:00","1990","09","11","11:00","","18.7","","13.8","","73","","7","","37","","24.1","","101.49","","","","","","Cloudy"
"-79.40","43.63","TORONTO ISLAND A","6158665","1990-09-11 12:00","1990","09","11","12:00","","19.4","","12.2","","63","","8","","33","","24.1","","101.49","","","","","","Mostly Cloudy"
"-79.40","43.63","TORONTO ISLAND A","6158665","1990-09-11 13:00","1990","09","11","13:00","","19.2","","12.6","","66","","8","","26","","24.1","","101.49","","","","","","Mostly Cloudy"
"-79.40","43.63","TORONTO ISLAND A","6158665","1990-09-11 14:00","1990","09","11","14:00","","19.6","","12.3","","63","","8","","26","","25.0","","101.42","","","","","","Mostly Cloudy"
"-79.40","43.63","TORONTO ISLAND A","6158665","1990-09-11 15:00","1990","09","11","15:00","","19.3","","12.1","","63","","9","","22","","25.0","","101.36","","","","","","Mostly Cloudy"
"-79.40","43.63","TORONTO ISLAND A","6158665","1990-09-11 16:00","1990","09","11","16:00","","19.8","","12.1","","61","","9","","22","","25.0","","101.36","","","","","","Mostly Cloudy"
"-79.40","43.63","TORONTO ISLAND A","6158665","1990-09-11 17:00","1990","09","11","17:00","","19.5","","12.2","","63","","8","","17","","25.0","","101.36","","","","","","Mostly Cloudy"
"-79.40","43.63","TORONTO ISLAND A","6158665","1990-09-11 18:00","1990","09","11","18:00","","18.7","","12.6","","68","","8","","13","","25.0","","101.32","","","","","","Mostly Cloudy"
"-79.40","43.63","TORONTO ISLAND A","6158665","1990-09-11 19:00","1990","09","11","19:00","","18.6","","12.2","","66","","8","","11","","25.0","","101.32","","","","","","Mostly Cloudy"
"-79.40","43.63","TORONTO ISLAND A","6158665","1990-09-11 20:00","1990","09","11","20:00","","17.6","","13.4","","76","","11","","6","","25.0","","101.32","","","","","","Mostly Cloudy"
"-79.40","43.63","TORONTO ISLAND A","6158665","1990-09-11 21:00","1990","09","11","21:00","","17.9","","12.5","","71","","10","","6","","25.0","","101.29","","","","","","Mostly Cloudy"
"-79.40","43.63","TORONTO ISLAND A","6158665","1990-09-11 22:00","1990","09","11","22:00","","17.8","","12.6","","72","","11","","7","","25.0","","101.26","","","","","","Mainly Clear"
"-79.40","43.63","TORONTO ISLAND A","6158665","1990-09-11 23:00","1990","09","11","23:00","","","","","","","","12","","4","","","","","","","","","","NA"
"-79.40","43.63","TORONTO ISLAND A","6158665","1990-09-12 00:00","1990","09","12","00:00","","","","","","","","11","","4","","","","","","","","","","NA"
"-79.40","43.63","TORONTO ISLAND A","6158665","1990-09-12 01:00","1990","09","12","01:00","","","","","","","","","","0","","","","","","","","","","NA"
"-79.40","43.63","TORONTO ISLAND A","6158665","1990-09-12 02:00","1990","09","12","02:00","","","","","","","","","","0","","","","","","","","","","NA"
"-79.40","43.63","TORONTO ISLAND A","6158665","1990-09-12 03:00","1990","09","12","03:00","","","","","","","","34","","4","","","","","","","","","","NA"
"-79.40","43.63","TORONTO ISLAND A","6158665","1990-09-12 04:00","1990","09","12","04:00","","","","","","","","33","","4","","","","","","","","","","NA"
"-79.40","43.63","TORONTO ISLAND A","6158665","1990-09-12 05:00","1990","09","12","05:00","","","","","","","","","","0","","","","","","","","","","NA"
"-79.40","43.63","TORONTO ISLAND A","6158665","1990-09-12 06:00","1990","09","12","06:00","","14.9","","11.8","","82","","34","","7","","12.9","","101.19","","","","","","Mainly Clear"
"-79.40","43.63","TORONTO ISLAND A","6158665","1990-09-12 07:00","1990","09","12","07:00","","15.7","","12.3","","80","","32","","4","","11.3","","101.22","","","","","","Mainly Clear"
"-79.40","43.63","TORONTO ISLAND A","6158665","1990-09-12 08:00","1990","09","12","08:00","","18.1","","14.3","","78","","26","","9","","9.7","","101.26","","","","","","Haze"
"-79.40","43.63","TORONTO ISLAND A","6158665","1990-09-12 09:00","1990","09","12","09:00","","18.9","","14.8","","77","","23","","7","","8.0","","101.26","","","","","","Haze"
"-79.40","43.63","TORONTO ISLAND A","6158665","1990-09-12 10:00","1990","09","12","10:00","","19.6","","15.6","","78","","20","","7","","9.7","","101.22","","","","","","Haze"
"-79.40","43.63","TORONTO ISLAND A","6158665","1990-09-12 11:00","1990","09","12","11:00","","21.1","","16.6","","76","","19","","15","","12.9","","101.22","","26","","","","Mainly Clear"
"-79.40","43.63","TORONTO ISLAND A","6158665","1990-09-12 12:00","1990","09","12","12:00","","22.6","","16.1","","67","","20","","13","","12.9","","101.12","","27","","","","Mainly Clear"
"-79.40","43.63","TORONTO ISLAND A","6158665","1990-09-12 13:00","1990","09","12","13:00","","23.5","","16.1","","63","","20","","20","","16.1","","101.05","","28","","","","Mainly Clear"
"-79.40","43.63","TORONTO ISLAND A","6158665","1990-09-12 14:00","1990","09","12","14:00","","24.2","","17.3","","65","","19","","22","","19.3","","101.02","","30","","","","Mainly Clear"
"-79.40","43.63","TORONTO ISLAND A","6158665","1990-09-12 15:00","1990","09","12","15:00","","24.5","","17.6","","66","","20","","28","","19.3","","100.99","","30","","","","Mainly Clear"
"-79.40","43.63","TORONTO ISLAND A","6158665","1990-09-12 16:00","1990","09","12","16:00","","24.3","","18.3","","69","","20","","20","","16.1","","100.95","","31","","","","Mainly Clear"
"-79.40","43.63","TORONTO ISLAND A","6158665","1990-09-12 17:00","1990","09","12","17:00","","23.4","","19.2","","77","","20","","26","","16.1","","100.95","","30","","","","Clear"
"-79.40","43.63","TORONTO ISLAND A","6158665","1990-09-12 18:00","1990","09","12","18:00","","22.2","","19.5","","85","","21","","22","","12.9","","100.95","","29","","","","Mainly Clear"
"-79.40","43.63","TORONTO ISLAND A","6158665","1990-09-12 19:00","1990","09","12","19:00","","21.5","","19.2","","87","","23","","17","","12.9","","100.99","","28","","","","Mainly Clear"
"-79.40","43.63","TORONTO ISLAND A","6158665","1990-09-12 20:00","1990","09","12","20:00","","21.5","","18.8","","85","","24","","15","","12.9","","101.05","","28","","","","Mainly Clear"
"-79.40","43.63","TORONTO ISLAND A","6158665","1990-09-12 21:00","1990","09","12","21:00","","21.3","","18.7","","85","","24","","15","","12.9","","101.09","","28","","","","Mostly Cloudy"
"-79.40","43.63","TORONTO ISLAND A","6158665","1990-09-12 22:00","1990","09","12","22:00","","20.7","","19.4","","92","","27","","4","","11.3","","101.12","","28","","","","Mostly Cloudy"
"-79.40","43.63","TORONTO ISLAND A","6158665","1990-09-12 23:00","1990","09","12","23:00","","","","","","","","23","","9","","","","","","","","","","NA"
"-79.40","43.63","TORONTO ISLAND A","6158665","1990-09-13 00:00","1990","09","13","00:00","","","","","","","","33","","4","","","","","","","","","","NA"
"-79.40","43.63","TORONTO ISLAND A","6158665","1990-09-13 01:00","1990","09","13","01:00","","","","","","","","","","0","","","","","","","","","","NA"
"-79.40","43.63","TORONTO ISLAND A","6158665","1990-09-13 02:00","1990","09","13","02:00","","","","","","","","27","","4","","","","","","","","","","NA"
"-79.40","43.63","TORONTO ISLAND A","6158665","1990-09-13 03:00","1990","09","13","03:00","","","","","","","","","","0","","","","","","","","","","NA"
"-79.40","43.63","TORONTO ISLAND A","6158665","1990-09-13 04:00","1990","09","13","04:00","","","","","","","","","","0","","","","","","","","","","NA"
"-79.40","43.63","TORONTO ISLAND A","6158665","1990-09-13 05:00","1990","09","13","05:00","","","","","","","","","","0","","","","","","","","","","NA"
"-79.40","43.63","TORONTO ISLAND A","6158665","1990-09-13 06:00","1990","09","13","06:00","","17.7","","17.3","","97","","","","0","","0.8","","101.22","","","","","","Fog"
"-79.40","43.63","TORONTO ISLAND A","6158665","1990-09-13 07:00","1990","09","13","07:00","","18.3","","18.1","","99","","","","0","","3.2","","101.22","","","","","","Fog"
"-79.40","43.63","TORONTO ISLAND A","6158665","1990-09-13 08:00","1990","09","13","08:00","","20.8","","18.3","","86","","","","0","","3.2","","101.22","","27","","","","Fog"
"-79.40","43.63","TORONTO ISLAND A","6158665","1990-09-13 09:00","1990","09","13","09:00","","21.2","","18.3","","83","","17","","7","","3.2","","101.22","","27","","","","Fog"
"-79.40","43.63","TORONTO ISLAND A","6158665","1990-09-13 10:00","1990","09","13","10:00","","21.8","","18.5","","82","","19","","7","","3.2","","101.26","","28","","","","Fog"
"-79.40","43.63","TORONTO ISLAND A","6158665","1990-09-13 11:00","1990","09","13","11:00","","22.7","","15.8","","65","","19","","7","","6.4","","101.22","","27","","","","Haze"
"-79.40","43.63","TORONTO ISLAND A","6158665","1990-09-13 12:00","1990","09","13","12:00","","23.9","","14.8","","57","","18","","7","","6.4","","101.22","","28","","","","Haze"
"-79.40","43.63","TORONTO ISLAND A","6158665","1990-09-13 13:00","1990","09","13","13:00","","23.9","","16.5","","63","","14","","4","","8.0","","101.15","","29","","","","Haze"
"-79.40","43.63","TORONTO ISLAND A","6158665","1990-09-13 14:00","1990","09","13","14:00","","23.7","","16.3","","63","","9","","13","","8.0","","101.05","","29","","","","Haze"
"-79.40","43.63","TORONTO ISLAND A","6158665","1990-09-13 15:00","1990","09","13","15:00","","24.4","","16.9","","63","","9","","13","","9.7","","100.95","","30","","","","Haze"
"-79.40","43.63","TORONTO ISLAND A","6158665","1990-09-13 16:00","1990","09","13","16:00","","22.9","","18.5","","76","","9","","22","","8.0","","100.92","","29","","","","Haze"
"-79.40","43.63","TORONTO ISLAND A","6158665","1990-09-13 17:00","1990","09","13","17:00","","22.4","","19.2","","82","","9","","22","","6.4","","100.89","","29","","","","Haze"
"-79.40","43.63","TORONTO ISLAND A","6158665","1990-09-13 18:00","1990","09","13","18:00","","21.3","","19.2","","88","","8","","19","","6.4","","100.85","","28","","","","Haze"
"-79.40","43.63","TORONTO ISLAND A","6158665","1990-09-13 19:00","1990","09","13","19:00","","21.0","","19.5","","91","","8","","17","","3.2","","100.82","","28","","","","Fog"
"-79.40","43.63","TORONTO ISLAND A","6158665","1990-09-13 20:00","1990","09","13","20:00","","21.0","","19.3","","90","","8","","13","","4.0","","100.82","","28","","","","Fog"
"-79.40","43.63","TORONTO ISLAND A","6158665","1990-09-13 21:00","1990","09","13","21:00","","21.0","","19.2","","90","","9","","11","","4.8","","100.82","","28","","","","Fog"
"-79.40","43.63","TORONTO ISLAND A","6158665","1990-09-13 22:00","1990","09","13","22:00","","20.6","","19.6","","94","","9","","9","","3.2","","100.75","","28","","","","Fog"
"-79.40","43.63","TORONTO ISLAND A","6158665","1990-09-13 23:00","1990","09","13","23:00","","","","","","","","10","","9","","","","","","","","","","NA"
"-79.40","43.63","TORONTO ISLAND A","6158665","1990-09-14 00:00","1990","09","14","00:00","","","","","","","","9","","7","","","","","","","","","","NA"
"-79.40","43.63","TORONTO ISLAND A","6158665","1990-09-14 01:00","1990","09","14","01:00","","","","","","","","10","","4","","","","","","","","","","NA"
"-79.40","43.63","TORONTO ISLAND A","6158665","1990-09-14 02:00","1990","09","14","02:00","","","","","","","","22","","9","","","","","","","","","","NA"
"-79.40","43.63","TORONTO ISLAND A","6158665","1990-09-14 03:00","1990","09","14","03:00","","","","","","","","21","","13","","","","","","","","","","NA"
"-79.40","43.63","TORONTO ISLAND A","6158665","1990-09-14 04:00","1990","09","14","04:00","","","","","","","","21","","19","","","","","","","","","","NA"
"-79.40","43.63","TORONTO ISLAND A","6158665","1990-09-14 05:00","1990","09","14","05:00","","","","","","","","21","","15","","","","","","","","","","NA"
"-79.40","43.63","TORONTO ISLAND A","6158665","1990-09-14 06:00","1990","09","14","06:00","","20.4","","18.9","","91","","21","","19","","6.4","","100.28","","27","","","","Fog"
"-79.40","43.63","TORONTO ISLAND A","6158665","1990-09-14 07:00","1990","09","14","07:00","","20.6","","19.2","","92","","21","","19","","6.4","","100.18","","28","","","","Fog"
"-79.40","43.63","TORONTO ISLAND A","6158665","1990-09-14 08:00","1990","09","14","08:00","","20.9","","19.4","","91","","20","","24","","4.8","","100.08","","28","","","","Fog"
"-79.40","43.63","TORONTO ISLAND A","6158665","1990-09-14 09:00","1990","09","14","09:00","","21.5","","19.6","","89","","20","","19","","4.8","","100.05","","29","","","","Fog"
"-79.40","43.63","TORONTO ISLAND A","6158665","1990-09-14 10:00","1990","09","14","10:00","","22.0","","19.8","","87","","20","","24","","4.8","","99.94","","29","","","","Fog"
"-79.40","43.63","TORONTO ISLAND A","6158665","1990-09-14 11:00","1990","09","14","11:00","","22.5","","19.7","","84","","20","","19","","4.8","","99.84","","30","","","","Fog"
"-79.40","43.63","TORONTO ISLAND A","6158665","1990-09-14 12:00","1990","09","14","12:00","","23.2","","19.7","","81","","18","","19","","6.4","","99.74","","31","","","","Haze"
"-79.40","43.63","TORONTO ISLAND A","6158665","1990-09-14 13:00","1990","09","14","13:00","","22.8","","19.3","","81","","20","","24","","6.4","","99.68","","30","","","","Haze"
"-79.40","43.63","TORONTO ISLAND A","6158665","1990-09-14 14:00","1990","09","14","14:00","","23.9","","19.6","","77","","20","","22","","6.4","","99.54","","31","","","","Haze"
"-79.40","43.63","TORONTO ISLAND A","6158665","1990-09-14 15:00","1990","09","14","15:00","","23.8","","19.5","","77","","19","","22","","6.4","","99.34","","31","","","","Haze"
"-79.40","43.63","TORONTO ISLAND A","6158665","1990-09-14 16:00","1990","09","14","16:00","","24.1","","19.3","","74","","19","","31","","4.8","","99.17","","31","","","","Haze"
"-79.40","43.63","TORONTO ISLAND A","6158665","1990-09-14 17:00","1990","09","14","17:00","","23.1","","19.2","","79","","18","","30","","4.8","","99.04","","30","","","","Haze"
"-79.40","43.63","TORONTO ISLAND A","6158665","1990-09-14 18:00","1990","09","14","18:00","","19.6","","16.4","","82","","27","","19","","9.7","","99.00","","","","","","Rain Showers"
"-79.40","43.63","TORONTO ISLAND A","6158665","1990-09-14 19:00","1990","09","14","19:00","","17.6","","16.9","","96","","26","","22","","12.9","","99.00","","","","","","Thunderstorms,Rain Showers"
"-79.40","43.63","TORONTO ISLAND A","6158665","1990-09-14 20:00","1990","09","14","20:00","","17.3","","16.3","","94","","23","","22","","12.9","","98.97","","","","","","Rain Showers"
"-79.40","43.63","TORONTO ISLAND A","6158665","1990-09-14 21:00","1990","09","14","21:00","","17.6","","16.4","","93","","23","","33","","12.9","","99.04","","","","","","Cloudy"
"-79.40","43.63","TORONTO ISLAND A","6158665","1990-09-14 22:00","1990","09","14","22:00","","17.9","","16.6","","92","","23","","33","","16.1","","99.00","","","","","","Cloudy"
"-79.40","43.63","TORONTO ISLAND A","6158665","1990-09-14 23:00","1990","09","14","23:00","","","","","","","","25","","31","","","","","","","","","","NA"
"-79.40","43.63","TORONTO ISLAND A","6158665","1990-09-15 00:00","1990","09","15","00:00","","","","","","","","27","","20","","","","","","","","","","NA"
"-79.40","43.63","TORONTO ISLAND A","6158665","1990-09-15 01:00","1990","09","15","01:00"
"-79.40","43.63","TORONTO ISLAND A","6158665","1990-09-15 02:00","1990","09","15","02:00","","","","","","","","28","","33","","","","","","","","","","NA"
"-79.40","43.63","TORONTO ISLAND A","6158665","1990-09-15 03:00","1990","09","15","03:00","","","","","","","","30","","31","","","","","","","","","","NA"
"-79.40","43.63","TORONTO ISLAND A","6158665","1990-09-15 04:00","1990","09","15","04:00","","","","","","","","29","","26","","","","","","","","","","NA"
"-79.40","43.63","TORONTO ISLAND A","6158665","1990-09-15 05:00","1990","09","15","05:00","","","","","","","","29","","26","","","","","","","","","","NA"
"-79.40","43.63","TORONTO ISLAND A","6158665","1990-09-15 06:00","1990","09","15","06:00","","13.0","","9.8","","81","","28","","30","","24.1","","99.44","","","","","","Mostly Cloudy"
"-79.40","43.63","TORONTO ISLAND A","6158665","1990-09-15 07:00","1990","09","15","07:00","","13.2","","10.2","","82","","30","","26","","24.1","","99.44","","","","","","Mainly Clear"
"-79.40","43.63","TORONTO ISLAND A","6158665","1990-09-15 08:00","1990","09","15","08:00","","14.5","","10.8","","78","","30","","26","","25.0","","99.47","","","","","","Mostly Cloudy"
"-79.40","43.63","TORONTO ISLAND A","6158665","1990-09-15 09:00","1990","09","15","09:00","","15.0","","10.1","","73","","29","","26","","25.0","","99.51","","","","","","Mostly Cloudy"
"-79.40","43.63","TORONTO ISLAND A","6158665","1990-09-15 10:00","1990","09","15","10:00","","14.2","","9.7","","74","","33","","22","","25.0","","99.57","","","","","","Mostly Cloudy"
"-79.40","43.63","TORONTO ISLAND A","6158665","1990-09-15 11:00","1990","09","15","11:00","","13.9","","9.9","","77","","31","","22","","25.0","","99.64","","","","","","Cloudy"
"-79.40","43.63","TORONTO ISLAND A","6158665","1990-09-15 12:00","1990","09","15","12:00","","14.4","","9.1","","71","","29","","26","","25.0","","99.64","","","","","","Cloudy"
"-79.40","43.63","TORONTO ISLAND A","6158665","1990-09-15 13:00","1990","09","15","13:00","","14.5","","8.0","","65","","31","","28","","25.0","","99.68","","","","","","Mostly Cloudy"
"-79.40","43.63","TORONTO ISLAND A","6158665","1990-09-15 14:00","1990","09","15","14:00","","15.4","","8.0","","61","","31","","19","","25.0","","99.68","","","","","","Mostly Cloudy"
"-79.40","43.63","TORONTO ISLAND A","6158665","1990-09-15 15:00","1990","09","15","15:00","","16.0","","7.9","","59","","31","","26","","25.0","","99.71","","","","","","Mostly Cloudy"
"-79.40","43.63","TORONTO ISLAND A","6158665","1990-09-15 16:00","1990","09","15","16:00","","15.6","","7.5","","59","","29","","26","","25.0","","99.74","","","","","","Mostly Cloudy"
"-79.40","43.63","TORONTO ISLAND A","6158665","1990-09-15 17:00","1990","09","15","17:00","","15.0","","7.5","","61","","30","","26","","25.0","","99.81","","","","","","Mostly Cloudy"
"-79.40","43.63","TORONTO ISLAND A","6158665","1990-09-15 18:00","1990","09","15","18:00","","14.2","","6.6","","60","","29","","26","","25.0","","99.88","","","","","","Cloudy"
"-79.40","43.63","TORONTO ISLAND A","6158665","1990-09-15 19:00","1990","09","15","19:00","","13.5","","7.0","","65","","30","","22","","25.0","","99.88","","","","","","Cloudy"
"-79.40","43.63","TORONTO ISLAND A","6158665","1990-09-15 20:00","1990","09","15","20:00","","12.3","","7.9","","75","","34","","17","","24.1","","99.94","","","","","","Rain Showers"
"-79.40","43.63","TORONTO ISLAND A","6158665","1990-09-15 21:00","1990","09","15","21:00","","12.4","","7.5","","72","","29","","15","","24.1","","99.94","","","","","","Cloudy"
"-79.40","43.63","TORONTO ISLAND A","6158665","1990-09-15 22:00","1990","09","15","22:00","","11.8","","8.3","","79","","31","","9","","24.1","","99.94","","","","","","Rain Showers"
"-79.40","43.63","TORONTO ISLAND A","6158665","1990-09-15 23:00","1990","09","15","23:00","","","","","","","","32","","9","","","","","","","","","","NA"
"-79.40","43.63","TORONTO ISLAND A","6158665","1990-09-16 00:00","1990","09","16","00:00","","","","","","","","30","","7","","","","","","","","","","NA"
"-79.40","43.63","TORONTO ISLAND A","6158665","1990-09-16 01:00","1990","09","16","01:00","","","","","","","","","","0","","","","","","","","","","NA"
"-79.40","43.63","TORONTO ISLAND A","6158665","1990-09-16 02:00","1990","09","16","02:00","","","","","","","","35","","6","","","","","","","","","","NA"
"-79.40","43.63","TORONTO ISLAND A","6158665","1990-09-16 03:00","1990","09","16","03:00","","","","","","","","1","","13","","","","","","","","","","NA"
"-79.40","43.63","TORONTO ISLAND A","6158665","1990-09-16 04:00","1990","09","16","04:00","","","","","","","","2","","9","","","","","","","","","","NA"
"-79.40","43.63","TORONTO ISLAND A","6158665","1990-09-16 05:00","1990","09","16","05:00","","","","","","","","1","","13","","","","","","","","","","NA"
"-79.40","43.63","TORONTO ISLAND A","6158665","1990-09-16 06:00","1990","09","16","06:00","","11.1","","4.4","","63","","3","","9","","24.1","","99.94","","","","","","Cloudy"
"-79.40","43.63","TORONTO ISLAND A","6158665","1990-09-16 07:00","1990","09","16","07:00","","11.2","","5.3","","67","","2","","13","","24.1","","100.01","","","","","","Mostly Cloudy"
"-79.40","43.63","TORONTO ISLAND A","6158665","1990-09-16 08:00","1990","09","16","08:00","","11.5","","5.9","","68","","2","","13","","24.1","","100.01","","","","","","Cloudy"
"-79.40","43.63","TORONTO ISLAND A","6158665","1990-09-16 09:00","1990","09","16","09:00","","11.8","","5.6","","66","","2","","17","","24.1","","100.08","","","","","","Mostly Cloudy"
"-79.40","43.63","TORONTO ISLAND A","6158665","1990-09-16 10:00","1990","09","16","10:00","","12.2","","6.0","","66","","36","","19","","24.1","","100.11","","","","","","Mostly Cloudy"
"-79.40","43.63","TORONTO ISLAND A","6158665","1990-09-16 11:00","1990","09","16","11:00","","12.4","","5.0","","61","","1","","19","","25.0","","100.15","","","","","","Mostly Cloudy"
"-79.40","43.63","TORONTO ISLAND A","6158665","1990-09-16 12:00","1990","09","16","12:00","","12.9","","3.3","","52","","36","","15","","25.0","","100.18","","","","","","Mostly Cloudy"
"-79.40","43.63","TORONTO ISLAND A","6158665","1990-09-16 13:00","1990","09","16","13:00","","14.2","","2.5","","45","","1","","19","","25.0","","100.18","","","","","","Mostly Cloudy"
"-79.40","43.63","TORONTO ISLAND A","6158665","1990-09-16 14:00","1990","09","16","14:00","","14.7","","2.0","","42","","1","","20","","25.0","","100.15","","","","","","Mainly Clear"
"-79.40","43.63","TORONTO ISLAND A","6158665","1990-09-16 15:00","1990","09","16","15:00","","15.4","","0.7","","37","","2","","20","","25.0","","100.18","","","","","","Mainly Clear"
"-79.40","43.63","TORONTO ISLAND A","6158665","1990-09-16 16:00","1990","09","16","16:00","","15.8","","1.6","","38","","1","","22","","25.0","","100.18","","","","","","Clear"
"-79.40","43.63","TORONTO ISLAND A","6158665","1990-09-16 17:00","1990","09","16","17:00","","15.4","","2.1","","41","","35","","17","","25.0","","100.25","","","","","","Clear"
"-79.40","43.63","TORONTO ISLAND A","6158665","1990-09-16 18:00","1990","09","16","18:00","","13.7","","3.1","","49","","33","","19","","25.0","","100.35","","","","","","Clear"
"-79.40","43.63","TORONTO ISLAND A","6158665","1990-09-16 19:00","1990","09","16","19:00","","12.3","","2.9","","53","","34","","19","","25.0","","100.48","","","","","","Clear"
"-79.40","43.63","TORONTO ISLAND A","6158665","1990-09-16 20:00","1990","09","16","20:00","","11.2","","2.4","","54","","35","","24","","25.0","","100.58","","","","","","Clear"
"-79.40","43.63","TORONTO ISLAND A","6158665","1990-09-16 21:00","1990","09","16","21:00","","10.4","","1.2","","53","","36","","19","","25.0","","100.62","","","","","","Clear"
"-79.40","43.63","TORONTO ISLAND A","6158665","1990-09-16 22:00","1990","09","16","22:00","","10.0","","-0.1","","49","","2","","19","","25.0","","100.72","","","","","","Clear"
"-79.40","43.63","TORONTO ISLAND A","6158665","1990-09-16 23:00","1990","09","16","23:00","","","","","","","","32","","11","","","","","","","","","","NA"
"-79.40","43.63","TORONTO ISLAND A","6158665","1990-09-17 00:00","1990","09","17","00:00","","","","","","","","31","","9","","","","","","","","","","NA"
"-79.40","43.63","TORONTO ISLAND A","6158665","1990-09-17 01:00","1990","09","17","01:00","","","","","","","","33","","6","","","","","","","","","","NA"
"-79.40","43.63","TORONTO ISLAND A","6158665","1990-09-17 02:00","1990","09","17","02:00","","","","","","","","31","","9","","","","","","","","","","NA"
"-79.40","43.63","TORONTO ISLAND A","6158665","1990-09-17 03:00","1990","09","17","03:00","","","","","","","","32","","9","","","","","","","","","","NA"
"-79.40","43.63","TORONTO ISLAND A","6158665","1990-09-17 04:00","1990","09","17","04:00","","","","","","","","33","","7","","","","","","","","","","NA"
"-79.40","43.63","TORONTO ISLAND A","6158665","1990-09-17 05:00","1990","09","17","05:00","","","","","","","","33","","11","","","","","","","","","","NA"
"-79.40","43.63","TORONTO ISLAND A","6158665","1990-09-17 06:00","1990","09","17","06:00","","6.7","","1.3","","68","","34","","11","","25.0","","101.22","","","","","","Mainly Clear"
"-79.40","43.63","TORONTO ISLAND A","6158665","1990-09-17 07:00","1990","09","17","07:00","","7.2","","1.6","","67","","33","","15","","25.0","","101.32","","","","","","Mostly Cloudy"
"-79.40","43.63","TORONTO ISLAND A","6158665","1990-09-17 08:00","1990","09","17","08:00","","7.8","","1.7","","65","","32","","15","","25.0","","101.39","","","","","","Mostly Cloudy"
"-79.40","43.63","TORONTO ISLAND A","6158665","1990-09-17 09:00","1990","09","17","09:00","","8.0","","1.2","","62","","36","","15","","25.0","","101.46","","","","","","Mostly Cloudy"
"-79.40","43.63","TORONTO ISLAND A","6158665","1990-09-17 10:00","1990","09","17","10:00","","9.2","","0.6","","55","","32","","30","","25.0","","101.46","","","","","","Mostly Cloudy"
"-79.40","43.63","TORONTO ISLAND A","6158665","1990-09-17 11:00","1990","09","17","11:00","","9.5","","0.5","","53","","32","","22","","25.0","","101.49","","","","","","Mostly Cloudy"
"-79.40","43.63","TORONTO ISLAND A","6158665","1990-09-17 12:00","1990","09","17","12:00","","10.2","","0.4","","50","","33","","22","","25.0","","101.52","","","","","","Mostly Cloudy"
"-79.40","43.63","TORONTO ISLAND A","6158665","1990-09-17 13:00","1990","09","17","13:00","","12.0","","0.9","","46","","32","","22","","25.0","","101.46","","","","","","Mainly Clear"
"-79.40","43.63","TORONTO ISLAND A","6158665","1990-09-17 14:00","1990","09","17","14:00","","12.8","","0.6","","43","","31","","24","","25.0","","101.46","","","","","","Mainly Clear"
"-79.40","43.63","TORONTO ISLAND A","6158665","1990-09-17 15:00","1990","09","17","15:00","","13.4","","-0.1","","39","","31","","24","","25.0","","101.42","","","","","","Clear"
"-79.40","43.63","TORONTO ISLAND A","6158665","1990-09-17 16:00","1990","09","17","16:00","","13.4","","0.7","","42","","33","","17","","25.0","","101.42","","","","","","Clear"
"-79.40","43.63","TORONTO ISLAND A","6158665","1990-09-17 17:00","1990","09","17","17:00","","12.5","","1.2","","46","","35","","22","","25.0","","101.46","","","","","","Clear"
"-79.40","43.63","TORONTO ISLAND A","6158665","1990-09-17 18:00","1990","09","17","18:00","","11.3","","0.8","","48","","34","","19","","25.0","","101.52","","","","","","Clear"
"-79.40","43.63","TORONTO ISLAND A","6158665","1990-09-17 19:00","1990","09","17","19:00","","10.2","","0.9","","52","","33","","19","","25.0","","101.56","","","","","","Clear"
"-79.40","43.63","TORONTO ISLAND A","6158665","1990-09-17 20:00","1990","09","17","20:00","","9.7","","1.3","","56","","31","","24","","25.0","","101.59","","","","","","Clear"
"-79.40","43.63","TORONTO ISLAND A","6158665","1990-09-17 21:00","1990","09","17","21:00","","9.4","","1.0","","56","","32","","19","","25.0","","101.66","","","","","","Clear"
"-79.40","43.63","TORONTO ISLAND A","6158665","1990-09-17 22:00","1990","09","17","22:00","","8.5","","1.2","","60","","30","","17","","25.0","","101.69","","","","","","Clear"
"-79.40","43.63","TORONTO ISLAND A","6158665","1990-09-17 23:00","1990","09","17","23:00","","","","","","","","32","","9","","","","","","","","","","NA"
"-79.40","43.63","TORONTO ISLAND A","6158665","1990-09-18 00:00","1990","09","18","00:00","","","","","","","","29","","6","","","","","","","","","","NA"
"-79.40","43.63","TORONTO ISLAND A","6158665","1990-09-18 01:00","1990","09","18","01:00","","","","","","","","27","","4","","","","","","","","","","NA"
"-79.40","43.63","TORONTO ISLAND A","6158665","1990-09-18 02:00","1990","09","18","02:00","","","","","","","","28","","11","","","","","","","","","","NA"
"-79.40","43.63","TORONTO ISLAND A","6158665","1990-09-18 03:00","1990","09","18","03:00","","","","","","","","29","","9","","","","","","","","","","NA"
"-79.40","43.63","TORONTO ISLAND A","6158665","1990-09-18 04:00","1990","09","18","04:00","","","","","","","","32","","7","","","","","","","","","","NA"
"-79.40","43.63","TORONTO ISLAND A","6158665","1990-09-18 05:00","1990","09","18","05:00","","","","","","","","33","","6","","","","","","","","","","NA"
"-79.40","43.63","TORONTO ISLAND A","6158665","1990-09-18 06:00","1990","09","18","06:00","","6.6","","2.7","","76","","32","","9","","24.1","","101.76","","","","","","Mainly Clear"
"-79.40","43.63","TORONTO ISLAND A","6158665","1990-09-18 07:00","1990","09","18","07:00","","7.7","","3.5","","75","","33","","11","","25.0","","101.76","","","","","","Clear"
"-79.40","43.63","TORONTO ISLAND A","6158665","1990-09-18 08:00","1990","09","18","08:00","","9.7","","3.9","","67","","34","","11","","25.0","","101.73","","","","","","Clear"
"-79.40","43.63","TORONTO ISLAND A","6158665","1990-09-18 09:00","1990","09","18","09:00","","11.8","","4.2","","60","","32","","9","","25.0","","101.73","","","","","","Mainly Clear"
"-79.40","43.63","TORONTO ISLAND A","6158665","1990-09-18 10:00","1990","09","18","10:00","","13.9","","4.3","","52","","22","","6","","25.0","","101.69","","","","","","Clear"
"-79.40","43.63","TORONTO ISLAND A","6158665","1990-09-18 11:00","1990","09","18","11:00","","14.9","","5.5","","53","","20","","7","","25.0","","101.66","","","","","","Mainly Clear"
"-79.40","43.63","TORONTO ISLAND A","6158665","1990-09-18 12:00","1990","09","18","12:00","","15.9","","5.9","","51","","22","","13","","25.0","","101.56","","","","","","Mainly Clear"
"-79.40","43.63","TORONTO ISLAND A","6158665","1990-09-18 13:00","1990","09","18","13:00","","16.4","","6.9","","53","","20","","19","","25.0","","101.46","","","","","","Mainly Clear"
"-79.40","43.63","TORONTO ISLAND A","6158665","1990-09-18 14:00","1990","09","18","14:00","","16.0","","6.7","","54","","20","","19","","25.0","","101.36","","","","","","Mainly Clear"
"-79.40","43.63","TORONTO ISLAND A","6158665","1990-09-18 15:00","1990","09","18","15:00","","17.0","","7.5","","54","","20","","19","","25.0","","101.32","","","","","","Mainly Clear"
"-79.40","43.63","TORONTO ISLAND A","6158665","1990-09-18 16:00","1990","09","18","16:00","","17.5","","8.8","","57","","20","","22","","25.0","","101.29","","","","","","Mostly Cloudy"
"-79.40","43.63","TORONTO ISLAND A","6158665","1990-09-18 17:00","1990","09","18","17:00","","17.2","","10.1","","63","","19","","24","","25.0","","101.22","","","","","","Mainly Clear"
"-79.40","43.63","TORONTO ISLAND A","6158665","1990-09-18 18:00","1990","09","18","18:00","","16.2","","9.3","","63","","24","","17","","25.0","","101.22","","","","","","Mostly Cloudy"
"-79.40","43.63","TORONTO ISLAND A","6158665","1990-09-18 19:00","1990","09","18","19:00","","15.7","","7.6","","59","","21","","28","","25.0","","101.19","","","","","","Mostly Cloudy"
"-79.40","43.63","TORONTO ISLAND A","6158665","1990-09-18 20:00","1990","09","18","20:00","","14.9","","8.8","","67","","24","","28","","25.0","","101.22","","","","","","Mostly Cloudy"
"-79.40","43.63","TORONTO ISLAND A","6158665","1990-09-18 21:00","1990","09","18","21:00","","13.8","","8.9","","72","","25","","15","","25.0","","101.15","","","","","","Mainly Clear"
"-79.40","43.63","TORONTO ISLAND A","6158665","1990-09-18 22:00","1990","09","18","22:00","","13.1","","7.9","","71","","25","","15","","25.0","","101.12","","","","","","Mostly Cloudy"
"-79.40","43.63","TORONTO ISLAND A","6158665","1990-09-18 23:00","1990","09","18","23:00","","","","","","","","25","","11","","","","","","","","","","NA"
"-79.40","43.63","TORONTO ISLAND A","6158665","1990-09-19 00:00","1990","09","19","00:00","","","","","","","","33","","6","","","","","","","","","","NA"
"-79.40","43.63","TORONTO ISLAND A","6158665","1990-09-19 01:00","1990","09","19","01:00","","","","","","","","36","","4","","","","","","","","","","NA"
"-79.40","43.63","TORONTO ISLAND A","6158665","1990-09-19 02:00","1990","09","19","02:00","","","","","","","","","","0","","","","","","","","","","NA"
"-79.40","43.63","TORONTO ISLAND A","6158665","1990-09-19 03:00","1990","09","19","03:00","","","","","","","","","","0","","","","","","","","","","NA"
"-79.40","43.63","TORONTO ISLAND A","6158665","1990-09-19 04:00","1990","09","19","04:00","","","","","","","","","","0","","","","","","","","","","NA"
"-79.40","43.63","TORONTO ISLAND A","6158665","1990-09-19 05:00","1990","09","19","05:00","","","","","","","","","","0","","","","","","","","","","NA"
"-79.40","43.63","TORONTO ISLAND A","6158665","1990-09-19 06:00","1990","09","19","06:00","","12.4","","9.7","","84","","25","","7","","16.1","","100.68","","","","","","Rain"
"-79.40","43.63","TORONTO ISLAND A","6158665","1990-09-19 07:00","1990","09","19","07:00","","12.8","","8.6","","76","","21","","13","","24.1","","100.55","","","","","","Cloudy"
"-79.40","43.63","TORONTO ISLAND A","6158665","1990-09-19 08:00","1990","09","19","08:00","","12.5","","9.4","","81","","20","","9","","24.1","","100.48","","","","","","Rain"
"-79.40","43.63","TORONTO ISLAND A","6158665","1990-09-19 09:00","1990","09","19","09:00","","12.9","","9.7","","81","","13","","9","","24.1","","100.38","","","","","","Cloudy"
"-79.40","43.63","TORONTO ISLAND A","6158665","1990-09-19 10:00","1990","09","19","10:00","","13.7","","9.6","","76","","14","","11","","24.1","","100.35","","","","","","Cloudy"
"-79.40","43.63","TORONTO ISLAND A","6158665","1990-09-19 11:00","1990","09","19","11:00","","13.8","","9.7","","77","","14","","13","","19.3","","100.31","","","","","","Rain"
"-79.40","43.63","TORONTO ISLAND A","6158665","1990-09-19 12:00","1990","09","19","12:00","","12.6","","11.0","","90","","","","0","","6.4","","100.25","","","","","","Moderate Rain"
"-79.40","43.63","TORONTO ISLAND A","6158665","1990-09-19 13:00","1990","09","19","13:00","","12.2","","11.1","","93","","11","","7","","8.0","","100.18","","","","","","Rain,Fog"
"-79.40","43.63","TORONTO ISLAND A","6158665","1990-09-19 14:00","1990","09","19","14:00","","12.2","","11.2","","94","","10","","7","","24.1","","100.11","","","","","","Cloudy"
"-79.40","43.63","TORONTO ISLAND A","6158665","1990-09-19 15:00","1990","09","19","15:00","","12.0","","11.2","","95","","10","","9","","16.1","","100.08","","","","","","Rain Showers"
"-79.40","43.63","TORONTO ISLAND A","6158665","1990-09-19 16:00","1990","09","19","16:00","","12.4","","10.8","","90","","9","","7","","16.1","","100.11","","","","","","Drizzle"
"-79.40","43.63","TORONTO ISLAND A","6158665","1990-09-19 17:00","1990","09","19","17:00","","12.4","","10.6","","89","","9","","6","","16.1","","100.11","","","","","","Cloudy"
"-79.40","43.63","TORONTO ISLAND A","6158665","1990-09-19 18:00","1990","09","19","18:00","","12.3","","10.6","","90","","","","0","","12.9","","100.18","","","","","","Cloudy"
"-79.40","43.63","TORONTO ISLAND A","6158665","1990-09-19 19:00","1990","09","19","19:00","","12.3","","10.8","","91","","","","0","","16.1","","100.21","","","","","","Mostly Cloudy"
"-79.40","43.63","TORONTO ISLAND A","6158665","1990-09-19 20:00","1990","09","19","20:00","","12.6","","11.6","","94","","27","","4","","19.3","","100.28","","","","","","Mostly Cloudy"
"-79.40","43.63","TORONTO ISLAND A","6158665","1990-09-19 21:00","1990","09","19","21:00","","13.0","","11.9","","93","","25","","13","","16.1","","100.31","","","","","","Mostly Cloudy"
"-79.40","43.63","TORONTO ISLAND A","6158665","1990-09-19 22:00","1990","09","19","22:00","","13.1","","10.7","","85","","30","","15","","24.1","","100.35","","","","","","Mainly Clear"
"-79.40","43.63","TORONTO ISLAND A","6158665","1990-09-19 23:00","1990","09","19","23:00","","","","","","","","30","","11","","","","","","","","","","NA"
"-79.40","43.63","TORONTO ISLAND A","6158665","1990-09-20 00:00","1990","09","20","00:00","","","","","","","","28","","13","","","","","","","","","","NA"
"-79.40","43.63","TORONTO ISLAND A","6158665","1990-09-20 01:00","1990","09","20","01:00","","","","","","","","29","","17","","","","","","","","","","NA"
"-79.40","43.63","TORONTO ISLAND A","6158665","1990-09-20 02:00","1990","09","20","02:00","","","","","","","","29","","24","","","","","","","","","","NA"
"-79.40","43.63","TORONTO ISLAND A","6158665","1990-09-20 03:00","1990","09","20","03:00","","","","","","","","29","","22","","","","","","","","","","NA"
"-79.40","43.63","TORONTO ISLAND A","6158665","1990-09-20 04:00","1990","09","20","04:00","","","","","","","","29","","15","","","","","","","","","","NA"
"-79.40","43.63","TORONTO ISLAND A","6158665","1990-09-20 05:00","1990","09","20","05:00","","","","","","","","30","","17","","","","","","","","","","NA"
"-79.40","43.63","TORONTO ISLAND A","6158665","1990-09-20 06:00","1990","09","20","06:00","","11.2","","8.1","","81","","31","","9","","24.1","","100.58","","","","","","Clear"
"-79.40","43.63","TORONTO ISLAND A","6158665","1990-09-20 07:00","1990","09","20","07:00","","11.5","","8.5","","82","","29","","13","","25.0","","100.68","","","","","","Clear"
"-79.40","43.63","TORONTO ISLAND A","6158665","1990-09-20 08:00","1990","09","20","08:00","","12.9","","9.1","","78","","31","","15","","25.0","","100.72","","","","","","Mainly Clear"
"-79.40","43.63","TORONTO ISLAND A","6158665","1990-09-20 09:00","1990","09","20","09:00","","14.4","","9.6","","73","","28","","11","","25.0","","100.75","","","","","","Mainly Clear"
"-79.40","43.63","TORONTO ISLAND A","6158665","1990-09-20 10:00","1990","09","20","10:00","","15.1","","9.2","","68","","32","","13","","25.0","","100.82","","","","","","Mostly Cloudy"
"-79.40","43.63","TORONTO ISLAND A","6158665","1990-09-20 11:00","1990","09","20","11:00","","15.4","","9.4","","67","","31","","13","","25.0","","100.85","","","","","","Cloudy"
"-79.40","43.63","TORONTO ISLAND A","6158665","1990-09-20 12:00","1990","09","20","12:00","","16.5","","8.5","","59","","28","","22","","25.0","","100.85","","","","","","Mostly Cloudy"
"-79.40","43.63","TORONTO ISLAND A","6158665","1990-09-20 13:00","1990","09","20","13:00","","17.3","","8.7","","57","","28","","22","","25.0","","100.82","","","","","","Mostly Cloudy"
"-79.40","43.63","TORONTO ISLAND A","6158665","1990-09-20 14:00","1990","09","20","14:00","","18.4","","8.8","","54","","28","","22","","25.0","","100.82","","","","","","Mostly Cloudy"
"-79.40","43.63","TORONTO ISLAND A","6158665","1990-09-20 15:00","1990","09","20","15:00","","19.0","","9.2","","53","","29","","11","","25.0","","100.82","","","","","","Mostly Cloudy"
"-79.40","43.63","TORONTO ISLAND A","6158665","1990-09-20 16:00","1990","09","20","16:00","","18.9","","9.3","","54","","28","","9","","25.0","","100.85","","","","","","Mostly Cloudy"
"-79.40","43.63","TORONTO ISLAND A","6158665","1990-09-20 17:00","1990","09","20","17:00","","16.8","","11.4","","71","","1","","4","","25.0","","100.92","","","","","","Mostly Cloudy"
"-79.40","43.63","TORONTO ISLAND A","6158665","1990-09-20 18:00","1990","09","20","18:00","","16.7","","12.4","","76","","17","","6","","25.0","","100.92","","","","","","Mostly Cloudy"
"-79.40","43.63","TORONTO ISLAND A","6158665","1990-09-20 19:00","1990","09","20","19:00","","16.5","","11.0","","70","","","","0","","25.0","","101.02","","","","","","Mainly Clear"
"-79.40","43.63","TORONTO ISLAND A","6158665","1990-09-20 20:00","1990","09","20","20:00","","16.3","","8.6","","60","","2","","15","","25.0","","101.09","","","","","","Mostly Cloudy"
"-79.40","43.63","TORONTO ISLAND A","6158665","1990-09-20 21:00","1990","09","20","21:00","","14.7","","9.8","","72","","8","","11","","25.0","","101.09","","","","","","Mostly Cloudy"
"-79.40","43.63","TORONTO ISLAND A","6158665","1990-09-20 22:00","1990","09","20","22:00","","15.0","","7.6","","61","","6","","9","","25.0","","101.12","","","","","","Mostly Cloudy"
"-79.40","43.63","TORONTO ISLAND A","6158665","1990-09-20 23:00","1990","09","20","23:00","","","","","","","","7","","11","","","","","","","","","","NA"
"-79.40","43.63","TORONTO ISLAND A","6158665","1990-09-21 00:00","1990","09","21","00:00","","","","","","","","5","","11","","","","","","","","","","NA"
"-79.40","43.63","TORONTO ISLAND A","6158665","1990-09-21 01:00","1990","09","21","01:00","","","","","","","","8","","11","","","","","","","","","","NA"
"-79.40","43.63","TORONTO ISLAND A","6158665","1990-09-21 02:00","1990","09","21","02:00","","","","","","","","8","","11","","","","","","","","","","NA"
"-79.40","43.63","TORONTO ISLAND A","6158665","1990-09-21 03:00","1990","09","21","03:00","","","","","","","","8","","11","","","","","","","","","","NA"
"-79.40","43.63","TORONTO ISLAND A","6158665","1990-09-21 04:00","1990","09","21","04:00","","","","","","","","8","","9","","","","","","","","","","NA"
"-79.40","43.63","TORONTO ISLAND A","6158665","1990-09-21 05:00","1990","09","21","05:00","","","","","","","","8","","15","","","","","","","","","","NA"
"-79.40","43.63","TORONTO ISLAND A","6158665","1990-09-21 06:00","1990","09","21","06:00","","12.3","","9.1","","81","","7","","13","","25.0","","101.05","","","","","","Mainly Clear"
"-79.40","43.63","TORONTO ISLAND A","6158665","1990-09-21 07:00","1990","09","21","07:00","","12.7","","9.5","","81","","8","","11","","25.0","","101.05","","","","","","Mostly Cloudy"
"-79.40","43.63","TORONTO ISLAND A","6158665","1990-09-21 08:00","1990","09","21","08:00","","13.8","","9.9","","77","","8","","17","","25.0","","101.02","","","","","","Mostly Cloudy"
"-79.40","43.63","TORONTO ISLAND A","6158665","1990-09-21 09:00","1990","09","21","09:00","","14.8","","10.6","","76","","9","","13","","25.0","","101.02","","","","","","Cloudy"
"-79.40","43.63","TORONTO ISLAND A","6158665","1990-09-21 10:00","1990","09","21","10:00","","15.2","","11.1","","76","","8","","15","","24.1","","100.95","","","","","","Cloudy"
"-79.40","43.63","TORONTO ISLAND A","6158665","1990-09-21 11:00","1990","09","21","11:00","","15.4","","11.5","","78","","10","","13","","24.1","","100.92","","","","","","Cloudy"
"-79.40","43.63","TORONTO ISLAND A","6158665","1990-09-21 12:00","1990","09","21","12:00","","16.4","","12.5","","78","","10","","15","","19.3","","100.82","","","","","","Cloudy"
"-79.40","43.63","TORONTO ISLAND A","6158665","1990-09-21 13:00","1990","09","21","13:00","","16.6","","13.1","","80","","9","","19","","16.1","","100.72","","","","","","Cloudy"
"-79.40","43.63","TORONTO ISLAND A","6158665","1990-09-21 14:00","1990","09","21","14:00","","16.6","","13.4","","81","","8","","17","","12.9","","100.68","","","","","","Cloudy"
"-79.40","43.63","TORONTO ISLAND A","6158665","1990-09-21 15:00","1990","09","21","15:00","","16.2","","13.2","","82","","8","","19","","12.9","","100.55","","","","","","Cloudy"
"-79.40","43.63","TORONTO ISLAND A","6158665","1990-09-21 16:00","1990","09","21","16:00","","16.3","","13.0","","81","","8","","11","","16.1","","100.55","","","","","","Cloudy"
"-79.40","43.63","TORONTO ISLAND A","6158665","1990-09-21 17:00","1990","09","21","17:00","","15.4","","13.7","","90","","10","","11","","16.1","","100.42","","","","","","Cloudy"
"-79.40","43.63","TORONTO ISLAND A","6158665","1990-09-21 18:00","1990","09","21","18:00","","15.1","","14.2","","94","","9","","13","","11.3","","100.35","","","","","","Rain"
"-79.40","43.63","TORONTO ISLAND A","6158665","1990-09-21 19:00","1990","09","21","19:00","","15.9","","13.8","","87","","12","","17","","19.3","","100.18","","","","","","Rain"
"-79.40","43.63","TORONTO ISLAND A","6158665","1990-09-21 20:00","1990","09","21","20:00","","16.3","","14.0","","86","","11","","19","","19.3","","100.01","","","","","","Cloudy"
"-79.40","43.63","TORONTO ISLAND A","6158665","1990-09-21 21:00","1990","09","21","21:00","","16.2","","13.2","","82","","13","","13","","24.1","","100.01","","","","","","Cloudy"
"-79.40","43.63","TORONTO ISLAND A","6158665","1990-09-21 22:00","1990","09","21","22:00","","16.6","","14.7","","89","","21","","13","","24.1","","99.94","","","","","","Cloudy"
"-79.40","43.63","TORONTO ISLAND A","6158665","1990-09-21 23:00","1990","09","21","23:00","","","","","","","","23","","7","","","","","","","","","","NA"
"-79.40","43.63","TORONTO ISLAND A","6158665","1990-09-22 00:00","1990","09","22","00:00","","","","","","","","21","","9","","","","","","","","","","NA"
"-79.40","43.63","TORONTO ISLAND A","6158665","1990-09-22 01:00","1990","09","22","01:00","","","","","","","","23","","19","","","","","","","","","","NA"
"-79.40","43.63","TORONTO ISLAND A","6158665","1990-09-22 02:00","1990","09","22","02:00","","","","","","","","23","","24","","","","","","","","","","NA"
"-79.40","43.63","TORONTO ISLAND A","6158665","1990-09-22 03:00","1990","09","22","03:00","","","","","","","","23","","24","","","","","","","","","","NA"
"-79.40","43.63","TORONTO ISLAND A","6158665","1990-09-22 04:00","1990","09","22","04:00","","","","","","","","24","","22","","","","","","","","","","NA"
"-79.40","43.63","TORONTO ISLAND A","6158665","1990-09-22 05:00","1990","09","22","05:00","","","","","","","","25","","20","","","","","","","","","","NA"
"-79.40","43.63","TORONTO ISLAND A","6158665","1990-09-22 06:00","1990","09","22","06:00","","15.7","","14.8","","94","","24","","15","","6.4","","99.54","","","","","","Fog"
"-79.40","43.63","TORONTO ISLAND A","6158665","1990-09-22 07:00","1990","09","22","07:00","","16.0","","14.9","","93","","24","","19","","6.4","","99.57","","","","","","Fog"
"-79.40","43.63","TORONTO ISLAND A","6158665","1990-09-22 08:00","1990","09","22","08:00","","16.1","","13.7","","86","","26","","19","","11.3","","99.57","","","","","","Mainly Clear"
"-79.40","43.63","TORONTO ISLAND A","6158665","1990-09-22 09:00","1990","09","22","09:00","","17.1","","13.7","","80","","26","","30","","12.9","","99.57","","","","","","Mainly Clear"
"-79.40","43.63","TORONTO ISLAND A","6158665","1990-09-22 10:00","1990","09","22","10:00","","17.7","","12.3","","70","","26","","19","","25.0","","99.54","","","","","","Mainly Clear"
"-79.40","43.63","TORONTO ISLAND A","6158665","1990-09-22 11:00","1990","09","22","11:00","","18.4","","11.5","","64","","25","","26","","25.0","","99.54","","","","","","Mainly Clear"
"-79.40","43.63","TORONTO ISLAND A","6158665","1990-09-22 12:00","1990","09","22","12:00","","18.3","","9.7","","57","","26","","33","","25.0","","99.51","","","","","","Mainly Clear"
"-79.40","43.63","TORONTO ISLAND A","6158665","1990-09-22 13:00","1990","09","22","13:00","","18.7","","8.6","","52","","26","","33","","25.0","","99.54","","","","","","Mainly Clear"
"-79.40","43.63","TORONTO ISLAND A","6158665","1990-09-22 14:00","1990","09","22","14:00","","17.0","","6.9","","51","","26","","33","","25.0","","99.57","","","","","","Mostly Cloudy"
"-79.40","43.63","TORONTO ISLAND A","6158665","1990-09-22 15:00","1990","09","22","15:00","","17.2","","9.3","","60","","25","","37","","25.0","","99.57","","","","","","Mostly Cloudy"
"-79.40","43.63","TORONTO ISLAND A","6158665","1990-09-22 16:00","1990","09","22","16:00","","17.3","","6.2","","48","","26","","37","","25.0","","99.54","","","","","","Mostly Cloudy"
"-79.40","43.63","TORONTO ISLAND A","6158665","1990-09-22 17:00","1990","09","22","17:00","","16.1","","9.1","","63","","24","","31","","25.0","","99.51","","","","","","Mostly Cloudy"
"-79.40","43.63","TORONTO ISLAND A","6158665","1990-09-22 18:00","1990","09","22","18:00","","14.8","","10.1","","74","","24","","26","","25.0","","99.47","","","","","","Mainly Clear"
"-79.40","43.63","TORONTO ISLAND A","6158665","1990-09-22 19:00","1990","09","22","19:00","","12.7","","9.1","","79","","29","","19","","25.0","","99.51","","","","","","Mostly Cloudy"
"-79.40","43.63","TORONTO ISLAND A","6158665","1990-09-22 20:00","1990","09","22","20:00","","12.0","","9.8","","86","","27","","7","","25.0","","99.51","","","","","","Clear"
"-79.40","43.63","TORONTO ISLAND A","6158665","1990-09-22 21:00","1990","09","22","21:00","","11.0","","9.6","","91","","25","","11","","25.0","","99.51","","","","","","Clear"
"-79.40","43.63","TORONTO ISLAND A","6158665","1990-09-22 22:00","1990","09","22","22:00","","11.1","","9.9","","92","","25","","15","","25.0","","99.51","","","","","","Mainly Clear"
"-79.40","43.63","TORONTO ISLAND A","6158665","1990-09-22 23:00","1990","09","22","23:00","","","","","","","","25","","13","","","","","","","","","","NA"
"-79.40","43.63","TORONTO ISLAND A","6158665","1990-09-23 00:00","1990","09","23","00:00","","","","","","","","26","","17","","","","","","","","","","NA"
"-79.40","43.63","TORONTO ISLAND A","6158665","1990-09-23 01:00","1990","09","23","01:00","","","","","","","","26","","15","","","","","","","","","","NA"
"-79.40","43.63","TORONTO ISLAND A","6158665","1990-09-23 02:00","1990","09","23","02:00","","","","","","","","25","","13","","","","","","","","","","NA"
"-79.40","43.63","TORONTO ISLAND A","6158665","1990-09-23 03:00","1990","09","23","03:00","","","","","","","","26","","17","","","","","","","","","","NA"
"-79.40","43.63","TORONTO ISLAND A","6158665","1990-09-23 04:00","1990","09","23","04:00","","","","","","","","26","","15","","","","","","","","","","NA"
"-79.40","43.63","TORONTO ISLAND A","6158665","1990-09-23 05:00","1990","09","23","05:00","","","","","","","","26","","19","","","","","","","","","","NA"
"-79.40","43.63","TORONTO ISLAND A","6158665","1990-09-23 06:00","1990","09","23","06:00","","8.6","","5.9","","83","","26","","28","","24.1","","99.31","","","","","","Mostly Cloudy"
"-79.40","43.63","TORONTO ISLAND A","6158665","1990-09-23 07:00","1990","09","23","07:00","","8.4","","6.4","","87","","26","","26","","25.0","","99.31","","","","","","Mostly Cloudy"
"-79.40","43.63","TORONTO ISLAND A","6158665","1990-09-23 08:00","1990","09","23","08:00","","9.2","","6.3","","82","","26","","24","","25.0","","99.34","","","","","","Mostly Cloudy"
"-79.40","43.63","TORONTO ISLAND A","6158665","1990-09-23 09:00","1990","09","23","09:00","","9.7","","5.4","","74","","26","","28","","25.0","","99.41","","","","","","Mostly Cloudy"
"-79.40","43.63","TORONTO ISLAND A","6158665","1990-09-23 10:00","1990","09","23","10:00","","10.8","","5.6","","70","","27","","33","","25.0","","99.44","","","","","","Mostly Cloudy"
"-79.40","43.63","TORONTO ISLAND A","6158665","1990-09-23 11:00","1990","09","23","11:00","","11.3","","5.3","","67","","27","","30","","25.0","","99.47","","","","","","Mostly Cloudy"
"-79.40","43.63","TORONTO ISLAND A","6158665","1990-09-23 12:00","1990","09","23","12:00","","12.0","","4.8","","61","","27","","37","","25.0","","99.54","","","","","","Mostly Cloudy"
"-79.40","43.63","TORONTO ISLAND A","6158665","1990-09-23 13:00","1990","09","23","13:00","","12.7","","4.7","","58","","30","","26","","25.0","","99.54","","","","","","Mostly Cloudy"
"-79.40","43.63","TORONTO ISLAND A","6158665","1990-09-23 14:00","1990","09","23","14:00","","11.5","","4.5","","62","","30","","33","","25.0","","99.57","","","","","","Mostly Cloudy"
"-79.40","43.63","TORONTO ISLAND A","6158665","1990-09-23 15:00","1990","09","23","15:00","","11.2","","3.5","","59","","29","","37","","25.0","","99.68","","","","","","Mostly Cloudy"
"-79.40","43.63","TORONTO ISLAND A","6158665","1990-09-23 16:00","1990","09","23","16:00","","10.2","","3.2","","62","","29","","22","","25.0","","99.74","","","","","","Mostly Cloudy"
"-79.40","43.63","TORONTO ISLAND A","6158665","1990-09-23 17:00","1990","09","23","17:00","","10.0","","3.2","","63","","28","","28","","25.0","","99.84","","","","","","Cloudy"
"-79.40","43.63","TORONTO ISLAND A","6158665","1990-09-23 18:00","1990","09","23","18:00","","9.2","","3.5","","67","","29","","33","","25.0","","99.88","","","","","","Mostly Cloudy"
"-79.40","43.63","TORONTO ISLAND A","6158665","1990-09-23 19:00","1990","09","23","19:00","","8.5","","3.4","","70","","28","","24","","25.0","","99.98","","","","","","Mainly Clear"
"-79.40","43.63","TORONTO ISLAND A","6158665","1990-09-23 20:00","1990","09","23","20:00","","7.8","","3.1","","72","","28","","30","","25.0","","100.05","","","","","","Mainly Clear"
"-79.40","43.63","TORONTO ISLAND A","6158665","1990-09-23 21:00","1990","09","23","21:00","","7.7","","3.0","","72","","28","","19","","25.0","","100.08","","","","","","Clear"
"-79.40","43.63","TORONTO ISLAND A","6158665","1990-09-23 22:00","1990","09","23","22:00","","8.0","","2.7","","69","","29","","15","","25.0","","100.11","","","","","","Mainly Clear"
"-79.40","43.63","TORONTO ISLAND A","6158665","1990-09-23 23:00","1990","09","23","23:00","","","","","","","","26","","19","","","","","","","","","","NA"
"-79.40","43.63","TORONTO ISLAND A","6158665","1990-09-24 00:00","1990","09","24","00:00","","","","","","","","26","","13","","","","","","","","","","NA"
"-79.40","43.63","TORONTO ISLAND A","6158665","1990-09-24 01:00","1990","09","24","01:00","","","","","","","","26","","11","","","","","","","","","","NA"
"-79.40","43.63","TORONTO ISLAND A","6158665","1990-09-24 02:00","1990","09","24","02:00","","","","","","","","27","","19","","","","","","","","","","NA"
"-79.40","43.63","TORONTO ISLAND A","6158665","1990-09-24 03:00","1990","09","24","03:00","","","","","","","","26","","15","","","","","","","","","","NA"
"-79.40","43.63","TORONTO ISLAND A","6158665","1990-09-24 04:00","1990","09","24","04:00","","","","","","","","25","","17","","","","","","","","","","NA"
"-79.40","43.63","TORONTO ISLAND A","6158665","1990-09-24 05:00","1990","09","24","05:00","","","","","","","","25","","19","","","","","","","","","","NA"
"-79.40","43.63","TORONTO ISLAND A","6158665","1990-09-24 06:00","1990","09","24","06:00","","7.0","","5.0","","87","","25","","17","","25.0","","100.21","","","","","","Mainly Clear"
"-79.40","43.63","TORONTO ISLAND A","6158665","1990-09-24 07:00","1990","09","24","07:00","","6.8","","5.3","","90","","25","","15","","25.0","","100.35","","","","","","Mostly Cloudy"
"-79.40","43.63","TORONTO ISLAND A","6158665","1990-09-24 08:00","1990","09","24","08:00","","6.9","","5.8","","93","","23","","24","","25.0","","100.38","","","","","","Mostly Cloudy"
"-79.40","43.63","TORONTO ISLAND A","6158665","1990-09-24 09:00","1990","09","24","09:00","","7.3","","5.7","","90","","22","","20","","25.0","","100.38","","","","","","Mostly Cloudy"
"-79.40","43.63","TORONTO ISLAND A","6158665","1990-09-24 10:00","1990","09","24","10:00","","9.1","","6.1","","81","","22","","30","","25.0","","100.31","","","","","","Mostly Cloudy"
"-79.40","43.63","TORONTO ISLAND A","6158665","1990-09-24 11:00","1990","09","24","11:00","","9.7","","5.4","","74","","22","","30","","25.0","","100.21","","","","","","Mostly Cloudy"
"-79.40","43.63","TORONTO ISLAND A","6158665","1990-09-24 12:00","1990","09","24","12:00","","12.1","","4.9","","61","","23","","37","","25.0","","100.18","","","","","","Mostly Cloudy"
"-79.40","43.63","TORONTO ISLAND A","6158665","1990-09-24 13:00","1990","09","24","13:00","","12.5","","4.7","","59","","23","","35","","25.0","","100.08","","","","","","Mainly Clear"
"-79.40","43.63","TORONTO ISLAND A","6158665","1990-09-24 14:00","1990","09","24","14:00","","15.0","","4.2","","48","","25","","43","","25.0","","100.01","","","","","","Mostly Cloudy"
"-79.40","43.63","TORONTO ISLAND A","6158665","1990-09-24 15:00","1990","09","24","15:00","","15.5","","5.1","","50","","25","","39","","25.0","","100.01","","","","","","Mostly Cloudy"
"-79.40","43.63","TORONTO ISLAND A","6158665","1990-09-24 16:00","1990","09","24","16:00","","12.8","","5.5","","61","","25","","33","","25.0","","100.01","","","","","","Mostly Cloudy"
"-79.40","43.63","TORONTO ISLAND A","6158665","1990-09-24 17:00","1990","09","24","17:00","","12.4","","5.6","","63","","24","","37","","25.0","","100.01","","","","","","Mostly Cloudy"
"-79.40","43.63","TORONTO ISLAND A","6158665","1990-09-24 18:00","1990","09","24","18:00","","10.5","","5.7","","72","","24","","30","","25.0","","100.01","","","","","","Mostly Cloudy"
"-79.40","43.63","TORONTO ISLAND A","6158665","1990-09-24 19:00","1990","09","24","19:00","","10.1","","6.0","","76","","24","","26","","25.0","","100.05","","","","","","Mostly Cloudy"
"-79.40","43.63","TORONTO ISLAND A","6158665","1990-09-24 20:00","1990","09","24","20:00","","8.9","","6.7","","86","","23","","30","","25.0","","100.08","","","","","","Mainly Clear"
"-79.40","43.63","TORONTO ISLAND A","6158665","1990-09-24 21:00","1990","09","24","21:00","","8.3","","6.4","","88","","24","","15","","25.0","","100.08","","","","","","Clear"
"-79.40","43.63","TORONTO ISLAND A","6158665","1990-09-24 22:00","1990","09","24","22:00","","8.0","","6.0","","87","","25","","9","","25.0","","100.11","","","","","","Clear"
"-79.40","43.63","TORONTO ISLAND A","6158665","1990-09-24 23:00","1990","09","24","23:00","","","","","","","","23","","9","","","","","","","","","","NA"
"-79.40","43.63","TORONTO ISLAND A","6158665","1990-09-25 00:00","1990","09","25","00:00","","","","","","","","25","","15","","","","","","","","","","NA"
"-79.40","43.63","TORONTO ISLAND A","6158665","1990-09-25 01:00","1990","09","25","01:00","","","","","","","","23","","30","","","","","","","","","","NA"
"-79.40","43.63","TORONTO ISLAND A","6158665","1990-09-25 02:00","1990","09","25","02:00","","","","","","","","26","","13","","","","","","","","","","NA"
"-79.40","43.63","TORONTO ISLAND A","6158665","1990-09-25 03:00","1990","09","25","03:00","","","","","","","","25","","11","","","","","","","","","","NA"
"-79.40","43.63","TORONTO ISLAND A","6158665","1990-09-25 04:00","1990","09","25","04:00","","","","","","","","25","","15","","","","","","","","","","NA"
"-79.40","43.63","TORONTO ISLAND A","6158665","1990-09-25 05:00","1990","09","25","05:00","","","","","","","","25","","19","","","","","","","","","","NA"
"-79.40","43.63","TORONTO ISLAND A","6158665","1990-09-25 06:00","1990","09","25","06:00","","8.5","","6.6","","88","","24","","13","","24.1","","100.01","","","","","","Mostly Cloudy"
"-79.40","43.63","TORONTO ISLAND A","6158665","1990-09-25 07:00","1990","09","25","07:00","","9.0","","7.6","","91","","22","","17","","25.0","","99.98","","","","","","Mostly Cloudy"
"-79.40","43.63","TORONTO ISLAND A","6158665","1990-09-25 08:00","1990","09","25","08:00","","9.6","","8.7","","94","","22","","15","","24.1","","99.94","","","","","","Mostly Cloudy"
"-79.40","43.63","TORONTO ISLAND A","6158665","1990-09-25 09:00","1990","09","25","09:00","","10.0","","8.6","","91","","20","","19","","24.1","","99.94","","","","","","Mostly Cloudy"
"-79.40","43.63","TORONTO ISLAND A","6158665","1990-09-25 10:00","1990","09","25","10:00","","11.7","","9.3","","85","","19","","24","","24.1","","99.88","","","","","","Mostly Cloudy"
"-79.40","43.63","TORONTO ISLAND A","6158665","1990-09-25 11:00","1990","09","25","11:00","","11.3","","8.8","","85","","19","","24","","24.1","","99.84","","","","","","Mostly Cloudy"
"-79.40","43.63","TORONTO ISLAND A","6158665","1990-09-25 12:00","1990","09","25","12:00","","12.1","","8.5","","79","","19","","24","","25.0","","99.81","","","","","","Mostly Cloudy"
"-79.40","43.63","TORONTO ISLAND A","6158665","1990-09-25 13:00","1990","09","25","13:00","","11.7","","8.3","","79","","19","","24","","25.0","","99.74","","","","","","Mostly Cloudy"
"-79.40","43.63","TORONTO ISLAND A","6158665","1990-09-25 14:00","1990","09","25","14:00","","12.7","","8.2","","74","","19","","30","","25.0","","99.68","","","","","","Mostly Cloudy"
"-79.40","43.63","TORONTO ISLAND A","6158665","1990-09-25 15:00","1990","09","25","15:00","","11.7","","7.5","","75","","20","","26","","24.1","","99.64","","","","","","Mostly Cloudy"
"-79.40","43.63","TORONTO ISLAND A","6158665","1990-09-25 16:00","1990","09","25","16:00","","10.5","","8.6","","88","","20","","26","","12.9","","99.57","","","","","","Rain Showers"
"-79.40","43.63","TORONTO ISLAND A","6158665","1990-09-25 17:00","1990","09","25","17:00","","10.4","","8.1","","86","","24","","13","","25.0","","99.64","","","","","","Cloudy"
"-79.40","43.63","TORONTO ISLAND A","6158665","1990-09-25 18:00","1990","09","25","18:00","","11.1","","8.2","","82","","19","","6","","25.0","","99.64","","","","","","Cloudy"
"-79.40","43.63","TORONTO ISLAND A","6158665","1990-09-25 19:00","1990","09","25","19:00","","12.7","","9.6","","81","","","","0","","25.0","","99.64","","","","","","Cloudy"
"-79.40","43.63","TORONTO ISLAND A","6158665","1990-09-25 20:00","1990","09","25","20:00","","12.7","","10.1","","84","","","","0","","25.0","","99.61","","","","","","Cloudy"
"-79.40","43.63","TORONTO ISLAND A","6158665","1990-09-25 21:00","1990","09","25","21:00","","13.3","","10.3","","82","","21","","4","","25.0","","99.57","","","","","","Cloudy"
"-79.40","43.63","TORONTO ISLAND A","6158665","1990-09-25 22:00","1990","09","25","22:00","","12.6","","9.5","","81","","","","0","","25.0","","99.57","","","","","","Cloudy"
"-79.40","43.63","TORONTO ISLAND A","6158665","1990-09-25 23:00","1990","09","25","23:00","","","","","","","","23","","6","","","","","","","","","","NA"
"-79.40","43.63","TORONTO ISLAND A","6158665","1990-09-26 00:00","1990","09","26","00:00","","","","","","","","25","","7","","","","","","","","","","NA"
"-79.40","43.63","TORONTO ISLAND A","6158665","1990-09-26 01:00","1990","09","26","01:00","","","","","","","","","","0","","","","","","","","","","NA"
"-79.40","43.63","TORONTO ISLAND A","6158665","1990-09-26 02:00","1990","09","26","02:00","","","","","","","","","","0","","","","","","","","","","NA"
"-79.40","43.63","TORONTO ISLAND A","6158665","1990-09-26 03:00","1990","09","26","03:00","","","","","","","","","","0","","","","","","","","","","NA"
"-79.40","43.63","TORONTO ISLAND A","6158665","1990-09-26 04:00","1990","09","26","04:00","","","","","","","","28","","4","","","","","","","","","","NA"
"-79.40","43.63","TORONTO ISLAND A","6158665","1990-09-26 05:00","1990","09","26","05:00","","","","","","","","21","","4","","","","","","","","","","NA"
"-79.40","43.63","TORONTO ISLAND A","6158665","1990-09-26 06:00","1990","09","26","06:00","","11.9","","11.5","","97","","","","0","","12.9","","99.64","","","","","","Thunderstorms"
"-79.40","43.63","TORONTO ISLAND A","6158665","1990-09-26 07:00","1990","09","26","07:00","","14.4","","13.4","","94","","7","","7","","12.9","","99.74","","","","","","Rain Showers"
"-79.40","43.63","TORONTO ISLAND A","6158665","1990-09-26 08:00","1990","09","26","08:00","","12.7","","12.1","","96","","","","0","","6.4","","99.81","","","","","","Fog"
"-79.40","43.63","TORONTO ISLAND A","6158665","1990-09-26 09:00","1990","09","26","09:00","","15.5","","14.4","","93","","","","0","","6.4","","99.84","","","","","","Fog"
"-79.40","43.63","TORONTO ISLAND A","6158665","1990-09-26 10:00","1990","09","26","10:00","","11.8","","10.7","","93","","16","","4","","8.0","","99.94","","","","","","Fog"
"-79.40","43.63","TORONTO ISLAND A","6158665","1990-09-26 11:00","1990","09","26","11:00","","12.0","","10.8","","92","","23","","6","","6.4","","99.94","","","","","","Fog"
"-79.40","43.63","TORONTO ISLAND A","6158665","1990-09-26 12:00","1990","09","26","12:00","","13.4","","11.5","","88","","24","","7","","6.4","","100.01","","","","","","Fog"
"-79.40","43.63","TORONTO ISLAND A","6158665","1990-09-26 13:00","1990","09","26","13:00","","13.4","","10.4","","82","","","","0","","9.7","","100.05","","","","","","Haze"
"-79.40","43.63","TORONTO ISLAND A","6158665","1990-09-26 14:00","1990","09","26","14:00","","13.7","","10.6","","82","","24","","7","","12.9","","100.11","","","","","","Mostly Cloudy"
"-79.40","43.63","TORONTO ISLAND A","6158665","1990-09-26 15:00","1990","09","26","15:00","","15.1","","11.6","","80","","","","0","","12.9","","100.15","","","","","","Mainly Clear"
"-79.40","43.63","TORONTO ISLAND A","6158665","1990-09-26 16:00","1990","09","26","16:00","","15.8","","12.0","","78","","","","0","","12.9","","100.18","","","","","","Mainly Clear"
"-79.40","43.63","TORONTO ISLAND A","6158665","1990-09-26 17:00","1990","09","26","17:00","","14.7","","11.1","","79","","23","","6","","12.9","","100.25","","","","","","Clear"
"-79.40","43.63","TORONTO ISLAND A","6158665","1990-09-26 18:00","1990","09","26","18:00","","18.7","","12.7","","68","","33","","13","","12.9","","100.31","","","","","","Clear"
"-79.40","43.63","TORONTO ISLAND A","6158665","1990-09-26 19:00","1990","09","26","19:00","","16.0","","12.0","","77","","34","","11","","12.9","","100.42","","","","","","Clear"
"-79.40","43.63","TORONTO ISLAND A","6158665","1990-09-26 20:00","1990","09","26","20:00","","14.3","","11.2","","82","","36","","19","","12.9","","100.48","","","","","","Clear"
"-79.40","43.63","TORONTO ISLAND A","6158665","1990-09-26 21:00","1990","09","26","21:00","","13.8","","10.9","","83","","34","","19","","12.9","","100.55","","","","","","Clear"
"-79.40","43.63","TORONTO ISLAND A","6158665","1990-09-26 22:00","1990","09","26","22:00","","13.5","","10.9","","84","","3","","6","","12.9","","100.58","","","","","","Clear"
"-79.40","43.63","TORONTO ISLAND A","6158665","1990-09-26 23:00","1990","09","26","23:00","","","","","","","","1","","11","","","","","","","","","","NA"
"-79.40","43.63","TORONTO ISLAND A","6158665","1990-09-27 00:00","1990","09","27","00:00","","","","","","","","18","","9","","","","","","","","","","NA"
"-79.40","43.63","TORONTO ISLAND A","6158665","1990-09-27 01:00","1990","09","27","01:00","","","","","","","","","","0","","","","","","","","","","NA"
"-79.40","43.63","TORONTO ISLAND A","6158665","1990-09-27 02:00","1990","09","27","02:00"
"-79.40","43.63","TORONTO ISLAND A","6158665","1990-09-27 03:00","1990","09","27","03:00"
"-79.40","43.63","TORONTO ISLAND A","6158665","1990-09-27 04:00","1990","09","27","04:00"
"-79.40","43.63","TORONTO ISLAND A","6158665","1990-09-27 05:00","1990","09","27","05:00"
"-79.40","43.63","TORONTO ISLAND A","6158665","1990-09-27 06:00","1990","09","27","06:00","","10.9","","10.3","","96","","31","","4","","6.4","","100.85","","","","","","Fog"
"-79.40","43.63","TORONTO ISLAND A","6158665","1990-09-27 07:00","1990","09","27","07:00","","11.0","","10.5","","97","","28","","6","","4.8","","100.92","","","","","","Fog"
"-79.40","43.63","TORONTO ISLAND A","6158665","1990-09-27 08:00","1990","09","27","08:00","","12.0","","11.5","","97","","27","","9","","3.2","","100.99","","","","","","Fog"
"-79.40","43.63","TORONTO ISLAND A","6158665","1990-09-27 09:00","1990","09","27","09:00","","11.8","","11.2","","96","","28","","7","","4.8","","101.02","","","","","","Fog"
"-79.40","43.63","TORONTO ISLAND A","6158665","1990-09-27 10:00","1990","09","27","10:00","","11.2","","10.6","","96","","21","","6","","3.2","","101.05","","","","","","Fog"
"-79.40","43.63","TORONTO ISLAND A","6158665","1990-09-27 11:00","1990","09","27","11:00","","12.3","","10.9","","91","","21","","13","","8.0","","101.02","","","","","","Fog"
"-79.40","43.63","TORONTO ISLAND A","6158665","1990-09-27 12:00","1990","09","27","12:00","","13.1","","11.4","","89","","20","","7","","8.0","","101.02","","","","","","Haze"
"-79.40","43.63","TORONTO ISLAND A","6158665","1990-09-27 13:00","1990","09","27","13:00","","15.8","","12.1","","79","","17","","11","","8.0","","100.92","","","","","","Haze"
"-79.40","43.63","TORONTO ISLAND A","6158665","1990-09-27 14:00","1990","09","27","14:00","","17.1","","12.1","","72","","18","","6","","6.4","","100.89","","","","","","Haze"
"-79.40","43.63","TORONTO ISLAND A","6158665","1990-09-27 15:00","1990","09","27","15:00","","17.5","","12.8","","74","","13","","7","","8.0","","100.85","","","","","","Haze"
"-79.40","43.63","TORONTO ISLAND A","6158665","1990-09-27 16:00","1990","09","27","16:00","","16.5","","12.5","","77","","9","","9","","8.0","","100.85","","","","","","Haze"
"-79.40","43.63","TORONTO ISLAND A","6158665","1990-09-27 17:00","1990","09","27","17:00","","15.9","","13.1","","84","","9","","7","","6.4","","100.85","","","","","","Haze"
"-79.40","43.63","TORONTO ISLAND A","6158665","1990-09-27 18:00","1990","09","27","18:00","","12.3","","11.0","","92","","19","","7","","6.4","","100.89","","","","","","Fog"
"-79.40","43.63","TORONTO ISLAND A","6158665","1990-09-27 19:00","1990","09","27","19:00","","13.1","","12.1","","94","","23","","9","","6.4","","100.92","","","","","","Fog"
"-79.40","43.63","TORONTO ISLAND A","6158665","1990-09-27 20:00","1990","09","27","20:00","","12.4","","11.8","","96","","21","","11","","6.4","","100.92","","","","","","Fog"
"-79.40","43.63","TORONTO ISLAND A","6158665","1990-09-27 21:00","1990","09","27","21:00","","12.4","","11.8","","96","","","","0","","6.4","","100.95","","","","","","Fog"
"-79.40","43.63","TORONTO ISLAND A","6158665","1990-09-27 22:00","1990","09","27","22:00","","11.9","","11.3","","96","","","","0","","4.8","","100.95","","","","","","Fog"
"-79.40","43.63","TORONTO ISLAND A","6158665","1990-09-27 23:00","1990","09","27","23:00","","","","","","","","","","0","","","","","","","","","","NA"
"-79.40","43.63","TORONTO ISLAND A","6158665","1990-09-28 00:00","1990","09","28","00:00","","","","","","","","7","","4","","","","","","","","","","NA"
"-79.40","43.63","TORONTO ISLAND A","6158665","1990-09-28 01:00","1990","09","28","01:00","","","","","","","","9","","4","","","","","","","","","","NA"
"-79.40","43.63","TORONTO ISLAND A","6158665","1990-09-28 02:00","1990","09","28","02:00"
"-79.40","43.63","TORONTO ISLAND A","6158665","1990-09-28 03:00","1990","09","28","03:00"
"-79.40","43.63","TORONTO ISLAND A","6158665","1990-09-28 04:00","1990","09","28","04:00"
"-79.40","43.63","TORONTO ISLAND A","6158665","1990-09-28 05:00","1990","09","28","05:00"
"-79.40","43.63","TORONTO ISLAND A","6158665","1990-09-28 06:00","1990","09","28","06:00","","8.9","","8.9","","100","","9","","7","","1.2","","101.02","","","","","","Fog"
"-79.40","43.63","TORONTO ISLAND A","6158665","1990-09-28 07:00","1990","09","28","07:00","","8.7","","8.7","","100","","9","","13","","0.0","","101.05","","","","","","Fog"
"-79.40","43.63","TORONTO ISLAND A","6158665","1990-09-28 08:00","1990","09","28","08:00","","10.8","","10.8","","100","","9","","9","","0.0","","101.05","","","","","","Fog"
"-79.40","43.63","TORONTO ISLAND A","6158665","1990-09-28 09:00","1990","09","28","09:00","","11.1","","11.1","","100","","9","","9","","0.2","","101.09","","","","","","Fog"
"-79.40","43.63","TORONTO ISLAND A","6158665","1990-09-28 10:00","1990","09","28","10:00","","11.2","","11.2","","100","","9","","9","","0.4","","101.05","","","","","","Fog"
"-79.40","43.63","TORONTO ISLAND A","6158665","1990-09-28 11:00","1990","09","28","11:00","","13.2","","12.8","","97","","9","","4","","4.8","","101.05","","","","","","Fog"
"-79.40","43.63","TORONTO ISLAND A","6158665","1990-09-28 12:00","1990","09","28","12:00","","16.4","","14.2","","87","","","","0","","4.8","","100.95","","","","","","Haze"
"-79.40","43.63","TORONTO ISLAND A","6158665","1990-09-28 13:00","1990","09","28","13:00","","17.2","","13.4","","78","","8","","7","","6.4","","100.92","","","","","","Haze"
"-79.40","43.63","TORONTO ISLAND A","6158665","1990-09-28 14:00","1990","09","28","14:00","","17.4","","13.7","","79","","8","","13","","6.4","","100.85","","","","","","Haze"
"-79.40","43.63","TORONTO ISLAND A","6158665","1990-09-28 15:00","1990","09","28","15:00","","15.4","","12.5","","83","","8","","13","","6.4","","100.85","","","","","","Haze"
"-79.40","43.63","TORONTO ISLAND A","6158665","1990-09-28 16:00","1990","09","28","16:00","","15.6","","13.0","","84","","9","","13","","6.4","","100.85","","","","","","Haze"
"-79.40","43.63","TORONTO ISLAND A","6158665","1990-09-28 17:00","1990","09","28","17:00","","15.8","","13.7","","88","","9","","9","","11.3","","100.85","","","","","","Cloudy"
"-79.40","43.63","TORONTO ISLAND A","6158665","1990-09-28 18:00","1990","09","28","18:00","","18.0","","14.0","","77","","","","0","","9.7","","100.89","","","","","","Haze"
"-79.40","43.63","TORONTO ISLAND A","6158665","1990-09-28 19:00","1990","09","28","19:00","","20.5","","13.7","","65","","36","","15","","12.9","","100.92","","","","","","Mostly Cloudy"
"-79.40","43.63","TORONTO ISLAND A","6158665","1990-09-28 20:00","1990","09","28","20:00","","20.0","","13.3","","65","","3","","11","","16.1","","100.92","","","","","","Cloudy"
"-79.40","43.63","TORONTO ISLAND A","6158665","1990-09-28 21:00","1990","09","28","21:00","","19.7","","11.8","","60","","1","","9","","16.1","","100.92","","","","","","Cloudy"
"-79.40","43.63","TORONTO ISLAND A","6158665","1990-09-28 22:00","1990","09","28","22:00","","12.5","","11.2","","92","","23","","9","","12.9","","100.92","","","","","","Cloudy"
"-79.40","43.63","TORONTO ISLAND A","6158665","1990-09-28 23:00","1990","09","28","23:00","","","","","","","","33","","11","","","","","","","","","","NA"
"-79.40","43.63","TORONTO ISLAND A","6158665","1990-09-29 00:00","1990","09","29","00:00","","","","","","","","35","","7","","","","","","","","","","NA"
"-79.40","43.63","TORONTO ISLAND A","6158665","1990-09-29 01:00","1990","09","29","01:00","","","","","","","","36","","17","","","","","","","","","","NA"
"-79.40","43.63","TORONTO ISLAND A","6158665","1990-09-29 02:00","1990","09","29","02:00","","","","","","","","1","","19","","","","","","","","","","NA"
"-79.40","43.63","TORONTO ISLAND A","6158665","1990-09-29 03:00","1990","09","29","03:00","","","","","","","","","","0","","","","","","","","","","NA"
"-79.40","43.63","TORONTO ISLAND A","6158665","1990-09-29 04:00","1990","09","29","04:00","","","","","","","","35","","11","","","","","","","","","","NA"
"-79.40","43.63","TORONTO ISLAND A","6158665","1990-09-29 05:00","1990","09","29","05:00","","","","","","","","2","","11","","","","","","","","","","NA"
"-79.40","43.63","TORONTO ISLAND A","6158665","1990-09-29 06:00","1990","09","29","06:00","","15.5","","13.7","","89","","35","","11","","16.1","","100.95","","","","","","Cloudy"
"-79.40","43.63","TORONTO ISLAND A","6158665","1990-09-29 07:00","1990","09","29","07:00","","16.2","","14.0","","87","","36","","9","","6.4","","101.02","","","","","","Rain Showers,Fog"
"-79.40","43.63","TORONTO ISLAND A","6158665","1990-09-29 08:00","1990","09","29","08:00","","16.2","","14.4","","89","","1","","9","","8.0","","101.12","","","","","","Fog"
"-79.40","43.63","TORONTO ISLAND A","6158665","1990-09-29 09:00","1990","09","29","09:00","","16.7","","14.4","","86","","6","","9","","8.0","","101.12","","","","","","Fog"
"-79.40","43.63","TORONTO ISLAND A","6158665","1990-09-29 10:00","1990","09","29","10:00","","16.8","","14.5","","86","","7","","11","","6.4","","101.09","","","","","","Fog"
"-79.40","43.63","TORONTO ISLAND A","6158665","1990-09-29 11:00","1990","09","29","11:00","","16.1","","13.7","","86","","8","","13","","6.4","","101.09","","","","","","Fog"
"-79.40","43.63","TORONTO ISLAND A","6158665","1990-09-29 12:00","1990","09","29","12:00","","15.6","","13.5","","87","","10","","17","","6.4","","101.12","","","","","","Fog"
"-79.40","43.63","TORONTO ISLAND A","6158665","1990-09-29 13:00","1990","09","29","13:00","","15.2","","13.2","","88","","10","","19","","8.0","","101.09","","","","","","Fog"
"-79.40","43.63","TORONTO ISLAND A","6158665","1990-09-29 14:00","1990","09","29","14:00","","15.3","","12.9","","86","","9","","13","","8.0","","101.05","","","","","","Fog"
"-79.40","43.63","TORONTO ISLAND A","6158665","1990-09-29 15:00","1990","09","29","15:00","","13.8","","12.3","","91","","8","","17","","6.4","","101.05","","","","","","Fog"
"-79.40","43.63","TORONTO ISLAND A","6158665","1990-09-29 16:00","1990","09","29","16:00","","13.6","","12.0","","90","","9","","11","","8.0","","101.02","","","","","","Fog"
"-79.40","43.63","TORONTO ISLAND A","6158665","1990-09-29 17:00","1990","09","29","17:00","","14.0","","11.8","","86","","8","","15","","9.7","","101.05","","","","","","Fog"
"-79.40","43.63","TORONTO ISLAND A","6158665","1990-09-29 18:00","1990","09","29","18:00","","14.2","","11.7","","85","","8","","15","","9.7","","101.05","","","","","","Fog"
"-79.40","43.63","TORONTO ISLAND A","6158665","1990-09-29 19:00","1990","09","29","19:00","","12.9","","12.3","","96","","8","","17","","4.8","","101.05","","","","","","Rain,Drizzle,Fog"
"-79.40","43.63","TORONTO ISLAND A","6158665","1990-09-29 20:00","1990","09","29","20:00","","13.3","","12.9","","97","","8","","17","","4.8","","100.99","","","","","","Rain,Fog"
"-79.40","43.63","TORONTO ISLAND A","6158665","1990-09-29 21:00","1990","09","29","21:00","","13.1","","12.6","","97","","7","","17","","6.4","","100.92","","","","","","Rain,Fog"
"-79.40","43.63","TORONTO ISLAND A","6158665","1990-09-29 22:00","1990","09","29","22:00","","12.4","","11.9","","97","","8","","19","","9.7","","100.85","","","","","","Rain,Fog"
"-79.40","43.63","TORONTO ISLAND A","6158665","1990-09-29 23:00","1990","09","29","23:00","","","","","","","","7","","26","","","","","","","","","","NA"
"-79.40","43.63","TORONTO ISLAND A","6158665","1990-09-30 00:00","1990","09","30","00:00","","","","","","","","7","","24","","","","","","","","","","NA"
"-79.40","43.63","TORONTO ISLAND A","6158665","1990-09-30 01:00","1990","09","30","01:00","","","","","","","","1","","15","","","","","","","","","","NA"
"-79.40","43.63","TORONTO ISLAND A","6158665","1990-09-30 02:00","1990","09","30","02:00","","","","","","","","2","","19","","","","","","","","","","NA"
"-79.40","43.63","TORONTO ISLAND A","6158665","1990-09-30 03:00","1990","09","30","03:00","","","","","","","","4","","22","","","","","","","","","","NA"
"-79.40","43.63","TORONTO ISLAND A","6158665","1990-09-30 04:00","1990","09","30","04:00","","","","","","","","3","","11","","","","","","","","","","NA"
"-79.40","43.63","TORONTO ISLAND A","6158665","1990-09-30 05:00","1990","09","30","05:00","","","","","","","","32","","13","","","","","","","","","","NA"
"-79.40","43.63","TORONTO ISLAND A","6158665","1990-09-30 06:00","1990","09","30","06:00","","11.3","","10.7","","96","","36","","9","","16.1","","100.31","","","","","","Rain"
"-79.40","43.63","TORONTO ISLAND A","6158665","1990-09-30 07:00","1990","09","30","07:00","","11.4","","10.8","","96","","31","","19","","24.1","","100.31","","","","","","Rain"
"-79.40","43.63","TORONTO ISLAND A","6158665","1990-09-30 08:00","1990","09","30","08:00","","11.3","","10.8","","97","","2","","11","","6.4","","100.35","","","","","","Rain,Fog"
"-79.40","43.63","TORONTO ISLAND A","6158665","1990-09-30 09:00","1990","09","30","09:00","","11.6","","11.0","","96","","32","","9","","16.1","","100.35","","","","","","Rain"
"-79.40","43.63","TORONTO ISLAND A","6158665","1990-09-30 10:00","1990","09","30","10:00","","11.8","","11.0","","95","","29","","19","","25.0","","100.42","","","","","","Mostly Cloudy"
"-79.40","43.63","TORONTO ISLAND A","6158665","1990-09-30 11:00","1990","09","30","11:00","","13.3","","11.0","","86","","29","","19","","16.1","","100.45","","","","","","Rain Showers"
"-79.40","43.63","TORONTO ISLAND A","6158665","1990-09-30 12:00","1990","09","30","12:00","","14.4","","10.8","","79","","28","","22","","25.0","","100.42","","","","","","Mostly Cloudy"
"-79.40","43.63","TORONTO ISLAND A","6158665","1990-09-30 13:00","1990","09","30","13:00","","15.0","","9.5","","70","","29","","19","","25.0","","100.45","","","","","","Mostly Cloudy"
"-79.40","43.63","TORONTO ISLAND A","6158665","1990-09-30 14:00","1990","09","30","14:00","","14.8","","6.9","","59","","28","","35","","25.0","","100.48","","","","","","Mostly Cloudy"
"-79.40","43.63","TORONTO ISLAND A","6158665","1990-09-30 15:00","1990","09","30","15:00","","14.6","","7.4","","62","","29","","26","","25.0","","100.52","","","","","","Mostly Cloudy"
"-79.40","43.63","TORONTO ISLAND A","6158665","1990-09-30 16:00","1990","09","30","16:00","","14.0","","7.8","","66","","30","","26","","25.0","","100.62","","","","","","Mostly Cloudy"
"-79.40","43.63","TORONTO ISLAND A","6158665","1990-09-30 17:00","1990","09","30","17:00","","13.4","","7.3","","67","","30","","19","","25.0","","100.68","","","","","","Mostly Cloudy"
"-79.40","43.63","TORONTO ISLAND A","6158665","1990-09-30 18:00","1990","09","30","18:00","","12.5","","6.8","","68","","29","","26","","25.0","","100.75","","","","","","Mainly Clear"
"-79.40","43.63","TORONTO ISLAND A","6158665","1990-09-30 19:00","1990","09","30","19:00","","11.5","","5.8","","68","","30","","22","","25.0","","100.82","","","","","","Clear"
"-79.40","43.63","TORONTO ISLAND A","6158665","1990-09-30 20:00","1990","09","30","20:00","","10.7","","4.8","","67","","29","","17","","25.0","","100.92","","","","","","Clear"
"-79.40","43.63","TORONTO ISLAND A","6158665","1990-09-30 21:00","1990","09","30","21:00","","9.6","","5.0","","73","","26","","13","","25.0","","100.95","","","","","","Clear"
"-79.40","43.63","TORONTO ISLAND A","6158665","1990-09-30 22:00","1990","09","30","22:00","","8.2","","5.4","","82","","26","","9","","25.0","","101.02","","","","","","Clear"
"-79.40","43.63","TORONTO ISLAND A","6158665","1990-09-30 23:00","1990","09","30","23:00","","","","","","","","30","","11","","","","","","","","","","NA"
